Business Name,Physical Address Number,Physical Address,Physical City,Physical State,Phone,Latitude,Longitude,Primary SIC Description,
"Ruggieros Market","3345","3345 Washington St","Jamaica Plain","MA","(617) 522-7184","42.30971","-71.104632","Convenience Stores",
"McDonald's","40","40 Enon St Ste 5","Beverly","MA","(978) 922-1884","42.5865229","-70.885745","Restaurants",
"Wendy's","806","806 Main St","Waltham","MA","(781) 899-2795","42.376044","-71.242621","Restaurants",
"McDonald's","346","346 Great Rd","Bedford","MA","(781) 275-8746","42.485169","-71.2600764","Restaurants",
"McDonald's","14","14 E Clark St","Middleboro","MA","(508) 947-7057","41.884018","-70.917812","Restaurants",
"McDonald's","290","290 Worcester St","Natick","MA","(508) 653-1809","42.301747","-71.337105","Restaurants",
"Burger King","4594","4594 Washington St","Roslindale","MA","(617) 323-8739","42.2762267972074","-71.1391679548735","Restaurants",
"Cape Cod Cafe Inc","979","979 Main St","Brockton","MA","(508) 583-9420","42.0659677","-71.016716","Restaurants",
"Burger King","150","150 Everett Ave","Chelsea","MA","(617) 884-0619","42.3955957","-71.0402883","Restaurants",
"McDonald's","912","912 Central Ave","Dover","NH","(603) 742-9813","43.2198848","-70.8856908","Restaurants",
"Burger King","100","100 Washington St","Dorchester","MA","(617) 427-1535","42.305953","-71.080321","Restaurants",
"McDonald's","I-90","Mass Pike I-90 Srvc Area 8e Milepost 117","Natick","MA","(508) 651-1687","42.29129","-71.35783","Restaurants",
"McDonald's","143","143 Samoset St","Plymouth","MA","(508) 746-9885","41.9529636","-70.6863796","Restaurants",
"McDonald's","110","110 Pleasant Valley St","Methuen","MA","(978) 687-9831","42.7437907","-71.1510911","Restaurants",
"McDonald's","567","567 Lynnway","Lynn","MA","(781) 598-1894","42.4555147","-70.9595436","Restaurants",
"Domino's","1260","1260 Boylston St Ste 2","Boston","MA","(617) 424-9000","42.344738","-71.09597","Pizza",
"McDonald's","45","45 Crystal Ave","Derry","NH","(603) 432-2231","42.8906446","-71.3266393","Restaurants",
"McDonald's","291","291 N Main St","Rochester","NH","(603) 332-6829","43.311005","-70.992016","Restaurants",
"McDonald's","210","210 Andover St Ste F111","Peabody","MA","(978) 977-3694","42.5413325","-70.9439351","Restaurants",
"McDonald's","422","422 Washington St","Stoughton","MA","(781) 344-0489","42.1345146","-71.1010486","Restaurants",
"McDonald's","870","870 Massachusetts Ave","Boston","MA","(617) 442-4349","42.331524","-71.07035","Restaurants",
"McDonald's","718","718 American Legion Hwy","Roslindale","MA","(617) 323-7027","42.2828546","-71.11359","Restaurants",
"McDonald's","56","56 Calef Hwy","Epping","NH","(603) 679-8544","43.0282805175897","-71.073947038972","Restaurants",
"McDonald's","31","31 Providence Hwy","Norwood","MA","(781) 352-4414","42.2124386231276","-71.1832412034959","Restaurants",
"McDonald's","55","55 Great Rd","Acton","MA","(978) 264-2062","42.47589","-71.409329","Restaurants",
"McDonald's","178","178 Border St","East Boston","MA","(617) 567-9374","42.3745047","-71.0402152","Restaurants",
"McDonald's","301","301 Warren St","Roxbury","MA","(617) 442-6698","42.320367","-71.082202","Restaurants",
"McDonald's","225","225 S Broadway","Salem","NH","(603) 898-7923","42.763551","-71.215504","Restaurants",
"McDonald's","1000","1000 Lafayette Rd","Portsmouth","NH","(603) 436-3127","43.049428","-70.771608","Restaurants",
"McDonald's","5","5 Long Pond Rd Ste A","Plymouth","MA","(508) 747-9615","41.9336745249384","-70.6577641404519","Restaurants",
"McDonald's","1223","1223 Commonwealth Ave","Allston","MA","(617) 562-1313","42.3507101","-71.1309674","Restaurants",
"McDonald's","343","343 Cochituate Rd","Framingham","MA","(508) 879-1650","42.3028491","-71.4009097","Restaurants",
"McDonald's","9","9 Taunton St","Plainville","MA","(508) 695-9826","42.010012","-71.304515","Restaurants",
"McDonald's","161","161 S Main St","Middleton","MA","(978) 539-8818","42.5831255","-71.0067514","Restaurants",
"McDonald's","15","15 Crawford St","Needham Heights","MA","(781) 400-1815","42.3070821","-71.2282537","Restaurants",
"McDonald's","710","710 Lafayette Rd","Seabrook","NH","(603) 474-8361","42.894453","-70.871038","Restaurants",
"McDonald's","10","10 Post Office Sq","Boston","MA","(617) 850-9054","42.357489","-71.055591","Restaurants",
"McDonald's","43","43 Thorndike St","Cambridge","MA","(617) 608-1410","42.3697392","-71.0791279","Restaurants",
"McDonald's","273","273 Boston Rd","Billerica","MA","(978) 667-9174","42.55344","-71.25763","Restaurants",
"McDonald's","114","114 Broadway","Malden","MA","(781) 322-4443","42.4270531","-71.0417932","Restaurants",
"McDonald's","1750","1750 Soldiers Field Rd","Brighton","MA","(617) 202-6036","42.3586722","-71.1548866","Restaurants",
"McDonald's","340","340 Longwood Ave # 350","Boston","MA","(617) 566-4888","42.3381973","-71.1064812","Restaurants",
"Wendy's","191","191 Newport Ave","Quincy","MA","(617) 472-2983","42.26906","-71.023884","Restaurants",
"McDonald's","1650","1650 Vfw Pkwy","West Roxbury","MA","(617) 325-2709","42.264472","-71.1677753","Restaurants",
"Wendy's","520","520 Southern Artery","Quincy","MA","(617) 472-3981","42.25388","-70.993974","Restaurants",
"McDonald's","10","10 Freetown Rd","Raymond","NH","(603) 895-9396","43.035934","-71.163966","Restaurants",
"McDonald's","77","77 High St","Danvers","MA","(978) 762-0902","42.561202","-70.932812","Restaurants",
"Wendy's","355","355 Washington St","Stoughton","MA","(781) 344-1857","42.136453","-71.10235","Restaurants",
"McDonald's","908","908 N Montello St","Brockton","MA","(508) 588-9920","42.1078677","-71.0248445","Restaurants",
"Restaurant 45","45","45 Milford St Unit 1","Medway","MA","(508) 533-8171","42.1444912","-71.4436875","Restaurants",
"McDonald's","808","808 Main St","Millis","MA","(508) 376-4031","42.167733","-71.355537","Restaurants",
"Burger King","52","52 Middlesex Tpke","Burlington","MA","(781) 272-9611","42.4724068","-71.2124257","Restaurants",
"Burger King","41","41 Boston Providence Tpke","Norwood","MA","(781) 769-7698","42.2107474","-71.1845033","Restaurants",
"Burger King","250","250 N Main St","Rochester","NH","(603) 332-8341","43.308978","-70.990448","Restaurants",
"McDonald's","1260","1260 Bridge St","Dracut","MA","(978) 459-3029","42.666064","-71.303746","Restaurants",
"McDonald's","572","572 Main St","Wakefield","MA","(781) 246-7689","42.4990801","-71.0687546","Restaurants",
"Wendy's","373","373 Centre Ave","Abington","MA","(781) 982-9651","42.110249","-70.931053","Restaurants",
"McDonald's","148","148 Portsmouth Ave","Exeter","NH","(603) 778-8919","42.9909039","-70.9300271","Restaurants",
"McDonald's","1600","1600 Providence Hwy","Norwood","MA","(781) 762-1275","42.1588879592564","-71.2007310532103","Restaurants",
"McDonald's","738","738 Broadway","Saugus","MA","(781) 233-8622","42.473348","-71.023514","Restaurants",
"Polio Campero","115","115 Park St","Chelsea","MA","(617) 409-0125","42.389717","-71.037073","Restaurants",
"McDonald's","12","12 Pearl St","Braintree","MA","(781) 356-4545","42.2023971325916","-71.00479","Restaurants",
"Polio Campero","188","188 Border St","East Boston","MA","(617) 568-9500","42.374784","-71.040695","Restaurants",
"Burger King","187","187 Broadway","Lawrence","MA","(978) 688-0835","42.7073072","-71.1695876","Restaurants",
"McDonald's","660","660 Chickering Rd","North Andover","MA","(978) 685-9757","42.700031","-71.118563","Restaurants",
"McDonald's","173","173 Washington St","Hudson","MA","(978) 310-7721","42.3822288","-71.5691503","Restaurants",
"McDonald's","147","147 Pelham St","Methuen","MA","(978) 683-8641","42.7282642","-71.2029501","Restaurants",
"Burger King","188","188 Turnpike St","North Andover","MA","(978) 685-4490","42.674864","-71.127483","Restaurants",
"McDonald's","473","473 Southern Artery","Quincy","MA","(617) 479-6488","42.254386","-70.996357","Restaurants",
"McDonald's","44","44 Concord Rd","Lee","NH","(603) 868-6237","43.1490586438767","-71.0074711115578","Restaurants",
"Five Guys","221","221 N Main St","Natick","MA","(508) 650-5100","42.3022125444592","-71.3609321094897","Restaurants",
"McDonald's","197","197 California St","Newton","MA","(617) 527-9693","42.3650734","-71.1962654","Restaurants",
"McDonald's","50","50 Maplewood Ave Ste 11","Gloucester","MA","(978) 281-6227","42.617596","-70.666352","Restaurants",
"Wendy's","707","707 W Center St","West Bridgewater","MA","(508) 583-4357","42.0124514","-71.0510942","Restaurants",
"McDonald's","230","230 Elliott St","Beverly","MA","(978) 232-9293","42.5559379","-70.887742","Restaurants",
"McDonald's","595","595 Main St","Walpole","MA","(508) 668-5919","42.1562544","-71.2437768","Restaurants",
"Burger King","185","185 Somerville Ave","Somerville","MA","(617) 625-4426","42.3779581","-71.0897397","Restaurants",
"McDonald's","1915","1915 Andover St","Tewksbury","MA","(978) 858-3458","42.642437","-71.2276257","Restaurants",
"McDonald's","1","1 Traders Way","Salem","MA","(978) 744-9631","42.5027715","-70.9233908","Restaurants",
"Wendy's","115","115 Powder Mill Rd","Maynard","MA","(978) 461-0444","42.438635","-71.435202","Restaurants",
"McDonald's","275","275 Hancock St","Quincy","MA","(617) 770-3017","42.276641","-71.029342","Restaurants",
"McDonald's","2","2 South Sta Ste 11","Boston","MA","(617) 261-1551","42.3532302517641","-71.056788855126","Restaurants",
"KFC","485","485 Boston Rd","Billerica","MA","(978) 663-3333","42.550858","-71.26391","Restaurants",
"McDonald's","222","222 Broad St","Bridgewater","MA","(508) 697-9568","41.9962135","-70.9725756","Restaurants",
"Wendy's","660","660 Oak St","Brockton","MA","(508) 588-7288","42.101178","-71.054296","Restaurants",
"Burger King","259","259 Cochituate Rd","Framingham","MA","(508) 875-9832","42.302078","-71.402857","Restaurants",
"McDonald's","161","161 Wakefield St","Rochester","NH","(603) 332-9848","43.315046","-70.976905","Restaurants",
"Burger King","606","606 Belmont St","Brockton","MA","(508) 588-1963","42.072178","-71.043367","Restaurants",
"McDonald's","43","43 Main St","North Reading","MA","(978) 664-0008","42.5693994","-71.1085242","Restaurants",
"Wendy's","99","99 Winthrop Ave","Lawrence","MA","(978) 682-0565","42.689147","-71.148689","Restaurants",
"McDonald's","1180","1180 Main St","Haverhill","MA","(978) 373-9264","42.8094541","-71.1032371","Restaurants",
"Burger King","108","108 Boston St","Lynn","MA","(781) 584-8367","42.4750832","-70.9571111","Restaurants",
"McDonald's","111","111 Needham St","Newton Upper Falls","MA","(617) 527-3570","42.313774","-71.212299","Restaurants",
"McDonald's","128","128 Broadway","Everett","MA","(617) 387-8625","42.3985122","-71.0641197","Restaurants",
"Wendy's","45","45 Commerce Way","Plymouth","MA","(508) 747-7377","41.9514902","-70.7128457","Restaurants",
"McDonald's","127","127 Broadway","Saugus","MA","(781) 231-7042","42.495664","-71.016221","Restaurants",
"Burger King","881","881 Moody St","Waltham","MA","(781) 891-5612","42.361268","-71.239654","Restaurants",
"Wendy's","14","14 Condlin Dr","Randolph","MA","(781) 961-2838","42.1666381239535","-71.0465233924157","Restaurants",
"Five Guys","380","380 Lafayette Rd Unit 203","Seabrook","NH","(603) 814-1235","42.886481","-70.868244","Restaurants",
"McDonald's","360","360 Western Ave","Brighton","MA","(617) 787-2882","42.3627791","-71.1369705","Restaurants",
"Wendy's","1724","1724 Revere Beach Pkwy","Everett","MA","(617) 394-9768","42.4017058","-71.0442565","Restaurants",
"Wendy's","95","95 Calef Hwy","Lee","NH","(603) 868-1502","43.149966","-71.005915","Restaurants",
"McDonald's","1223","1223 Worcester Rd","Framingham","MA","(508) 875-9771","42.2987496","-71.4481683","Restaurants",
"Burger King","","Route 24 Southbound","Bridgewater","MA","(508) 697-9672","41.97739","-70.97532","Restaurants",
"Wendy's","5","5 Arlington St","Dracut","MA","(978) 452-2393","42.668869","-71.30282","Restaurants",
"Burger King","6","6 Taunton St","Plainville","MA","(508) 514-7905","42.009604","-71.305482","Restaurants",
"McDonald's","20","20 Main St","Townsend","MA","(978) 597-6521","42.649965","-71.662155","Restaurants",
"McDonald's","803","803 Rogers St","Lowell","MA","(978) 452-9258","42.6291603","-71.2764831","Restaurants",
"McDonald's","2121","2121 Ocean St","Marshfield","MA","(781) 837-4217","42.0927763","-70.7157992","Restaurants",
"McDonald's","55","55 Middlesex Tpke","Burlington","MA","(781) 272-4165","42.4739665","-71.2124431","Restaurants",
"McDonald's","67","67 Main St","Medway","MA","(508) 533-5088","42.1527088","-71.4045921","Restaurants",
"McDonald's","463","463 Massachusetts Ave","Cambridge","MA","(617) 497-3926","42.364054","-71.100844","Restaurants",
"Wendy's","176","176 Boston Post Rd W","Marlborough","MA","(508) 481-5366","42.338661","-71.589027","Restaurants",
"Burger King","944","944 Bennington St","East Boston","MA","(617) 569-8755","42.386146","-71.009636","Restaurants",
"Five Guys","980","980 Paradise Rd Ste 2","Swampscott","MA","(781) 595-1300","42.4832863","-70.9013733","Restaurants",
"Burger King","62","62 Granite St","Quincy","MA","(617) 770-1613","42.24775","-71.004214","Restaurants",
"Burger King","601","601 Donald Lynch Blvd Ste 5209","Marlborough","MA","(508) 303-6433","42.356322","-71.612636","Restaurants",
"McDonald's","250","250 Maple St","Marlborough","MA","(508) 485-8547","42.3388068939139","-71.541968081573","Restaurants",
"McDonald's","340","340 Chestnut St","Needham","MA","(781) 444-8592","42.2742876","-71.2375409","Restaurants",
"Wendy's","1665","1665 Andover St","Tewksbury","MA","(978) 858-0400","42.642501","-71.239356","Restaurants",
"Wendy's","3025","3025 Cranberry Hwy","East Wareham","MA","(508) 295-4090","41.757853","-70.659399","Restaurants",
"McDonald's","334","334 N Pearl St","Brockton","MA","(508) 583-3627","42.1001747","-71.0673075","Restaurants",
"McDonald's","195","195 N Main St","Andover","MA","(978) 475-9854","42.663242","-71.14462","Restaurants",
"Wendy's","90","90 Pleasant Valley St","Methuen","MA","(978) 689-9302","42.7436254","-71.1583764","Restaurants",
"Wendy's","234","234 Littleton Rd Ste 1f","Westford","MA","(978) 392-1200","42.561023","-71.434721","Restaurants",
"McDonald's","212","212 Main St","Wilmington","MA","(978) 658-4500","42.5575841","-71.1811898","Restaurants",
"Burger King","1208","1208 Dorchester Ave","Dorchester","MA","(617) 282-5293","42.309276","-71.057796","Restaurants",
"Burger King","197","197 Main St","Stoneham","MA","(781) 438-5029","42.488894","-71.100382","Restaurants",
"Burger King","765","765 Main St","Winchester","MA","(781) 729-5475","42.458378","-71.139201","Restaurants",
"Burger King","74","74 Plaistow Rd","Haverhill","MA","(978) 521-0160","42.812992832678","-71.1026914841449","Restaurants",
"McDonald's","1513","1513 Dorchester Ave","Dorchester","MA","(617) 288-3468","42.2992377","-71.0608862","Restaurants",
"McDonald's","1","1 Varnum Ave","Lowell","MA","(978) 454-1199","42.65001","-71.3323367","Restaurants",
"Burger King","460","460 W Grove St","Middleboro","MA","(508) 947-5309","41.8976917","-70.9511012","Restaurants",
"Popeyes Louisiana Kitchen","85","85 Parkhurst Rd","Chelmsford","MA","(978) 856-7079","42.625264","-71.359675","Restaurants",
"Wendy's","312","312 Boston Rd","North Billerica","MA","(978) 663-4550","42.571979","-71.277155","Restaurants",
"Wendy's","188","188 Endicott St","Danvers","MA","(978) 774-8995","42.547522","-70.942632","Restaurants",
"Wendy's","486","486 Broadway","Methuen","MA","(978) 682-7827","42.739548","-71.196984","Restaurants",
"Wendy's","362","362 Bedford St","Whitman","MA","(781) 447-2878","42.070619","-70.948526","Restaurants",
"Wendy's","39","39 Squire Rd","Revere","MA","(781) 853-6690","42.4222074","-71.0060794","Restaurants",
"Burger King","61","61 Broadway","Malden","MA","(781) 322-0546","42.425009","-71.04143","Restaurants",
"KFC","20","20 Everett Ave","Everett","MA","(617) 389-1799","42.402363","-71.041546","Restaurants",
"McDonald's","186","186 Alewife Brook Pkwy","Cambridge","MA","(617) 876-6509","42.3902927","-71.1408395","Restaurants",
"KFC","419","419 High St","Somersworth","NH","(603) 692-7900","43.236316","-70.881518","Restaurants",
"KFC","875","875 N Montello St","Brockton","MA","(508) 580-9956","42.107064","-71.023035","Restaurants",
"Wendy's","303","303 W Central St","Natick","MA","(508) 872-0072","42.28174","-71.39606","Restaurants",
"Wendy's","1900","1900 Main St","Brockton","MA","(508) 586-2006","42.048087","-71.010235","Restaurants",
"McDonald's","37","37 Storey Ave","Newburyport","MA","(978) 462-7575","42.821147870292","-70.90560996081","Restaurants",
"Burger King","1965","1965 Main St","Tewksbury","MA","(978) 851-6578","42.5900303","-71.2042953","Restaurants",
"Wendy's","330","330 Middlesex Ave","Medford","MA","(617) 203-3014","42.414558","-71.079959","Restaurants",
"Burger King","392","392 Hooksett Rd","Auburn","NH","(978) 458-3095","43.024506","-71.367614","Restaurants",
"Burger King","248","248 Haverhill St","Methuen","MA","(978) 688-7846","42.706331","-71.204704","Restaurants",
"McDonald's","413","413 Main St","Reading","MA","(781) 944-9782","42.520554","-71.102896","Restaurants",
"Wendy's","198","198 Wakefield St","Rochester","NH","(603) 332-5975","43.317407","-70.9771448","Restaurants",
"McDonald's","57","57 Washington St","Norwell","MA","(781) 878-8068","42.1735837","-70.8806468","Restaurants",
"Burger King","","North Broadway Street","Londonderry","NH","(603) 434-7290","42.86547","-71.37427","Restaurants",
"McDonald's","1312","1312 Hyde Park Ave","Hyde Park","MA","(617) 364-2299","42.2528822","-71.1244523","Restaurants",
"Marylous Coffee-Holbrook","251","251 Centre St","Holbrook","MA","(781) 963-0930","42.1636674","-71.0234539","Restaurants",
"KFC","625","625 American Legion Hwy","Roslindale","MA","(617) 524-1010","42.2856115","-71.1109605","Restaurants",
"Wendy's","581","581 Rogers St","Lowell","MA","(978) 459-2994","42.631339","-71.284183","Restaurants",
"Wendy's","69","69 Newbury St","Peabody","MA","(978) 535-7505","42.527640471016","-70.9937496104774","Restaurants",
"Five Guys","10","10 Cornerstone Sq","Westford","MA","(978) 692-6008","42.5647245","-71.4276975","Restaurants",
"Chipotle Mexican Grill","199","199 Boston Rd","North Billerica","MA","(978) 667-1980","42.5806929","-71.2891867","Restaurants",
"Burger King","22","22 Calef Hwy","Epping","NH","(603) 679-9811","43.023352","-71.074616","Restaurants",
"KFC","465","465 Washington St","Dorchester Center","MA","(617) 288-2140","42.295071","-71.072433","Restaurants",
"KFC","282","282 Washington St","Hudson","MA","(978) 567-0646","42.3719722","-71.5610449","Restaurants",
"McDonald's","3064","3064 Washington St","Roxbury","MA","(617) 442-0475","42.315822","-71.097967","Restaurants",
"McDonald's","63","63 Ocean Rd","Greenland","NH","(603) 427-1620","43.045273","-70.819405","Restaurants",
"Wendy's","316","316 N Broadway","Salem","NH","(603) 898-1996","42.800078","-71.239846","Restaurants",
"Burger King","77","77 Drum Hill Rd","Chelmsford","MA","(978) 452-4565","42.624637","-71.363111","Restaurants",
"Burger King","47","47 Central Ave","Dover","NH","(603) 742-7214","43.1818707","-70.8755524","Restaurants",
"Burger King","128","128 Tremont St","Boston","MA","(617) 556-8299","42.356289","-71.061852","Restaurants",
"Wendy's","42","42 Furlong Dr","Revere","MA","(781) 289-1676","42.39833","-70.99975","Restaurants",
"Burger King","420","420 High St","Somersworth","NH","(603) 692-7377","43.2357770002154","-70.8809463972068","Restaurants",
"Burger King","3012","3012 Cranberry Hwy","East Wareham","MA","(508) 291-0716","41.759748","-70.663072","Restaurants",
"Dyna Wave Cable","135","135 Ward Hill Ave","Haverhill","MA","(978) 521-1113","42.762606","-71.118514","Restaurants",
"Wendy's","1465","1465 Woodbury Ave","Portsmouth","NH","(603) 430-7835","43.089025","-70.7882319","Restaurants",
"KFC","180","180 Old Colony Ave Ste 2","Quincy","MA","(617) 471-4742","42.2606686","-71.0129711","Restaurants",
"Burger King","133","133 Macy St","Amesbury","MA","(978) 388-3411","42.84596","-70.907479","Restaurants",
"Burger King","822","822 Lexington St","Waltham","MA","(781) 893-3002","42.403446","-71.234761","Restaurants",
"Wendy's","355","355 Worcester St","Natick","MA","(508) 651-0035","42.30251","-71.339556","Restaurants",
"McDonald's","225","225 Pond St","Ashland","MA","(508) 881-7973","42.2454254","-71.4311068","Restaurants",
"KFC","985","985 Belmont St","Brockton","MA","(508) 427-5776","42.064445","-71.057328","Restaurants",
"Burger King","176","176 Waverley St","Framingham","MA","(508) 620-9733","42.27856","-71.407073","Restaurants",
"Burger King","885","885 Cummins Hwy","Mattapan","MA","(617) 298-8155","42.2682288","-71.0958073","Restaurants",
"Burger King","1333","1333 Hingham St","Rockland","MA","(781) 878-6717","42.166772","-70.888966","Restaurants",
"Burger King","235","235 Church St","Pembroke","MA","(781) 826-5361","42.107021","-70.762494","Restaurants",
"Burger King","115","115 Broad St","Bridgewater","MA","(508) 279-9711","41.9932571","-70.9736263","Restaurants",
"Burger King","280","280 Lowell St","Wilmington","MA","(978) 657-5703","42.539174","-71.14197","Restaurants",
"Domino's","53","53 Winn St","Burlington","MA","(781) 229-1330","42.492496","-71.1759","Pizza",
"Wendy's","436","436 Chelmsford St","Lowell","MA","(978) 459-2985","42.62796","-71.321835","Restaurants",
"Wendy's","2","2 Barnum Rd","Ayer","MA","(978) 772-5650","42.5519631","-71.5727641","Restaurants",
"Burger King","210","210 Brighton Ave","Allston","MA","(617) 783-0106","42.3530833","-71.1349886","Restaurants",
"KFC","306","306 Lafayette Rd","Seabrook","NH","(603) 474-5101","42.8835","-70.867943","Restaurants",
"Wendy's","377","377 Lynnway","Lynn","MA","(781) 598-9172","42.457405","-70.951364","Restaurants",
"KFC","6","6 Purchase St","Danvers","MA","(978) 774-2800","42.558133","-70.930314","Restaurants",
"KFC","149","149 Cochituate Rd","Framingham","MA","(508) 875-1011","42.300388","-71.408457","Restaurants",
"Burger King","679","679 Concord Ave","Cambridge","MA","(617) 354-2375","42.390483","-71.150471","Restaurants",
"Pizza Hut","39","39 State St","Lynn","MA","(781) 592-0066","42.4622736","-70.9498205","Pizza",
"Domino's","100","100 Market St Ste 1","Rockland","MA","(781) 871-3030","42.1217485","-70.9163144","Pizza",
"Pizza Hut","636","636 Lafayette Rd","Seabrook","NH","(603) 474-1599","42.894042","-70.871294","Pizza",
"Pizza Hut","5A","5a Everett St","Revere","MA","(781) 325-8537","42.4102891778163","-71.00090329312","Pizza",
"Chipotle Mexican Grill","176","176 Providence Hwy","Dedham","MA","(781) 329-2332","42.2611486348669","-71.1688802161403","Restaurants",
"Wendy's","19","19 Plaistow Rd","Haverhill","MA","(978) 374-4059","42.811042","-71.102822","Restaurants",
"KFC","490","490 S Union St","Lawrence","MA","(978) 682-5008","42.689716","-71.152756","Restaurants",
"Wendy's","730","730 Plain St","Marshfield","MA","(781) 834-2330","42.106559","-70.746492","Restaurants",
"Wings Over","519","519 Somerville Ave","Somerville","MA","(617) 666-9464","42.383399","-71.106437","Restaurants",
"Toscanini's Ice Cream","159","159 1st St","Cambridge","MA","(617) 491-5877","42.3662424","-71.0785006","Restaurants",
"Wendy's","55","55 Hampshire St","Lawrence","MA","(978) 686-3555","42.707506","-71.165141","Restaurants",
"McDonald's","700","700 Atlantic Ave Lbby 6","Boston","MA","(617) 261-3914","42.3506503106807","-71.0562377224839","Restaurants",
"KFC","720","720 Lynnway","Lynn","MA","(781) 595-0134","42.450402","-70.961344","Restaurants",
"Wendy's","71","71 Summer St Lbby","Boston","MA","(617) 542-5719","42.354092","-71.058994","Restaurants",
"Burger King","100","100 Cambridgeside Pl Spc W226","Cambridge","MA","(617) 494-4843","42.3684293","-71.0764537","Restaurants",
"Jonny Boston International","170","170 Main St","Newmarket","NH","(603) 292-6682","43.077725","-70.937616","Restaurants",
"Gourmet Garden","45","45 Enon St","Beverly","MA","(978) 720-8177","42.5876508","-70.8845866","Restaurants",
"China City Restaurant Inc","1158","1158 Beacon St","Newton Highlands","MA","(617) 243-9051","42.330753","-71.210314","Restaurants",
"Mumma Marys","219","219 Main St","Wareham","MA","(508) 295-5308","41.7584739","-70.7153606","Restaurants",
"Ixtapa Mexican Grill and Cantina","103","103 Nagog Park","Acton","MA","(978) 429-8251","42.5229857","-71.4321318","Restaurants",
"Five Guys","227","227 Andover St","Peabody","MA","(978) 717-5416","42.5465485","-70.9464334","Restaurants",
"Gyu-Kaku","16","16 Eliot St Fl 2","Cambridge","MA","(857) 259-6666","42.372072","-71.121484","Restaurants",
"Domino's","57","57 Dudley St","Haverhill","MA","(978) 372-5660","42.784351","-71.078054","Pizza",
"Papa John's Pizza","856","856 Washington St","Braintree","MA","(781) 812-0726","42.203804","-71.004669","Pizza",
"Wendy's","1460","1460 Middlesex St","Lowell","MA","(978) 458-6320","42.637608","-71.343919","Restaurants",
"McDonald's","1928","1928 Main St","Tewksbury","MA","(978) 851-9325","42.5910282","-71.2044606","Restaurants",
"Sandella's Flatbread Cafe","8","8 Park Plz","Boston","MA","(857) 366-4988","42.3513773","-71.0687412","Restaurants",
"Popeyes Louisiana Kitchen","200","200 Westgate Dr","Brockton","MA","(508) 559-1520","42.0955773","-71.0520278","Restaurants",
"Burger King","","Route 128 Service Area","Beverly","MA","(978) 927-3714","42.55699","-70.8786","Restaurants",
"Wendy's","116","116 Boston St","Lynn","MA","(781) 596-1030","42.47472","-70.957579","Restaurants",
"Chick-fil-A","210","210 Andover St Unit F105","Peabody","MA","(978) 977-0740","42.5413325","-70.9439351","Restaurants",
"Popeyes Louisiana Kitchen","1886","1886 Revere Beach Pkwy","Everett","MA","(617) 387-7300","42.402315","-71.049921","Restaurants",
"Domino's","570","570 Broadway","Revere","MA","(781) 289-1020","42.413416","-71.01044","Pizza",
"Domino's","450","450 Cambridge St Ste 3","Allston","MA","(617) 254-4800","42.354062","-71.135674","Pizza",
"Long John Silver's","1560","1560 Vfw Pkwy","West Roxbury","MA","(617) 327-2645","42.266837","-71.1685126","Restaurants",
"Subway","10","10 Nashua Rd Ste 8","Derry","NH","(603) 386-1861","42.8734206575092","-71.337381330795","Restaurants",
"Quiznos","415","415 South St","Waltham","MA","(781) 736-4336","42.3668835","-71.2600337","Restaurants",
"Burger King","157","157 Market St","Rockland","MA","(781) 871-6033","42.1219752","-70.91476","Restaurants",
"Ani Catering","687","687 Belmont St","Belmont","MA","(617) 484-6161","42.380442","-71.1814","Restaurants",
"Burger King","769","769 S Franklin St","Holbrook","MA","(781) 986-5728","42.130177","-71.00834","Restaurants",
"Chipotle Mexican Grill","444","444 Broadway","Saugus","MA","(781) 231-0175","42.4794711","-71.0202055","Restaurants",
"Qdoba Mexican Eats","185","185 Linden St","Wellesley","MA","(781) 235-3390","42.300238","-71.2909503","Restaurants",
"Chipotle Mexican Grill","112","112 Commerce Way","Woburn","MA","(781) 933-5450","42.5160047","-71.1392769","Restaurants",
"Qdoba Mexican Eats","540","540 Commonwealth Ave","Boston","MA","(617) 437-1930","42.348445","-71.096683","Restaurants",
"Chipotle Mexican Grill","60","60 Newport Ave","Quincy","MA","(617) 328-0413","42.272563","-71.02723","Restaurants",
"Chipotle Mexican Grill","210","210 Andover St Ste E194a","Peabody","MA","(978) 531-4857","42.5413325","-70.9439351","Restaurants",
"Joa Take Out","326","326 Concord St","Framingham","MA","(508) 872-3312","42.284094","-71.412657","Restaurants",
"McDonald's","170","170 Haverhill St","Methuen","MA","(978) 687-9301","42.7061625","-71.1999685","Restaurants",
"McDonald's","50","50 Independence Way","Danvers","MA","(978) 762-6417","42.549517","-70.941303","Restaurants",
"McDonald's","599","599 Andover St","Lawrence","MA","(978) 685-2254","42.6902394","-71.1729584","Restaurants",
"China Panda","60","60 High St","Somersworth","NH","(603) 692-3379","43.2613146296647","-70.8653526842877","Restaurants",
"Herritage of Sherborn","33","33 N Main St","Sherborn","MA","(508) 655-8445","42.246693","-71.369427","Restaurants",
"Chipotle Mexican Grill","8","8 Park Plz","Boston","MA","(617) 248-3821","42.3513773","-71.0687412","Restaurants",
"Burger King","536","536 W Central St","Franklin","MA","(508) 553-0461","42.089822","-71.420351","Restaurants",
"Chipotle Mexican Grill","616","616 Fellsway","Medford","MA","(781) 393-6871","42.406119","-71.08301","Restaurants",
"McDonald's","53","53 S Main St","Haverhill","MA","(978) 521-4774","42.7713479","-71.0764013","Restaurants",
"Tacos Lupita","505","505 Broadway","Lawrence","MA","(978) 681-4517","42.714988","-71.176185","Restaurants",
"Cape Ann Coffees","86","86 Bass Ave","Gloucester","MA","(978) 282-1717","42.6178172","-70.641864","Restaurants",
"Subway","72","72 Main St","North Reading","MA","(978) 664-4669","42.571112","-71.112779","Restaurants",
"Chicken Now","100","100 Cambridgeside Pl Spc F5","Cambridge","MA","(617) 225-2220","42.3684293","-71.0764537","Restaurants",
"Five Guys","1207","1207 Washington St Ste 50","Hanover","MA","(781) 829-6770","42.138139","-70.84112","Restaurants",
"Froot's Healthy Eating","100","100 Eglin St","Hanscom AFB","MA","(781) 863-9900","42.4628841108273","-71.2844449016162","Restaurants",
"Pisa Pizza","133","133 Pearl St","Malden","MA","(781) 397-7777","42.423634","-71.07688","Restaurants",
"Guanachapis Bar N Grill","154","154 River St","Waltham","MA","(781) 891-3535","42.370101","-71.222043","Restaurants",
"Subway","189","189 Worcester St","Natick","MA","(508) 655-2525","42.303419","-71.3338","Restaurants",
"Subway","100","100 Independence Way Ste C4","Danvers","MA","(978) 777-2827","42.552383","-70.940218","Restaurants",
"Subway","1388","1388 Bridge St","Dracut","MA","(978) 441-6288","42.670417","-71.304465","Restaurants",
"Sbarro","200","200 Terminal B","East Boston","MA","(617) 569-1890","42.3618984869258","-71.018498616472","Restaurants",
"Redneck's Roast Beef","140","140 Brighton Ave","Allston","MA","(617) 782-9444","42.352727","-71.131679","Restaurants",
"KFC","212","212 Haverhill St","Methuen","MA","(978) 689-4559","42.706359","-71.202901","Restaurants",
"Subway","67","67 Main St # C","Medway","MA","(508) 533-4607","42.1527088","-71.4045921","Restaurants",
"Subway","1","1 Yankee Division Way","Beverly","MA","(978) 232-0133","42.55699","-70.8786","Restaurants",
"Subway","111","111 Lenox St Ste 108","Norwood","MA","(781) 440-0048","42.1922856","-71.1978672","Restaurants",
"Subway","66","66 Parkhurst Rd","Chelmsford","MA","(978) 654-5270","42.623481445904","-71.3601660041952","Restaurants",
"Subway","270","270 Lafayette Rd","Seabrook","NH","(603) 474-2256","42.883544","-70.866007","Restaurants",
"Five Guys","67","67 Main St","Stoneham","MA","(781) 438-8002","42.496545","-71.101225","Restaurants",
"Quiznos","75","75 Middlesex Tpke Ste 2051","Burlington","MA","(781) 229-5905","42.482397","-71.2137453","Restaurants",
"Eagle Kitchen Supply","163","163 Old Colony Ave","South Boston","MA","(617) 268-3300","42.334035","-71.055035","Restaurants",
"Five Guys","61","61 Crystal Ave Unit 1a","Derry","NH","(603) 818-8290","42.893391","-71.325978","Restaurants",
"Burger King","18","18 Logan Way Apt 585","South Boston","MA","(617) 569-2001","42.3272550213877","-71.053616344007","Restaurants",
"Burger King","1","1 Maverick Sq","East Boston","MA","(617) 418-5733","42.368834","-71.039319","Restaurants",
"Five Guys","95","95 Washington St Ste 206","Canton","MA","(781) 828-4204","42.140571","-71.1477471","Restaurants",
"Chutneys","36","36 Jfk St Ste 12","Cambridge","MA","(617) 491-2545","42.3727788","-71.1197524","Restaurants",
"Chipotle Mexican Grill","93","93 Turnpike St","North Andover","MA","(978) 688-1883","42.676017","-71.131725","Restaurants",
"McDonald's","124B","124b Indian Rock Rd","Windham","NH","(603) 893-8205","42.8068868657225","-71.264009807118","Restaurants",
"Subway","768","768 Belmont St","Brockton","MA","(508) 232-3716","42.068182","-71.048722","Restaurants",
"Happy Garden","57","57 Court St Ste 1","Plymouth","MA","(508) 747-2801","41.958533","-70.667432","Restaurants",
"Subway","300","300 Plymouth St","Halifax","MA","(339) 244-4431","41.9950177","-70.844651","Restaurants",
"Qdoba Mexican Eats","2421","2421 Cranberry Hwy Ste 304","Wareham","MA","(508) 273-9925","41.7746009","-70.7446155","Restaurants",
"Chipotle Mexican Grill","237","237 Boston Post Rd W","Marlborough","MA","(508) 480-8412","42.3393299","-71.590586","Restaurants",
"Five Guys","170","170 Providence Hwy","Dedham","MA","(781) 326-1158","42.2611888612776","-71.1688670621106","Restaurants",
"Five Guys","7","7 Warren St Ste 12","Randolph","MA","(781) 963-0600","42.1659568","-71.0438062","Restaurants",
"Chipotle Mexican Grill","300","300 Needham St","Newton Upper Falls","MA","(617) 244-5011","42.3082","-71.215016","Restaurants",
"Chipotle Mexican Grill","250","250 Granite St Ste 153","Braintree","MA","(781) 843-1397","42.2220443","-71.0227762","Restaurants",
"Chipotle Mexican Grill","1415","1415 Boston Providence Tpke","Norwood","MA","(781) 762-2550","42.1633655","-71.2016042","Restaurants",
"Wetzel's Pretzels","250","250 Granite St","Braintree","MA","(781) 849-9899","42.2220443","-71.0227762","Restaurants",
"Subway","36","36 Jfk St Ste 1","Cambridge","MA","(617) 441-0011","42.3727788","-71.1197524","Restaurants",
"McDonald's","146","146 Tremont St","Boston","MA","(617) 778-5226","42.355181","-71.062957","Restaurants",
"Subway","162","162 Harvard Ave","Allston","MA","(617) 254-1999","42.351589","-71.131476","Restaurants",
"Wendy's","530","530 American Legion Hwy","Roslindale","MA","(617) 983-2983","42.2872116","-71.1065797","Restaurants",
"Chipotle Mexican Grill","274","274 Elm St","Somerville","MA","(617) 623-1759","42.395966","-71.122396","Restaurants",
"Subway","121","121 High St Lbby 2","Boston","MA","(617) 348-2144","42.354949","-71.054147","Restaurants",
"Chipotle Mexican Grill","227","227 Alewife Brook Pkwy Spc B5","Cambridge","MA","(617) 500-9373","42.389251","-71.143297","Restaurants",
"New York Fried Chicken","446","446 Blue Hill Ave","Dorchester","MA","(617) 442-2299","42.3095573","-71.0822812","Restaurants",
"McDonald's","14","14 Mcgrath Hwy Ste 1","Somerville","MA","(617) 666-4036","42.374425","-71.085745","Restaurants",
"Food Express Valley","573","573 Main St","Waltham","MA","(781) 894-4200","42.376917","-71.233842","Restaurants",
"Mikes Restaurant","9","9 Davis Sq","Somerville","MA","(617) 628-2379","42.3966275902272","-71.1222344622731","Restaurants",
"Popeyes Louisiana Kitchen","710","710 American Legion Hwy","Roslindale","MA","(617) 477-8252","42.282984","-71.112837","Restaurants",
"Wendy's","303","303 Montvale Ave","Woburn","MA","(781) 937-0821","42.479251","-71.120862","Restaurants",
"McDonald's","117","117 Market St","Rockland","MA","(781) 982-0760","42.1218285","-70.9149756","Restaurants",
"McDonald's","715","715 Bridge St","North Weymouth","MA","(781) 331-5718","42.243315","-70.935244","Restaurants",
"McDonald's","151","151 Littleton Rd","Westford","MA","(978) 692-7105","42.5695211","-71.4209825","Restaurants",
"KFC","256","256 Andover St","Peabody","MA","(978) 977-9224","42.5478632","-70.9508775","Restaurants",
"Subway","768","768 Centre St","Brockton","MA","(508) 427-4478","42.086944","-70.987309","Restaurants",
"Subway","100","100 Corporate Dr","Franklin","MA","(508) 528-5069","42.093488","-71.434618","Restaurants",
"KFC","3015","3015 Cranberry Hwy","East Wareham","MA","(508) 295-9776","41.758103","-70.660557","Restaurants",
"McDonald's","155","155 Boston Post Rd W","Marlborough","MA","(508) 485-2402","42.3396356","-71.5884491","Restaurants",
"Subway","15","15 Seth Tobey Rd","Wareham","MA","(508) 295-7269","41.77874","-70.65155","Restaurants",
"McDonald's","272","272 Hartford Ave","Bellingham","MA","(508) 966-0522","42.1151925","-71.46177","Restaurants",
"Burger King","66","66 Main St","Salisbury","MA","(304) 274-1461","42.869579","-70.884297","Restaurants",
"Blimpie","273","273 Main St","Wilmington","MA","(978) 658-4552","42.55448","-71.180186","Restaurants",
"Chipotle Mexican Grill","92","92 Derby St Ste 100","Hingham","MA","(781) 741-9890","42.178659","-70.909201","Restaurants",
"Subway","90","90 N Main St","Randolph","MA","(781) 963-3434","42.164224","-71.043065","Restaurants",
"Qdoba Mexican Eats","756","756 Legacy Pl","Dedham","MA","(781) 471-5204","42.2309409","-71.1773683","Restaurants",
"McDonald's","323","323 Bedford St","Whitman","MA","(781) 447-0680","42.0694765","-70.94764","Restaurants",
"Panini Pizza Co","5A","5a Dodge St","Beverly","MA","(978) 767-4044","42.5725815","-70.8927017","Restaurants",
"Chipotle Mexican Grill","1","1 Worcester Rd","Framingham","MA","(508) 879-0823","42.3019866","-71.394939","Restaurants",
"Grandmas Chicken Soup","30","30 Commerce Way Ste 2","Woburn","MA","(781) 503-0066","42.507575","-71.132204","Restaurants",
"Subway","258","258 Cambridge St","Burlington","MA","(781) 273-2200","42.514134","-71.202552","Restaurants",
"Riverside Pizza","180","180 Main St","Groveland","MA","(978) 372-4468","42.768068","-71.022667","Restaurants",
"Hong Kong Taste","501","501 Mammoth Rd Ste 2","Londonderry","NH","(603) 434-8228","42.9147787","-71.3967559","Restaurants",
"McDonald's","472","472 Broadway","Chelsea","MA","(617) 889-2572","42.392798","-71.034454","Restaurants",
"Chipotle Mexican Grill","485","485 Arsenal St Ste 96","Watertown","MA","(617) 924-0216","42.3624581","-71.1607724","Restaurants",
"Chipotle Mexican Grill","110","110 Mall Rd","Burlington","MA","(781) 345-1195","42.4864292","-71.2120793","Restaurants",
"Dedham Diner","247","247 Bussey St","Dedham","MA","(781) 329-3600","42.24812","-71.154857","Restaurants",
"Five Guys","341","341 Cochituate Rd Ste 7","Framingham","MA","(508) 879-7500","42.301991","-71.40159","Restaurants",
"Chipotle Mexican Grill","55","55 Dodge St","Beverly","MA","(978) 816-7955","42.575604","-70.889823","Restaurants",
"Chipotle Mexican Grill","598","598 Massachusetts Ave","Cambridge","MA","(857) 500-4066","42.364925","-71.103298","Restaurants",
"Subway","11","11 Ashleigh Dr","Derry","NH","(603) 965-2141","42.896726","-71.335381","Restaurants",
"Five Guys","58","58 Summer St","Boston","MA","(617) 482-2245","42.354435","-71.058671","Restaurants",
"Five Guys","37","37 Forbes Rd","Braintree","MA","(781) 848-4897","42.2208500437405","-71.0292195060698","Restaurants",
"Five Guys","15","15 Webb Pl","Dover","NH","(603) 842-4955","43.221415","-70.888677","Restaurants",
"Wendy's","69","69 Long Pond Rd","Plymouth","MA","(508) 927-4073","41.9300157","-70.6591789","Restaurants",
"Grass Fed Restaurant","605","605 Centre St","Jamaica Plain","MA","(617) 553-2278","42.3147977","-71.1142802","Restaurants",
"McDonald's","4","4 Main St","Maynard","MA","(978) 897-8995","42.4325215","-71.4500497","Restaurants",
"Pret A Manger USA Ltd","50","50 Post Office Sq Ste 102","Boston","MA","(617) 204-9587","42.3576305012812","-71.0562287128861","Restaurants",
"Jings Garden","459","459 Washington St","Holliston","MA","(508) 429-7688","42.210396","-71.427102","Restaurants",
"Subway","4238","4238 Washington St Ste 2","Roslindale","MA","(617) 323-5002","42.285784","-71.128266","Restaurants",
"Subway","860","860 Broadway","Somerville","MA","(617) 764-2432","42.400722","-71.117597","Restaurants",
"Subway","155","155 Milk St","Boston","MA","(617) 338-4600","42.3576901346326","-71.0541688662759","Restaurants",
"Subway","315","315 Centre St Ste 7","Jamaica Plain","MA","(617) 983-1100","42.3231047","-71.10385","Restaurants",
"City Pizza & Pasta","795","795 Washington St","Newtonville","MA","(617) 243-0040","42.3519941","-71.2064291","Restaurants",
"Dinh Express","58","58 Whitten St","Dorchester","MA","(617) 297-5344","42.293791","-71.058431","Restaurants",
"Raising Cane's","949","949 Commonwealth Ave","Boston","MA","(617) 358-5932","42.3535871","-71.1178421","Restaurants",
"Five Guys","43","43 Middlesex Tpke Ste 14","Burlington","MA","(781) 750-3152","42.471412","-71.209482","Restaurants",
"Wings Over","325","325 Huntington Ave","Boston","MA","(617) 266-9464","42.3409573","-71.0881112","Restaurants",
"Popeyes Louisiana Kitchen","481","481 S Broadway","Salem","NH","(603) 458-5564","42.744916","-71.200358","Restaurants",
"Capriotti's Sandwich Shop","267","267 Patriot Pl","Foxboro","MA","(774) 215-5279","42.0918664","-71.2675042","Restaurants",
"Roxannes's Taqueria","95","95 Sharon St","Stoughton","MA","(781) 436-8182","42.137867","-71.146956","Restaurants",
"Subway","709","709 Western Ave","Lynn","MA","(781) 584-6153","42.463456","-70.96431","Restaurants",
"Subway","1201","1201 Broadway Spc F211","Saugus","MA","(781) 231-1810","42.4612977","-71.0278527","Restaurants",
"Subway","15","15 N Main St","Bellingham","MA","(508) 657-1801","42.0892971","-71.4746837","Restaurants",
"Hong Kong Express","801","801 Islington St Ste 15","Portsmouth","NH","(603) 433-1616","43.068983","-70.772991","Restaurants",
"Subway","545","545 Main St","Medfield","MA","(508) 359-1525","42.185884","-71.308391","Restaurants",
"Subway","1866","1866 Centre St","West Roxbury","MA","(617) 553-2267","42.285868","-71.154926","Restaurants",
"Tiki Kye","2","2 Montello St Ste 8","Carver","MA","(508) 866-7733","41.9283241","-70.8100015","Restaurants",
"Wendy's","115","115 Calef Hwy","Epping","NH","(603) 679-2326","43.033228","-71.07183","Restaurants",
"Chipotle Mexican Grill","283","283 Washington St","Boston","MA","(617) 939-0988","42.357531","-71.058414","Restaurants",
"Zaika Indian Bistro","442","442 Main St","Woburn","MA","(781) 933-9090","42.481217","-71.151217","Restaurants",
"Chipotle Mexican Grill","50","50 Broadway","Cambridge","MA","(857) 500-4031","42.3630077","-71.085726","Restaurants",
"Subway","207","207 Mechanic St","Bellingham","MA","(508) 657-1954","42.083025","-71.4533737","Restaurants",
"Subway","875","875 William T Morrissey Blvd","Dorchester","MA","(617) 506-0088","42.293572","-71.047929","Restaurants",
"Wendy's","157A","157a Massachusetts Ave","Boston","MA","(617) 236-1550","42.3464373","-71.0875811","Restaurants",
"Popeyes Louisiana Kitchen","330","330 Martin Luther King Blvd","Roxbury","MA","(617) 442-3545","42.318573","-71.082889","Restaurants",
"A&W All-American Food","50","50 Ferncroft Rd","Danvers","MA","(978) 777-2500","42.597042","-70.970305","Restaurants",
"Five Guys","158","158 Everett Ave Unit 1","Chelsea","MA","(617) 466-2290","42.3959907722685","-71.0399433130192","Restaurants",
"Sbarro","18","18 Logan Airport","East Boston","MA","(617) 569-5409","42.37753","-71.03189","Restaurants",
"Bueno Y Sano","263","263 Main St","Acton","MA","(978) 263-9200","42.474627","-71.453644","Restaurants",
"Subway","610","610 Andover St","Lawrence","MA","(978) 258-3183","42.6905647","-71.1744221","Restaurants",
"Five Guys","27","27 Westgate Dr","Brockton","MA","(774) 381-7921","42.0897247","-71.0474571","Restaurants",
"Subway","203","203 Bedford St","East Bridgewater","MA","(508) 456-4581","42.0278580069894","-70.9586769986453","Restaurants",
"Las Palmas LLC","475","475 High St Unit B","Somersworth","NH","(603) 842-4863","43.2290863","-70.8833694","Restaurants",
"Subway","271","271 Broadway","Somerville","MA","(617) 764-3185","42.3915938","-71.0909407","Restaurants",
"Smashburger","203","203 University Ave","Westwood","MA","(781) 613-3412","42.2051614","-71.1536709","Restaurants",
"McDonald's","664","664 Crescent St # 27","Brockton","MA","(508) 584-2527","42.081289","-70.9919042","Restaurants",
"McDonald's","715","715 Belmont St","Brockton","MA","(508) 583-6413","42.0699675","-71.04701","Restaurants",
"McDonald's","605","605 Washington St","Dorchester Center","MA","(617) 282-0409","42.2904649727632","-71.0718014088185","Restaurants",
"McDonald's","40","40 Jackson St","Methuen","MA","(978) 208-1609","42.722921","-71.160485","Restaurants",
"McDonald's","540","540 Commonwealth Ave","Boston","MA","(617) 778-5228","42.348445","-71.096683","Restaurants",
"Chipotle Mexican Grill","51","51 Warren St","Randolph","MA","(781) 961-1806","42.1654867840966","-71.0454931815608","Restaurants",
"Bravo Pizzeria","531","531 Washington St","Quincy","MA","(617) 471-3300","42.247173","-70.979888","Restaurants",
"Ciao Pizza & Pasta","59","59 Williams St","Chelsea","MA","(617) 286-9346","42.3890169691101","-71.0406686028342","Restaurants",
"Subway","71","71 Calef Hwy Unit 2","Lee","NH","(603) 285-6931","43.1523925","-71.004957","Restaurants",
"McDonald's","1392","1392 Washington St","Hanover","MA","(781) 826-2081","42.143947","-70.844952","Restaurants",
"Subway","100","100 Eglin St","Hanscom AFB","MA","(781) 274-7970","42.4628841108273","-71.2844449016162","Restaurants",
"Chipotle Mexican Grill","553","553 Boylston St","Boston","MA","(617) 236-1749","42.350734","-71.076106","Restaurants",
"Zinneken's","1154","1154 Massachusetts Ave","Cambridge","MA","(617) 876-0836","42.3712559","-71.1146321","Restaurants",
"Subway","27","27 Bridge St","Dedham","MA","(781) 326-7960","42.2702490081137","-71.1741482233531","Restaurants",
"Chipotle Mexican Grill","217","217 University Ave","Westwood","MA","(781) 329-0936","42.2051614","-71.1536709","Restaurants",
"Subway","137","137 Turnpike St","North Andover","MA","(978) 258-6730","42.6758216566036","-71.1298069645019","Restaurants",
"Chipotle Mexican Grill","301","301 Great Rd","Bedford","MA","(781) 271-0219","42.48617","-71.2620441","Restaurants",
"Five Guys","263","263 Huntington Ave","Boston","MA","(617) 936-3657","42.342251","-71.086142","Restaurants",
"Subway","242","242 Dedham St","Norfolk","MA","(774) 210-8101","42.0892884","-71.3015522","Restaurants",
"Wendy's","1316","1316 Washington St","Hanover","MA","(781) 826-6754","42.1412557","-70.8439859","Restaurants",
"Chipotle Mexican Grill","90","90 Pleasant Valley St","Methuen","MA","(978) 794-0617","42.7436254","-71.1583764","Restaurants",
"McDonald's","329","329 Washington St","Boston","MA","(617) 557-0089","42.3569473","-71.0590612","Restaurants",
"Gyrotonic Boston Central","364","364 Boylston St Ste 404","Boston","MA","(617) 236-5131","42.351363","-71.071511","Restaurants",
"Five Guys","1030","1030 Main St Ste 19","Waltham","MA","(781) 647-0555","42.375605","-71.252463","Restaurants",
"McDonald's","6","6 Circumferential Hwy","New Town","MA","(617) 332-1458","42.36062","-71.18615","Restaurants",
"Christo's To Go","785","785 Bedford St Ste 3","Whitman","MA","(508) 588-4200","42.0822411","-70.9469371","Restaurants",
"Subway","723","723 Providence Hwy","Dedham","MA","(781) 686-1658","42.2403164","-71.1789452","Restaurants",
"Subway","300","300 Colony Place Rd","Plymouth","MA","(774) 343-5966","41.9554789","-70.7181352","Restaurants",
"Five Guys","215","215 Needham St","Newton Upper Falls","MA","(617) 332-5555","42.3105625","-71.2148757","Restaurants",
"KFC","75","75 Broadway","Malden","MA","(781) 321-1640","42.425325","-71.041199","Restaurants",
"KFC","280","280 Main St","Haverhill","MA","(978) 372-4174","42.780681","-71.077645","Restaurants",
"Subway","275","275 Centre St Ste B","Newton","MA","(617) 916-0041","42.3585517","-71.1853037","Restaurants",
"Subway","247","247 Quincy Ave","Quincy","MA","(617) 773-4600","42.2409397","-70.9903124","Restaurants",
"Wendy's","1699","1699 Worcester Rd","Framingham","MA","(508) 620-7360","42.297548","-71.483941","Restaurants",
"Wendy's","39","39 S Main St","Haverhill","MA","(978) 372-6291","42.771913","-71.076097","Restaurants",
"Peel Pizza Company Cohasset","13","13 Depot Ct # 13","Cohasset","MA","(781) 383-0404","42.2412566172116","-70.8027338293809","Restaurants",
"Chipotle Mexican Grill","46","46 Walkers Brook Dr","Reading","MA","(781) 944-8924","42.5189384522393","-71.0932662522682","Restaurants",
"Panda Express","100","100 Cambridgeside Pl","Cambridge","MA","(617) 494-1009","42.3684293","-71.0764537","Restaurants",
"Subway","1","1 Mill St","Ayer","MA","(978) 796-5397","42.559934","-71.590467","Restaurants",
"Subway","948","948 Bennington St","East Boston","MA","(617) 569-2117","42.3859497499194","-71.0094600959761","Restaurants",
"Blimpie","199","199 Hartford Ave","Bellingham","MA","(508) 966-0571","42.113776","-71.470744","Restaurants",
"Hillers Pizza","77","77 W Main St Ste 15","Hopkinton","MA","(508) 435-0021","42.217705","-71.540674","Restaurants",
"Subway","207","207 Centre St","Malden","MA","(781) 322-2222","42.4249905","-71.0673596","Restaurants",
"Subway","79A","79a Perkins Rd","Londonderry","NH","(603) 425-7829","42.9164748562387","-71.3754761055312","Restaurants",
"Long John Silver's","322","322 S Broadway","Salem","NH","(603) 890-3514","42.755092","-71.209613","Restaurants",
"McDonald's","339","339 Squire Rd","Revere","MA","(781) 289-8172","42.4282641","-71.0119186","Restaurants",
"Subway","225","225 Lincoln Ave","Haverhill","MA","(978) 241-4839","42.763609","-71.039502","Restaurants",
"Five Guys","90","90 Drum Hill Rd Ste 2","Chelmsford","MA","(978) 454-4555","42.622548","-71.36235","Restaurants",
"Wendy's","551","551 Boylston St Lbby","Boston","MA","(617) 262-0727","42.35073","-71.075877","Restaurants",
"Wings and Tingz Caterers","5","5 Bowdoin St","Dorchester Center","MA","(617) 474-9464","42.299317","-71.073303","Restaurants",
"Smashburger","495","495 Riverside Ave","Medford","MA","(781) 219-5110","42.4101273448813","-71.0861330618412","Restaurants",
"Subway","151","151 Concord St","Framingham","MA","(508) 875-2500","42.279431","-71.416305","Restaurants",
"Wendy's","909","909 Central Ave","Dover","NH","(603) 742-9967","43.2204125","-70.8849778","Restaurants",
"KFC","252","252 Western Ave","Lynn","MA","(781) 598-4825","42.476644","-70.949069","Restaurants",
"Subway","66","66 Route 27 Ste 1","Raymond","NH","(603) 244-1952","43.039495","-71.167145","Restaurants",
"Subway","1122","1122 Boylston St","Boston","MA","(617) 262-2991","42.3467573","-71.0888711","Restaurants",
"Five Guys","1250","1250 Hancock St","Quincy","MA","(617) 481-8635","42.2521773","-71.0037941","Restaurants",
"DQ Grill & Chill","579","579 Washington St","Hanover","MA","(781) 924-1139","42.1222119","-70.8243322","Restaurants",
"Spyce Food Co","241","241 Washington St","Boston","MA","(617) 227-1790","42.358045","-71.05817","Restaurants",
"Chick-fil-A","73","73 Pleasant Valley St","Methuen","MA","(978) 872-1421","42.7417831766151","-71.1602663119436","Restaurants",
"KFC","120","120 Sharon St","Stoughton","MA","(781) 344-5746","42.1376864541338","-71.1482181288468","Restaurants",
"KFC","1300","1300 Massachusetts Ave","Boxborough","MA","(978) 264-0860","42.4843872","-71.5356607","Restaurants",
"KFC","186","186 Waverley St","Framingham","MA","(508) 620-1514","42.278411","-71.407864","Restaurants",
"Chick-fil-A","359","359 Cochituate Rd","Framingham","MA","(508) 875-0405","42.3039999046007","-71.3984113655153","Restaurants",
"Chick-fil-A","36","36 Apex Dr","Marlborough","MA","(508) 251-0402","42.3397","-71.58601","Restaurants",
"KFC","169","169 Squire Rd","Revere","MA","(781) 284-2274","42.4242127","-71.0098756","Restaurants",
"KFC","2","2 Paradise Rd","Salem","MA","(978) 745-6666","42.486338","-70.90055","Restaurants",
"KFC","335","335 Walnut St","Newtonville","MA","(617) 527-1295","42.349624","-71.207063","Restaurants",
"KFC","950","950 Hyde Park Ave Ste 1","Hyde Park","MA","(617) 364-6800","42.267008","-71.12044","Restaurants",
"Chick-fil-A","140","140 Providence Hwy","Dedham","MA","(781) 320-8127","42.2597838","-71.1683169","Restaurants",
"Popeyes Louisiana Kitchen","180","180 Boston St","Lynn","MA","(781) 215-6936","42.4711685","-70.9585994","Restaurants",
"Burger King","549","549 Lafayette Rd","Seabrook","NH","(866) 394-2493","42.890968","-70.872524","Restaurants",
"Chipotle Mexican Grill","219","219 N Main St Ste A-103","Natick","MA","(508) 653-1007","42.3019680368184","-71.3608290168361","Restaurants",
"Chipotle Mexican Grill","51","51 Boston Wharf Rd","Boston","MA","(617) 482-1781","42.3509352765294","-71.0459340931944","Restaurants",
"Chipotle Mexican Grill","85","85 Plaistow Rd","Haverhill","MA","(978) 372-0595","42.8132550782105","-71.1023583625257","Restaurants",
"Chipotle Mexican Grill","826","826 Central Ave Ste 15","Dover","NH","(603) 740-8984","43.2155681","-70.8800028","Restaurants",
"Five Guys","86","86 Plaistow Rd","Haverhill","MA","(978) 361-2696","42.8132523557659","-71.1027343404336","Restaurants",
"Five Guys","65","65 Station Lndg","Medford","MA","(781) 874-1250","42.403028","-71.080816","Restaurants",
"Five Guys","1390","1390 Lafayette Rd","Portsmouth","NH","(603) 427-8931","43.0460902","-70.7726361","Restaurants",
"Qdoba Mexican Eats","530","530 Boston Post Rd E","Marlborough","MA","(508) 251-2349","42.348094","-71.50899","Restaurants",
"Smashburger","1298","1298 Worcester St","Natick","MA","(508) 720-0744","42.298482","-71.385426","Restaurants",
"Wetzel's Pretzels","50","50 Fox Run Rd","Portsmouth","NH","(603) 436-2600","43.098226","-70.804142","Restaurants",
"Burger King","393","393 Washington St","Weymouth","MA","(781) 335-4606","42.210334","-70.959572","Restaurants",
"Wendy's","25","25 Storey Ave Ste 1","Newburyport","MA","(978) 462-1317","42.820964","-70.901702","Restaurants",
"Bristol Soup Kitchen moody st","585","585 Moody St","Waltham","MA","N/A","42.366275","-71.238191","Restaurants",
"Subway","1700","1700 Shawsheen St","Tewksbury","MA","(978) 315-0073","42.6215755","-71.184782","Restaurants",
"Charley's Philly Steaks","200","200 Westgate Dr","Brockton","MA","(508) 510-4044","42.0955773","-71.0520278","Restaurants",
"Sbarro","99","99 Rockingham Park Blvd","Salem","NH","(603) 276-3784","42.7672968","-71.2319237","Restaurants",
"McDonald's","1245","1245 Worcester St Ste 2008","Natick","MA","(508) 545-0762","42.3004711","-71.3857931","Restaurants",
"Mcdonalds Corporation Restaurants","295","295 Harvard St","Brookline","MA","(617) 566-8699","42.343032","-71.1221421","Restaurants",
"Wendy's","1412","1412 Boston Providence Tpke","Norwood","MA","(908) 557-8412","42.1631875","-71.1985965","Restaurants",
"Popeyes Louisiana Kitchen","694","694 Crescent St","Brockton","MA","(774) 223-5059","42.0812260736369","-70.9911729174188","Restaurants",
"Panda Express","166","166 Providence Hwy","Dedham","MA","(781) 251-0027","42.2612244993708","-71.1688565025752","Restaurants",
"McDonald's","155","155 Newburyport Tpke","Rowley","MA","(978) 948-3324","42.7040424860717","-70.9092900854585","Restaurants",
"McDonald's","180","180 Endicott St","Danvers","MA","(978) 774-6017","42.547156","-70.940219","Restaurants",
"McDonald's","I-90","Mass Pike I-90 Srvc Area 7w Milepost 115","Framingham","MA","(508) 877-2023","42.31678","-71.42904","Restaurants",
"Charley's Philly Steaks","350","350 Longwood Ave","Boston","MA","(617) 566-0289","42.3384273","-71.1068512","Restaurants",
"Five Guys","60","60 Bridle Path Cir","Randolph","MA","(781) 885-1054","42.163284","-71.050486","Restaurants",
"Papa John's Pizza","637","637 Southern Artery","Quincy","MA","(617) 481-2284","42.252033","-70.987621","Pizza",
"Domino's","2","2 Norfolk Rd","Holbrook","MA","(781) 805-8100","42.1538153","-71.0079638","Pizza",
"Little Caesars Pizza","306","306 N Main St","Rochester","NH","(603) 948-1066","43.3136149","-70.9956781","Pizza",
"Domino's","100","100 Washington St","Canton","MA","(781) 562-0655","42.1405896","-71.1506705","Pizza",
"Domino's","369","369 Central St","Foxboro","MA","(508) 543-4133","42.0376997","-71.2332431","Pizza",
"KFC","265","265 Washington St","Stoughton","MA","(781) 297-0971","42.139016","-71.102939","Restaurants",
"Harrows Chicken Pies","126","126 Main St","Reading","MA","(781) 944-0410","42.508132","-71.104673","Restaurants",
"Chick-fil-A","75","75 Middlesex Tpke Ste 2110","Burlington","MA","(781) 272-2110","42.482397","-71.2137453","Restaurants",
"Wendy's","112","112 Mall Rd Ste 1","Burlington","MA","(781) 272-0866","42.48518","-71.2180448","Restaurants",
"Burger King","95","95 Pleasant Valley St","Methuen","MA","(978) 688-0714","42.74188","-71.155182","Restaurants",
"Dairy Queen","7","7 E Grove St","Middleboro","MA","(508) 947-0192","41.885328","-70.916454","Restaurants",
"Dairy Queen","21","21 N Main St","Bellingham","MA","(508) 966-0461","42.08942","-71.475639","Restaurants",
"Wendy's","91","91 Lafayette St","Salem","MA","(978) 745-5788","42.518656","-70.89306","Restaurants",
"Chipotle Mexican Grill","45","45 Gosling Rd Unit 5c","Portsmouth","NH","(603) 433-5981","43.094443","-70.798845","Restaurants",
"Burger King","165","165 Pearl St","Braintree","MA","(781) 794-9995","42.202599","-70.999866","Restaurants",
"McDonald's","32","32 Broadway","Norwood","MA","(781) 702-6044","42.1927009","-71.1987228","Restaurants",
"Burger King","259","259 Highland Ave","Salem","MA","(978) 744-9467","42.503804","-70.9218383","Restaurants",
"Burger King","1200","1200 Bridge St","Lowell","MA","(978) 454-7757","42.664669","-71.303809","Restaurants",
"Burger King","484","484 Boston Post Rd E","Marlborough","MA","(508) 480-8508","42.347786","-71.510886","Restaurants",
"Burger King","227","227 Washington St","Hudson","MA","(978) 562-3954","42.379457","-71.566618","Restaurants",
"Breaking New Grounds","50","50 Main St Ste B","Durham","NH","(603) 868-6869","43.1343441955613","-70.9263571595173","Restaurants",
"Pizza Hut","303","303 N Main St","Rochester","NH","(603) 332-6633","43.313314","-70.993718","Pizza",
"Domino's","76","76 Portsmouth Ave","Stratham","NH","(603) 778-7800","43.0111143","-70.9171147","Pizza",
"Domino's","199","199 Mystic Ave Ste 4","Medford","MA","(781) 395-0080","42.4080273","-71.1042682","Pizza",
"Domino's","173","173 State St","Newburyport","MA","(978) 465-0360","42.7982633","-70.8749088","Pizza",
"Domino's","80","80 Mammoth Rd","Lowell","MA","(978) 454-7474","42.651191","-71.333725","Pizza",
"Domino's","1023","1023 Washington St Unit 5","Norwood","MA","(781) 769-7800","42.180677","-71.20456","Pizza",
"Domino's","163","163 Old Colony Ave Ste B","South Boston","MA","(617) 268-2900","42.334035","-71.055035","Pizza",
"Domino's","137","137 Massachusetts Ave","Lexington","MA","(781) 676-7900","42.426092","-71.195263","Pizza",
"Pizza Hut","131","131 Church St","Lowell","MA","(978) 454-9201","42.641409451888","-71.3054473964838","Pizza",
"Olecito","12","12 Springfield St","Cambridge","MA","(617) 876-1374","42.374058","-71.1000959","Restaurants",
"Hulls Kitchen","19","19 Hull Shore Dr","Hull","MA","(781) 925-0225","42.274278","-70.8608046","Restaurants",
"KFC","421","421 Broadway","Saugus","MA","(781) 231-5748","42.485661","-71.01929","Restaurants",
"KFC","1","1 Union St","Lynn","MA","(781) 598-4825","42.469158","-70.937151","Restaurants",
"KFC","695","695 Columbia Rd","Dorchester","MA","(617) 282-2068","42.319984","-71.061802","Restaurants",
"KFC","168","168 Hampshire St","Cambridge","MA","(617) 547-8615","42.371825","-71.098962","Restaurants",
"KFC","167","167 Broadway","Somerville","MA","(617) 666-2060","42.388986","-71.085966","Restaurants",
"KFC","65","65 Columbus Ave","Rochester","NH","(603) 332-8111","43.3074125234204","-70.9757380529285","Restaurants",
"McDonald's","663","663 Lafayette Rd","Hampton","NH","(603) 929-3674","42.945966","-70.83256","Restaurants",
"KFC","438","438 W Central St","Franklin","MA","(508) 520-3750","42.087714","-71.414945","Restaurants",
"KFC","2071","2071 Massachusetts Ave","Cambridge","MA","(617) 868-1498","42.391387681912","-71.1228117644428","Restaurants",
"McDonald's","515","515 Gallivan Blvd","Dorchester Center","MA","(617) 282-0070","42.2823409","-71.0551521","Restaurants",
"Five Guys","268","268 Franklin Village Dr","Franklin","MA","(508) 520-3911","42.08878","-71.4245798","Restaurants",
"Pizza Hut","915","915 Central Ave","Dover","NH","(603) 742-3949","43.2209352","-70.8856241","Pizza",
"Domino's","61","61 Crystal Ave Unit 2","Derry","NH","(603) 432-6605","42.893391","-71.325978","Pizza",
"Domino's","225","225 Bedford St Ste 1","East Bridgewater","MA","(508) 350-9775","42.0266897","-70.9597823","Pizza",
"Domino's","118","118 Chelmsford St","Chelmsford","MA","(978) 250-1555","42.603398","-71.346242","Pizza",
"Wendy's","52","52 Main St Ste 217","North Reading","MA","(978) 664-3018","42.569873","-71.11016","Restaurants",
"Louies Pizza Restaurant","118","118 Main St","Woburn","MA","(781) 933-2696","42.470899","-71.150245","Restaurants",
"Subway","200","200 Main St","Stoneham","MA","(781) 279-1333","42.488711","-71.099649","Restaurants",
"Qdoba Mexican Eats","229","229 Andover St","Peabody","MA","(978) 818-6232","42.5473188","-70.9468219","Restaurants",
"Same Old Place","662","662 Centre St","Jamaica Plain","MA","(617) 524-9461","42.3126","-71.1139375","Restaurants",
"KFC","5318","5318 Washington St","West Roxbury","MA","(617) 327-2208","42.257875","-71.160799","Restaurants",
"Pizza Plus","12","12 Sea St","North Weymouth","MA","(781) 331-8221","42.241676","-70.944561","Restaurants",
"El Penllo Arriba Peru","54","54 Bennington St","East Boston","MA","(617) 569-0100","42.375739","-71.037108","Restaurants",
"Chipotle Mexican Grill","1030","1030 Main St Ste 5","Waltham","MA","(781) 899-4937","42.375605","-71.252463","Restaurants",
"Domino's","126","126 Main St","Medway","MA","(508) 533-5900","42.1499026","-71.4190374","Pizza",
"Domino's","628","628 Washington St","Dedham","MA","(781) 329-7999","42.2406870543817","-71.1791808083943","Pizza",
"Domino's","775","775 Eastern Ave","Malden","MA","(781) 322-0030","42.429341","-71.047547","Pizza",
"Domino's","868","868 Worcester St Ste 1","Wellesley","MA","(781) 235-6800","42.304828","-71.31384","Pizza",
"Domino's","25","25 Main St Ste 4","Wayland","MA","(508) 651-8210","42.31696","-71.36256","Pizza",
"Chipotle Mexican Grill","148","148 Brookline Ave","Boston","MA","(617) 236-4950","42.344733","-71.100908","Restaurants",
"Chipotle Mexican Grill","1","1 Brattle Sq","Cambridge","MA","(617) 491-0688","42.3759229965537","-71.1417819639286","Restaurants",
"Chipotle Mexican Grill","101","101 Summer St","Boston","MA","(857) 244-6579","42.353532","-71.058272","Restaurants",
"Chipotle Mexican Grill","1924","1924 Beacon St","Brighton","MA","(617) 232-0788","42.336455","-71.149569","Restaurants",
"Burger King","1610","1610 Vfw Pkwy","West Roxbury","MA","(617) 323-2479","42.265919","-71.167899","Restaurants",
"Chipotle Mexican Grill","5","5 Franklin Village Dr","Franklin","MA","(508) 803-8560","42.0900799","-71.421842","Restaurants",
"Chipotle Mexican Grill","30","30 Nagog Park","Acton","MA","(978) 577-4776","42.5225363","-71.4336854","Restaurants",
"Take Away","82","82 Chapel St","Norwood","MA","(781) 769-1395","42.1825844","-71.208495","Restaurants",
"Chipotle Mexican Grill","450","450 Paradise Rd","Swampscott","MA","(339) 883-9994","42.481811","-70.9037905","Restaurants",
"Burger King","357","357 Main St","Reading","MA","(781) 944-1014","42.519122","-71.102934","Restaurants",
"Domino's","464","464 Washington St","Brighton","MA","(617) 782-5655","42.348776","-71.159017","Pizza",
"Five Guys","104","104 Providence Hwy","East Walpole","MA","(508) 660-9850","42.1564725","-71.2018662","Restaurants",
"Rancho Chico Restaurant","52","52 Washington St","Plainville","MA","(508) 643-2534","42.0062799","-71.323809","Restaurants",
"Ajs Kitchen","162","162 Lowell St","Wilmington","MA","(978) 657-0037","42.540312","-71.153366","Restaurants",
"Chipotle Mexican Grill","876","876 Commonwealth Ave","Boston","MA","(617) 232-1360","42.3507","-71.114676","Restaurants",
"Wendy's","505","505 W Central St","Franklin","MA","(508) 520-3196","42.090128","-71.4182","Restaurants",
"Mondo Pizzeria II","182","182 Massachusetts Ave","Boston","MA","(617) 262-1700","42.345656","-71.086643","Restaurants",
"Wendy's","349","349 Washington St","Boston","MA","(617) 451-2328","42.356831","-71.059248","Restaurants",
"Wendy's","56","56 Crystal Ave","Derry","NH","(603) 421-0284","42.889482","-71.327346","Restaurants",
"Wendy's","36","36 Nashua Rd","Londonderry","NH","(603) 432-3920","42.867661","-71.346757","Restaurants",
"Chipotle Mexican Grill","65","65 Drum Hill Rd","Chelmsford","MA","(978) 452-0693","42.6253193","-71.3619956","Restaurants",
"Panda Express","491","491 Riverside Ave","Medford","MA","(781) 321-8012","42.410151","-71.086508","Restaurants",
"Krispy Krunchy Chicken","206","206 Ballardvale St","Wilmington","MA","(978) 267-4155","42.589048","-71.1582822","Restaurants",
"Gyu-Kaku","23","23 District Ave","Dorchester","MA","(857) 309-3827","42.3254116344543","-71.0621866034331","Restaurants",
"Chipotle Mexican Grill","27","27 District Ave","Dorchester","MA","(617) 282-4374","42.3253143011209","-71.0620652702793","Restaurants",
"MOOYAH","48","48 S Highland Cmn","Hudson","MA","(978) 261-3042","42.3941674339075","-71.5948522879434","Restaurants",
"Qdoba Mexican Eats","115","115 Apex Dr","Marlborough","MA","(508) 251-2349","42.3397","-71.58601","Restaurants",
"Wendy's","34","34 Mallard Dr","Sharon","MA","(781) 867-7922","42.117518","-71.144102","Restaurants",
"Subway","206","206 Ballardvale St Ste 2","Wilmington","MA","(978) 447-5528","42.589048","-71.1582822","Restaurants",
"Subway","3","3 Everett St","Revere","MA","(781) 629-3910","42.409816","-71.001079","Restaurants",
"Subway","52","52 Lowell Rd Ste 1","Salem","NH","(603) 912-5632","42.7655744","-71.2434687","Restaurants",
"Dairy Queen","11","11 Maple Ave","East Bridgewater","MA","(508) 378-8167","42.031984","-70.9579212","Restaurants",
"Chipotle Mexican Grill","1110","1110 Lexington St","Waltham","MA","(781) 893-0340","42.4130132541298","-71.2328009081034","Restaurants",
"Smashburger","545","545 Boylston Boston","Boston","MA","(617) 655-0351","42.3508","-71.07462","Restaurants",
"Panda Express","125","125 University Ave","Westwood","MA","(781) 329-0809","42.206869","-71.152979","Restaurants",
"Qdoba Mexican Eats","165","165 Needham St Ste N211","Newton Highlands","MA","(617) 467-5463","42.3120928675523","-71.2131496634298","Restaurants",
"Popeyes Louisiana Kitchen","572","572 Washington St","Dorchester Center","MA","(617) 514-4316","42.291594","-71.07147","Restaurants",
"MOOYAH","526","526 Boston Post Rd","Sudbury","MA","(978) 579-4096","42.3602793696896","-71.4301590618366","Restaurants",
"Wendy's","75","75 Winthrop Ave","Lawrence","MA","(978) 689-2024","42.6899335885668","-71.1496786112438","Restaurants",
"MOOYAH","140","140 Tremont St","Boston","MA","(857) 277-0017","42.355656","-71.062556","Restaurants",
"Chipotle Mexican Grill","500","500 Westgate Dr","Brockton","MA","(508) 586-0102","42.0929732","-71.0543752","Restaurants",
"MOOYAH","199","199 Boston Rd","North Billerica","MA","(978) 362-3757","42.5806929","-71.2891867","Restaurants",
"Tasty Burger","48","48 Winter St","Boston","MA","(617) 892-6029","42.355963","-71.062025","Restaurants",
"Five Guys","291","291 S Broadway","Salem","NH","(603) 824-6945","42.758793","-71.211351","Restaurants",
"Domino's","1899","1899 Main St Ste 1","Tewksbury","MA","(978) 858-0777","42.590703","-71.20533","Pizza",
"Domino's","1","1 Andover","Lynnfield","MA","(781) 334-3280","42.52567","-71.02692","Pizza",
"Domino's","4000","4000 Washington St","Roslindale","MA","(617) 318-6100","42.292323","-71.121545","Pizza",
"Domino's","341","341 Union St","Lynn","MA","(781) 581-8085","42.4641356404853","-70.9438352944212","Pizza",
"Domino's","277","277 Main St","Charlestown","MA","(617) 419-4400","42.377513","-71.066652","Pizza",
"Domino's","988","988 Bedford St","Abington","MA","(617) 282-8228","42.131405","-70.950513","Pizza",
"Domino's","54","54 Main St","Marlborough","MA","(508) 481-5335","42.347038","-71.545105","Pizza",
"Domino's","583","583 North St","East Weymouth","MA","(781) 740-4131","42.229218","-70.943985","Pizza",
"Papa John's Pizza","528","528 River St","Mattapan","MA","(617) 322-9698","42.2669773","-71.0948111","Pizza",
"Domino's","103","103 Nashua Rd Unit B","Londonderry","NH","(603) 434-3600","42.850728","-71.357276","Pizza",
"KFC","298","298 Washington St","Weymouth","MA","(781) 337-3266","42.213526","-70.960779","Restaurants",
"KFC","2360","2360 Washington St","Roxbury","MA","(617) 442-6927","42.3293865","-71.0844773","Restaurants",
"Guiseppes Sub Shop","309","309 Watertown St","Newton","MA","(617) 527-9624","42.361206","-71.199074","Restaurants",
"Burger King","498","498 Rantoul St","Beverly","MA","(978) 921-5260","42.5573011","-70.8805804","Restaurants",
"Sandwich King","361","361 Bridge St","Lowell","MA","(978) 452-7967","42.649719","-71.303712","Restaurants",
"Domino's","43","43 Beckford St","Beverly","MA","(978) 927-2999","42.558286","-70.8816688","Pizza",
"Domino's","1400","1400 Tremont St","Roxbury Crossing","MA","(617) 541-3525","42.331296","-71.095604","Pizza",
"Domino's","250","250 Central Ave","Dover","NH","(603) 742-8411","43.1926245","-70.8735018","Pizza",
"Domino's","599","599 Lafayette Rd Ste 14","Portsmouth","NH","(603) 431-7881","43.055101","-70.769166","Pizza",
"Domino's","382","382 Main St","Gloucester","MA","(978) 281-5480","42.6175207","-70.6519881","Pizza",
"Domino's","4640","4640 Washington St Ste 1","Roslindale","MA","(617) 323-0525","42.2748688","-71.1399463","Pizza",
"Domino's","1033","1033 Massachusetts Ave Ste 3","Cambridge","MA","(617) 441-2101","42.3699398","-71.1120094","Pizza",
"Domino's","435","435 Boston Post Rd Ste 3","Sudbury","MA","(978) 443-0007","42.360257","-71.421478","Pizza",
"Domino's","270","270 Main St Unit 3","Hanson","MA","(781) 293-4500","42.0433042","-70.8519179","Pizza",
"Domino's","254","254 N Broadway","Salem","NH","(603) 893-7100","42.793713","-71.235392","Pizza",
"Domino's","240","240 Chestnut St","Needham","MA","(781) 449-5599","42.276141","-71.237335","Pizza",
"Domino's","729","729 Boston Rd Ste 2","Billerica","MA","(978) 663-3000","42.534736","-71.236909","Pizza",
"Domino's","374","374 Chelmsford St","Lowell","MA","(978) 441-1000","42.629628","-71.321162","Pizza",
"Domino's","527","527 Groton Rd Ste 2","Westford","MA","(978) 589-9988","42.626056","-71.415454","Pizza",
"Domino's","274","274 Main St Ste 1","Reading","MA","(781) 944-9144","42.515078","-71.104106","Pizza",
"Domino's","385","385 Franklin St","Melrose","MA","(781) 665-0049","42.468615","-71.067042","Pizza",
"Domino's","4","4 Canal St","Salem","MA","(978) 744-4040","42.51773","-70.895569","Pizza",
"Domino's","14","14 Jackson St","Methuen","MA","(978) 685-2525","42.722776","-71.159536","Pizza",
"Domino's","1085","1085 N Montello St","Brockton","MA","(508) 587-1299","42.113599","-71.027726","Pizza",
"Domino's","58","58 S Broadway","Lawrence","MA","(978) 685-1001","42.698199","-71.163698","Pizza",
"Domino's","1268","1268 Broadway","Saugus","MA","(781) 231-3031","42.455061","-71.023344","Pizza",
"Dairy Queen","323","323 N Main St","Natick","MA","(508) 655-3839","42.313717","-71.36","Restaurants",
"Dairy Queen","158","158 High St","Ipswich","MA","(978) 356-5599","42.691364","-70.854934","Restaurants",
"Dairy Queen","226","226 Main St","Weymouth","MA","(781) 335-9546","42.1999270755049","-70.9556510140056","Restaurants",
"Dairy Queen","37","37 Ferry Rd","Salisbury","MA","(978) 465-2456","42.833599","-70.854036","Restaurants",
"KFC","30","30 N Beacon St","Allston","MA","(617) 254-2481","42.353588","-71.138919","Restaurants",
"Domino's","205","205 Lexington St","Waltham","MA","(781) 894-4848","42.383264","-71.236759","Pizza",
"Domino's","75","75 Great Rd Ste 1","Acton","MA","(978) 264-4141","42.477196","-71.411234","Pizza",
"Domino's","880","880 Walnut St","Newton Center","MA","(617) 332-7222","42.331546","-71.206923","Pizza",
"Domino's","725","725 Lafayette Rd Ste 8","Hampton","NH","(603) 929-0030","42.9479","-70.832121","Pizza",
"Domino's","300","300 N Main St Unit 3","Rochester","NH","(603) 335-5663","43.3127489","-70.99462","Pizza",
"Domino's","681","681 Bridge St","Lowell","MA","(978) 452-3030","42.653883","-71.301979","Pizza",
"Virginas Fine Foods","8","8 Cypress St Ste A","Brookline","MA","(617) 566-7775","42.3344084","-71.1232583","Restaurants",
"Nikis Roast Beef & Pizza","7","7 Central St","Georgetown","MA","(978) 352-2400","42.724141","-70.992356","Restaurants",
"College Pizza","750","750 Bedford St","Bridgewater","MA","(508) 697-6917","41.96803","-70.973021","Restaurants",
"Satucket Pizzeria","650","650 Plymouth St","East Bridgewater","MA","(508) 378-1402","42.0161667","-70.9404679","Restaurants",
"Mike's Roast Beef & Pizza","35","35 Revere St","Revere","MA","(781) 853-2900","42.4166016","-71.007575","Restaurants",
"Qdoba Mexican Eats","300","300 Mishawum Rd","Woburn","MA","(781) 933-5402","42.505525","-71.13321","Restaurants",
"Dairy Queen","344","344 Belmont St","Brockton","MA","(508) 583-9813","42.077567","-71.033977","Restaurants",
"KFC","163","163 Cambridge Rd","Woburn","MA","(781) 935-4430","42.468522","-71.179512","Restaurants",
"Subway","235","235 Newton St","Waltham","MA","(781) 894-8722","42.369318","-71.230578","Restaurants",
"Old Railroad Cafe","386","386 Columbia Rd Ste 2","Hanover","MA","(781) 829-0666","42.109793","-70.8115036","Restaurants",
"Pizza Express & More","653","653 Great Rd","Littleton","MA","(978) 486-9270","42.5662817","-71.5033843","Restaurants",
"Firehouse Subs","103","103 Commerce Way Ste C1","Woburn","MA","(781) 938-7827","42.5175483","-71.1372614","Restaurants",
"Gyu-Kaku","1002","1002 Beacon St","Brookline","MA","(617) 264-6190","42.346418","-71.10713","Restaurants",
"Kostas Pizza & Seafood","315","315 Chestnut St","Needham","MA","(781) 449-2255","42.274733","-71.238081","Restaurants",
"Royal Pizza","483","483 Main St","Medfield","MA","(508) 359-2424","42.186109","-71.306269","Restaurants",
"Abington House of Pizza","198","198 North Ave","Abington","MA","(781) 982-9336","42.128191","-70.94257","Restaurants",
"Olympic House of Pizza","2605","2605 Cranberry Hwy","Wareham","MA","(508) 273-7536","41.768866","-70.7173832","Restaurants",
"Domino's","202","202 Route 108","Somersworth","NH","(603) 749-7799","43.2434054","-70.8990025","Pizza",
"Domino's","85","85 Maple St","Danvers","MA","(978) 777-8776","42.567739","-70.937325","Pizza",
"Domino's","1419","1419 Washington St","Walpole","MA","(508) 668-5238","42.122588","-71.248415","Pizza",
"Little Caesars Pizza","24","24 Union Ct","Lynn","MA","(781) 780-5727","42.469085","-70.939637","Pizza",
"Domino's","1940","1940 Main St","Brockton","MA","(508) 588-3412","42.0467328","-71.0100152","Pizza",
"Little Caesars Pizza","7","7 Hilldale Ave","Haverhill","MA","(978) 372-3944","42.778675","-71.089878","Pizza",
"Pizza Hut","7","7 Sycamore St","Everett","MA","(781) 321-3335","42.4143553307078","-71.0467601261234","Pizza",
"Domino's","201","201 Elm St","Somerville","MA","(617) 629-2929","42.393745","-71.120504","Pizza",
"Domino's","230","230 Main St","Somerville","MA","(617) 629-0444","42.39885","-71.12029","Pizza",
"Domino's","64","64 Staniford St","Boston","MA","(617) 248-0100","42.362883","-71.064089","Pizza",
"Domino's","428","428 Salem St","Medford","MA","(781) 395-7555","42.4227427","-71.0921911","Pizza",
"Pizza Hut","136","136 Andover St","Danvers","MA","(978) 777-2500","42.556368","-70.968304","Pizza",
"Domino's","707","707 W Center Ave","Saugus","MA","(781) 231-3030","42.46326","-71.01048","Pizza",
"Little Caesars Pizza","859","859 Central Ave","Dover","NH","(603) 743-6800","43.2172481074107","-70.8819514581804","Pizza",
"Domino's","5","5 Main Street Ext Ste 109","Plymouth","MA","(508) 747-7500","41.955651","-70.664061","Pizza",
"Domino's","207","207 Adams St","Dorchester","MA","(617) 282-2424","42.3017463768724","-71.0601064248663","Pizza",
"Papa John's Pizza","622","622 Somerville Ave Ste 4","Somerville","MA","(617) 627-9100","42.383676","-71.110175","Pizza",
"Domino's","61","61 Hancock St","Quincy","MA","(617) 472-9191","42.2817","-71.036507","Pizza",
"Little Caesars Pizza","360","360 Broadway","Lawrence","MA","(978) 208-4641","42.711282","-71.17395","Pizza",
"Papa John's Pizza","533","533 Washington St","Brighton","MA","(617) 254-0111","42.349203","-71.162891","Pizza",
"Domino's","55","55 Frederick St","Framingham","MA","(508) 620-4975","42.278871","-71.413856","Pizza",
"Little Caesars Pizza","160","160 Winthrop Ave","Lawrence","MA","(978) 681-7652","42.688641","-71.145719","Pizza",
"Domino's","186","186 Great Rd Ste 4","Bedford","MA","(781) 280-2929","42.489803","-71.272835","Pizza",
"Papa John's Pizza","49","49 Jackson St Ste 3","Methuen","MA","(978) 685-7272","42.724427","-71.159485","Pizza",
"Little Caesars Pizza","628","628 American Legion Hwy","Roslindale","MA","(857) 273-3150","42.2845688","-71.1102454","Pizza",
"Little Caesars Pizza","11","11 Solon St","Newton Highlands","MA","(978) 710-6053","42.317197","-71.20201","Pizza",
"Domino's","707","707 Western Ave","Lynn","MA","(781) 581-8080","42.463696","-70.964647","Pizza",
"Domino's","281","281 Concord St","Framingham","MA","(508) 620-4975","42.283018","-71.413919","Pizza",
"KFC","11","11 Washington St","Norwell","MA","(781) 878-8280","42.174401","-70.884129","Restaurants",
"Demainos Restaurant","14","14 Malden St","Revere","MA","(781) 284-8110","42.416453","-71.008885","Restaurants",
"Qdoba Mexican Eats","393","393 Huntington Ave Ste 101","Boston","MA","(617) 450-0910","42.3397941","-71.090884","Restaurants",
"Qdoba Mexican Eats","101","101 Causeway St","Boston","MA","(617) 248-0763","42.364813","-71.061714","Restaurants",
"Cape Cod Cafe Bridgewater","220","220 Winter St Ste 3","Bridgewater","MA","(508) 697-3077","41.968227","-70.974138","Restaurants",
"Chipotle Mexican Grill","100","100 Cambridgeside Pl Spc F21","Cambridge","MA","(857) 500-4730","42.3684293","-71.0764537","Restaurants",
"Qdoba Mexican Eats","30","30 Forbes Rd Ste C","Braintree","MA","(781) 843-4111","42.220455","-71.030511","Restaurants",
"Qdoba Mexican Eats","46","46 Bedford St","Lexington","MA","(781) 862-0920","42.45258","-71.232792","Restaurants",
"Dairy Queen","122","122 Main St","Foxboro","MA","(508) 543-6488","42.0733827","-71.2597466","Restaurants",
"Hanover Hse of Pizza","272","272 Columbia Rd Ste 2","Hanover","MA","(781) 826-4381","42.112662","-70.815819","Restaurants",
"Qdoba Mexican Eats","1600","1600 Woodbury Ave Ste 2","Portsmouth","NH","(603) 427-0109","43.088625","-70.789901","Restaurants",
"Dairy Queen","99","99 Rockingham Park Blvd Ste 42","Salem","NH","(603) 475-3118","42.7672968","-71.2319237","Restaurants",
"Burger King","699","699 Bedford St","Whitman","MA","(781) 447-4936","42.079768","-70.946657","Restaurants",
"Domino's","743","743 Main St","Winchester","MA","(781) 729-8844","42.457843","-71.138435","Pizza",
"Dairy Queen","479","479 Cabot St","Beverly","MA","(978) 927-1249","42.5645599","-70.884831","Restaurants",
"Teds Place","642","642 Washington St","Whitman","MA","(781) 447-2100","42.082319","-70.938103","Restaurants",
"Dairy Queen","49","49 E Main St","Marlborough","MA","(508) 485-0850","42.348555","-71.541973","Restaurants",
"KFC","112","112 Main St","Kingston","MA","(781) 585-1582","41.987626","-70.711447","Restaurants",
"Subway","1576","1576 Dorchester Ave","Dorchester","MA","(617) 265-1995","42.297104","-71.060487","Restaurants",
"KFC","440","440 Middlesex Rd Ste 3","Tyngsboro","MA","(978) 649-4237","42.697599","-71.440007","Restaurants",
"Harrows Chicken Pies","810","810 Providence Hwy","Dedham","MA","(781) 320-0411","42.237586","-71.177738","Restaurants",
"Burger King","1333","1333 Park St","Stoughton","MA","(781) 341-8466","42.101956","-71.067946","Restaurants",
"Burger King","109","109 Main St","Medway","MA","(508) 533-5209","42.149641","-71.417076","Restaurants",
"Wendy's","570","570 Lafayette Rd","Seabrook","NH","(603) 474-0402","42.891533","-70.871415","Restaurants",
"Subway","158","158 N Main St","Rochester","NH","(603) 335-6013","43.3051436","-70.9834066","Restaurants",
"Qdoba Mexican Eats","1016","1016 Paradise Rd","Swampscott","MA","(781) 715-0788","42.4848222","-70.9008381","Restaurants",
"Your Place & Ours Pizza & Subs","8","8 Elm Park","Groveland","MA","(978) 374-7409","42.7628119","-71.0318999","Restaurants",
"Domino's","225","225 Quincy Ave","Quincy","MA","(617) 328-6801","42.2403215","-70.9919302","Pizza",
"Domino's","63","63 Park St Ste 2","Andover","MA","(978) 474-0066","42.656797","-71.137","Pizza",
"Subway","869","869 Main St","Waltham","MA","(781) 209-8777","42.376504","-71.246036","Restaurants",
"Dairy Queen","250","250 S Main St","Middleton","MA","(978) 777-3663","42.576786","-70.996521","Restaurants",
"Dairy Queen","1138","1138 N Main St","Brockton","MA","(508) 583-2487","42.113165","-71.034181","Restaurants",
"Bobs Broiled Chicken","801","801 Islington St Ste 16","Portsmouth","NH","(603) 433-6355","43.068983","-70.772991","Restaurants",
"Somersworth House of Pizza","52","52 Market St","Somersworth","NH","(603) 692-4421","43.264394","-70.8637816","Restaurants",
"Domino's","1177","1177 N Main St","Randolph","MA","(781) 986-3030","42.195672","-71.060628","Pizza",
"Lees Kitchen","389","389 W Central St","Franklin","MA","(508) 520-1228","42.088317","-71.412915","Restaurants",
"Szechuan Garden","106","106 Main St Unit B","Medway","MA","(508) 533-8888","42.151209","-71.415014","Restaurants",
"FB Luncheonette","142","142 Bowdoin St","Boston","MA","(617) 523-8164","42.358546","-71.062461","Restaurants",
"Subway","330","330 Bedford St Ste 3","Lakeville","MA","(508) 946-0098","41.8440639","-70.9482946","Restaurants",
"Hardee's","303","303 Main St","Somersworth","NH","(603) 692-4481","43.253451","-70.859173","Restaurants",
"Dairy Queen","652","652 Washington St","Quincy","MA","(617) 770-3920","42.24635","-70.974544","Restaurants",
"Heavenly Donuts","44","44 Route 125","Exeter","NH","(603) 347-5178","42.964322","-71.064929","Restaurants",
"Five Guys","20","20 Rosebrook Pl Unit 3","Wareham","MA","(508) 273-7156","41.773887176602","-70.7354107366493","Restaurants",
"Noble Romans Pizza","249","249 Ruggles St","Boston","MA","(617) 375-1069","42.3359115902272","-71.0905945545648","Restaurants",
"Qdoba Mexican Eats","42","42 Highland Cmn E","Hudson","MA","(978) 567-0630","42.3942088776374","-71.5948255374934","Restaurants",
"Domino's","695","695 Truman Hwy Ste 1","Hyde Park","MA","(617) 364-6550","42.252457","-71.118958","Pizza",
"Subway","151","151 Forsyth St","Boston","MA","(617) 373-4613","42.3373208067712","-71.0897765314278","Restaurants",
"Subway","386","386 Cabot St","Beverly","MA","(978) 927-0077","42.5576291","-70.8810133","Restaurants",
"Subway","48","48 Chelmsford St Ste 3","Chelmsford","MA","(978) 250-8833","42.598986","-71.349967","Restaurants",
"Subway","1734","1734 Lakeview Ave Ste 19","Dracut","MA","(978) 957-6187","42.678376","-71.342202","Restaurants",
"Subway","333","333 Main St","Tewksbury","MA","(978) 640-1152","42.6227683","-71.2689846","Restaurants",
"Subway","4110","4110 Mystic Valley Pkwy Ste 4","Medford","MA","(781) 396-9966","42.4057699","-71.083823","Restaurants",
"Subway","35","35 Pleasant St Ste 3116","South Weymouth","MA","(781) 337-0482","42.171212","-70.953695","Restaurants",
"Subway","937","937 Bedford St","Abington","MA","(781) 878-7347","42.1296846","-70.9496281","Restaurants",
"Subway","150","150 New Boston St Ste C","Woburn","MA","(781) 569-0550","42.508343","-71.145196","Restaurants",
"Subway","1717","1717 Middlesex St Ste 1","Lowell","MA","(978) 770-0674","42.635498","-71.35336","Restaurants",
"Quiznos","45","45 Enon St Unit 11","Beverly","MA","(978) 922-7827","42.5876508","-70.8845866","Restaurants",
"Subway","1","1 Portsmouth Ave Ste 6","Stratham","NH","(603) 772-0711","42.991739611417","-70.9277789567328","Restaurants",
"Sbarro","1245","1245 Worcester St Ste 2000","Natick","MA","(508) 650-5714","42.3004711","-71.3857931","Restaurants",
"Subway","904","904 Huntington Ave","Boston","MA","(617) 232-5752","42.331915","-71.111835","Restaurants",
"Subway","134","134 Great Rd","Acton","MA","(978) 263-8875","42.480597","-71.415384","Restaurants",
"Subway","1060","1060 Main St Ste 5","Millis","MA","(508) 376-5200","42.1638542","-71.3657438","Restaurants",
"Subway","892","892 Central Ave Ste 2","Dover","NH","(603) 740-9666","43.218467","-70.883935","Restaurants",
"Subway","419","419 Washington St","Brighton","MA","(617) 987-2665","42.349277","-71.155518","Restaurants",
"Subway","2454","2454 Lafayette Rd Ste 11","Portsmouth","NH","(603) 501-0110","43.034125","-70.783115","Restaurants",
"Carry Out Cafe","155","155 State St Ste 4","Newburyport","MA","(978) 499-2240","42.8008288","-70.8739102","Restaurants",
"Subway","203","203 Portland St","Boston","MA","(617) 248-3948","42.364708","-71.061956","Restaurants",
"Subway","13","13 Central Sq","East Boston","MA","(617) 561-0061","42.374489","-71.038898","Restaurants",
"Subway","274","274 Franklin St","Boston","MA","(617) 330-7883","42.357065","-71.053725","Restaurants",
"Subway","1727","1727 Revere Beach Pkwy","Everett","MA","(617) 389-1703","42.402328","-71.043819","Restaurants",
"Subway","350","350 Longwood Ave Ste 10","Boston","MA","(617) 264-9299","42.3384273","-71.1068512","Restaurants",
"Subway","2200","2200 Woodbury Ave Ste 3","Portsmouth","NH","(603) 431-2700","43.101495","-70.809302","Restaurants",
"Subway","326","326 N Broadway","Salem","NH","(603) 893-3005","42.8019526","-71.2387019","Restaurants",
"Subway","7","7 Exeter Rd","Epping","NH","(603) 734-5288","43.035788","-71.069358","Restaurants",
"Subway","1315","1315 Boylston St","Boston","MA","(617) 247-9833","42.344591","-71.098878","Restaurants",
"Subway","2890","2890 Cranberry Hwy","East Wareham","MA","(508) 295-1148","41.757983","-70.664776","Restaurants",
"Subway","342","342 W Cummings Park","Woburn","MA","(781) 281-0395","42.496944","-71.127854","Restaurants",
"Subway","125","125 Canal St Ste 6","Salem","MA","(978) 744-7827","42.509753","-70.895913","Restaurants",
"Subway","250","250 Hartford Ave","Bellingham","MA","(508) 966-2288","42.119201","-71.466273","Restaurants",
"Subway","233","233 Broad St Ste 6","Bridgewater","MA","(508) 697-0600","41.994113","-70.972845","Restaurants",
"Subway","13","13 Taunton St Unit 7","Plainville","MA","(508) 699-2555","42.011703","-71.305286","Restaurants",
"Subway","233","233 W Center St","West Bridgewater","MA","(508) 427-5511","42.017352","-71.020925","Restaurants",
"Subway","5","5 Stockwell Dr","Avon","MA","(508) 587-7900","42.1265","-71.068227","Restaurants",
"Odyssey Grill","63","63 Main St","Winthrop","MA","(617) 846-7200","42.3822351","-70.991987","Restaurants",
"Burger King","2255","2255 Lafayette Rd","Portsmouth","NH","(603) 436-7267","43.03439","-70.779754","Restaurants",
"Subway","1","1 Hall Farm Rd","Atkinson","NH","(603) 489-1905","42.8544868046425","-71.1961387103696","Restaurants",
"Subway","170","170 Pulaski Blvd Ste 2","Bellingham","MA","(508) 883-6599","42.020547","-71.494914","Restaurants",
"Subway","59","59 Leonard St Ste A","Belmont","MA","(617) 993-3340","42.3973971","-71.1751053","Restaurants",
"Subway","170","170 Great Rd","Bedford","MA","(781) 275-0800","42.490827","-71.274713","Restaurants",
"Burger King","28","28 Portsmouth Ave Ste 13","Stratham","NH","(603) 778-6304","42.9981177","-70.9210295","Restaurants",
"Dairy Queen","335","335 Centre Ave","Abington","MA","(781) 878-9753","42.109784","-70.932081","Restaurants",
"Subway","4","4 Dover Rd Ste A","Durham","NH","(603) 868-1638","43.1330892","-70.9200295","Restaurants",
"Stow House of Pizza","156","156 Great Rd","Stow","MA","(978) 897-0704","42.433663","-71.490252","Restaurants",
"Subway","59","59 Mount Auburn St","Watertown","MA","(617) 744-0589","42.366178","-71.181578","Restaurants",
"Subway","1077","1077 Lexington St Ste 1","Waltham","MA","(781) 373-5672","42.411945","-71.232967","Restaurants",
"Subway","95","95 Main St","Maynard","MA","(978) 897-5619","42.432104","-71.454441","Restaurants",
"Subway","669","669 Massachusetts Ave","Arlington","MA","(781) 777-1474","42.416116","-71.1543472","Restaurants",
"Subway","268","268 Washington St","Wellesley Hills","MA","(781) 237-1000","42.312812","-71.273538","Restaurants",
"Subway","93","93 Mazzeo Dr","Randolph","MA","(781) 885-1902","42.162087","-71.062268","Restaurants",
"Subway","424","424 Chelmsford St","Lowell","MA","(978) 710-6781","42.6283304","-71.321545","Restaurants",
"Subway","237","237 Boston Post Rd W Ste B","Marlborough","MA","(508) 481-3464","42.3393299","-71.590586","Restaurants",
"Subway","174","174 Littleton Rd Ste 3","Westford","MA","(978) 799-3022","42.566563","-71.421995","Restaurants",
"Subway","40","40 Jackson St Ste 2","Methuen","MA","(978) 258-0591","42.722921","-71.160485","Restaurants",
"Domino's","111","111 Arsenal St","Watertown","MA","(617) 923-3030","42.364676","-71.179104","Pizza",
"Domino's","1672","1672 Blue Hill Ave","Mattapan","MA","(617) 298-0900","42.2673857166975","-71.0935347796284","Pizza",
"Subway","171","171 State St","Newburyport","MA","(978) 465-2205","42.7983519","-70.8749436","Restaurants",
"Subway","58","58 Plaistow Rd","Plaistow","NH","(603) 382-3055","42.826577","-71.109044","Restaurants",
"Square Deli","421A","421a Broadway","Everett","MA","(617) 389-9489","42.4063737485472","-71.0559149813812","Restaurants",
"Subway","259","259 S Main St","Middleton","MA","(978) 762-0981","42.5754804","-70.996112","Restaurants",
"Panda Express","106","106 Providence Hwy","East Walpole","MA","(508) 850-9688","42.1563731","-71.2019467","Restaurants",
"Subway","520","520 W Central St # 528","Franklin","MA","(508) 528-0345","42.089406","-71.419439","Restaurants",
"Subway","14","14 Lilac Mall","Rochester","NH","(603) 332-9666","43.318737","-70.972871","Restaurants",
"Subway","981","981 Tremont St Ste A","Roxbury Crossing","MA","(617) 989-0453","42.337168","-71.084626","Restaurants",
"Quiznos","600","600 Technology Sq Ste 1","Cambridge","MA","(617) 225-7827","42.3634166","-71.0930934","Restaurants",
"Subway","1281","1281 Hyde Park Ave","Hyde Park","MA","(617) 361-7373","42.255299","-71.124423","Restaurants",
"Subway","7","7 Lafayette Rd Unit A","North Hampton","NH","(603) 964-1124","42.960768","-70.833915","Restaurants",
"Tango Mango","1191","1191 Centre St","Newton Center","MA","(617) 969-8100","42.33187","-71.194725","Restaurants",
"Subway","27","27 Washington St","Canton","MA","(781) 575-0505","42.13929","-71.147704","Restaurants",
"Amante Pizza & Cafe","440","440 Union St","Rockland","MA","(781) 871-7144","42.134246","-70.9171439","Restaurants",
"Boca Grande","149","149 1st St","Cambridge","MA","(617) 354-5550","42.366409","-71.078213","Restaurants",
"Domino's","240","240 Trapelo Rd","Belmont","MA","(617) 489-4242","42.382498","-71.180423","Pizza",
"Domino's","824","824 Washington St","East Weymouth","MA","(781) 682-9000","42.201273","-70.943193","Pizza",
"Domino's","671","671 Massachusetts Ave","Arlington","MA","(781) 643-2300","42.4160968","-71.1545254","Pizza",
"Subway","1105","1105 Massachusetts Ave Ste 1","Cambridge","MA","(617) 492-5351","42.370762","-71.113425","Restaurants",
"Roland's Sub Shop","7","7 Charles St","Dover","NH","(603) 742-6061","43.1805847493973","-70.8767432721955","Restaurants",
"Heng Heng Fast Food","32","32 Branch St Unit 4","Lowell","MA","(978) 275-3895","42.637548","-71.322335","Restaurants",
"Subway","260","260 Western Ave","Allston","MA","(617) 783-5700","42.3631439","-71.1332842","Restaurants",
"Subway","721","721 Somerville Ave","Somerville","MA","(617) 776-0091","42.3860807","-71.1141415","Restaurants",
"Arby's","601","601 Donald Lynch Blvd Ste 5213","Marlborough","MA","(508) 460-1100","42.356322","-71.612636","Restaurants",
"Hungry Tiger","700","700 Boston Rd Ste 18","Billerica","MA","(978) 663-2535","42.539614","-71.244088","Restaurants",
"Dairy Queen","190","190 S Union St","Lawrence","MA","(978) 687-0682","42.696788","-71.153221","Restaurants",
"Subway","179","179 Pearl St","Braintree","MA","(781) 348-4949","42.20276","-70.999304","Restaurants",
"Subway","695","695 Eastern Ave","Malden","MA","(781) 333-3058","42.429301","-71.050077","Restaurants",
"Subway","18","18 Central St Ste 2","Foxboro","MA","(508) 543-1315","42.0640383","-71.2493552","Restaurants",
"Subway","44","44 State St","Lynn","MA","(781) 595-3333","42.461244","-70.949597","Restaurants",
"Burger King","280","280 W Broadway","South Boston","MA","(617) 268-0163","42.339166","-71.05101","Restaurants",
"Subway","1187","1187 Highland Ave","Needham Heights","MA","(781) 453-4031","42.2861165707297","-71.2355528553323","Restaurants",
"Squires of Hanover","1202","1202 Washington St","Hanover","MA","(781) 826-3360","42.1376009","-70.842363","Restaurants",
"Dairy Queen","286","286 Main St","North Reading","MA","(978) 664-2277","42.59363","-71.119029","Restaurants",
"Subway","36","36 Vanderbilt Ave","Norwood","MA","(781) 269-5474","42.1729443","-71.1940037","Restaurants",
"Subway","63","63 Andrew Ave","Wayland","MA","(508) 358-6323","42.3646386","-71.3682539","Restaurants",
"Charley's Philly Steaks","101","101 Independence Mall Way","Kingston","MA","(860) 518-2829","41.9714016","-70.7157434","Restaurants",
"Joe's New York Pizza","888","888 Lafayette Rd","Hampton","NH","(603) 926-9300","42.955387","-70.833652","Restaurants",
"Subway","740","740 Middle St","Weymouth","MA","(781) 335-3073","42.199552","-70.944485","Restaurants",
"Joe's New York Pizza-Portsmouth","124","124 Congress St","Portsmouth","NH","(603) 431-1200","43.075914","-70.759919","Restaurants",
"Subway","121","121 Worcester Rd","Framingham","MA","(508) 620-0688","42.300159","-71.3993","Restaurants",
"Cape Ann Pizza & Subs","65","65 Eastern Ave Ste 12","Essex","MA","(978) 768-3925","42.631744","-70.765745","Restaurants",
"Five Guys","197","197 Boston Post Rd W Ste K1","Marlborough","MA","(508) 281-4855","42.3391594","-71.5905116","Restaurants",
"Asian Wok Express","324","324 Lafayette Rd","Hampton","NH","(603) 929-6688","42.936936","-70.8386699","Restaurants",
"Lilac House","34","34 Milliston Rd","Millis","MA","(508) 376-8868","42.1669513","-71.3541052","Restaurants",
"Subway","350","350 Route 108 Unit 101","Somersworth","NH","(603) 841-5127","43.2616166348669","-70.905138645532","Restaurants",
"Wetzel's Pretzels","210","210 Andover St","Peabody","MA","(978) 531-1333","42.5413325","-70.9439351","Restaurants",
"Nh Beach Pizza","5","5 Kelly Rd Ste 3","Salem","NH","(603) 458-2184","42.755778","-71.211122","Restaurants",
"Subway","5","5 Edgell Rd Ste 2","Framingham","MA","(508) 875-0404","42.301023","-71.434067","Restaurants",
"Gallo Nero","89","89 Main St","Peabody","MA","(978) 531-9833","42.5239621","-70.9238393","Restaurants",
"Bruno's Pizza","195","195 Main St","Groton","MA","(978) 448-5959","42.608842","-71.572508","Restaurants",
"Subway","90","90 River St Ste B","Waltham","MA","(781) 398-1700","42.368973","-71.220046","Restaurants",
"McDonald's","","Rt 1 & North St","Foxboro","MA","(508) 698-0163","42.07838","-71.31336","Restaurants",
"Express Gourmet","11","11 River St Lowr","Wellesley Hills","MA","(781) 235-3613","42.3247292","-71.2590132","Restaurants",
"Subway","1185","1185 Centre St","Newton Center","MA","(617) 244-7827","42.331871","-71.194781","Restaurants",
"Subway","9","9 Elm St","Andover","MA","(978) 475-7929","42.6573449","-71.1403042","Restaurants",
"Subway","254","254 Merrimack St","Lowell","MA","(978) 934-9122","42.645722","-71.312168","Restaurants",
"Pizza Pizzazz","18","18 Main St Ste 108","Townsend","MA","(978) 597-0909","42.6487634","-71.6609355","Restaurants",
"Maynard Pizza House","149B","149b Main St","Maynard","MA","(978) 897-4212","42.4313507075618","-71.4573580601843","Restaurants",
"Heavnly Donuts Salem","120","120 Pleasant St","Salem","NH","(603) 912-5067","42.76716","-71.234377","Restaurants",
"Subway","185","185 Woburn St","Lowell","MA","(978) 937-2012","42.619458","-71.290298","Restaurants",
"Beachmont Roast Beef","629","629 Winthrop Ave","Revere","MA","(781) 289-7968","42.3975271378005","-70.9923090088894","Restaurants",
"Rochester House of Pizza","105","105 Highland St","Rochester","NH","(603) 335-6145","43.3262711005549","-70.9540465781725","Restaurants",
"Subway","55","55 Brooksby Vlg","Danvers","MA","(978) 646-9157","42.5536102049112","-70.9663840498115","Restaurants",
"Beverly House of Pizza","24","24 Cabot St","Beverly","MA","(978) 922-8400","42.5415286","-70.8857447","Restaurants",
"Minerva Pizza House","257","257 Main St Frnt","Wareham","MA","(508) 295-3909","41.7592927","-70.7163749","Restaurants",
"Subway","118","118 W Broadway","South Boston","MA","(857) 496-7115","42.3414088","-71.0544879","Restaurants",
"Subway","6","6 Grove St","Norwell","MA","(781) 421-3227","42.172305","-70.878253","Restaurants",
"Domino's","10","10 Weed St","Marlborough","MA","(978) 562-7755","42.346194","-71.54664","Pizza",
"Domino's","1144","1144 Saratoga St","East Boston","MA","(617) 567-5551","42.3846155","-71.0002309","Pizza",
"Domino's","209","209 E Central St","Franklin","MA","(508) 520-0600","42.080785","-71.387978","Pizza",
"Manhattan Deli","1690","1690 Main St","South Weymouth","MA","(781) 335-3166","42.146779","-70.954319","Restaurants",
"Subway","192","192 Elm St Ste 3","Salisbury","MA","(978) 462-5760","42.84447","-70.8946716","Restaurants",
"Subway","280","280 Washington St Ste 3","Hudson","MA","(978) 562-2771","42.3732078","-71.5594859","Restaurants",
"Norwell Pizzeria & Seafood","432","432 Washington St","Norwell","MA","(781) 659-1631","42.159348","-70.856134","Restaurants",
"Subway","238","238 Harvard St","Brookline","MA","(617) 566-5051","42.341239","-71.12124","Restaurants",
"Subway","213","213 Main St Ste 3","Hudson","MA","(978) 567-9077","42.391433","-71.563435","Restaurants",
"Angelinas Sub Shop","57","57 Washington St","Lynn","MA","(781) 595-9576","42.469448","-70.956859","Restaurants",
"Subway","447","447 Wareham St","Middleboro","MA","(508) 946-3951","41.845183","-70.848001","Restaurants",
"Zorbas Pizza","16","16 S Main St","West Bridgewater","MA","(508) 586-0065","42.018858","-71.006151","Restaurants",
"Marias Pizzeria","134","134 S Franklin St","Holbrook","MA","(781) 767-3340","42.1511475","-71.0091941","Restaurants",
"Baja Bettys Burritos","3","3 Harvard Sq","Brookline","MA","(617) 277-8900","42.332987","-71.118522","Restaurants",
"Nicks Place","197","197 Massachusetts Ave","Lexington","MA","(781) 863-0509","42.426354","-71.196235","Restaurants",
"Subway","1899","1899 Ocean St Ste V","Marshfield","MA","(781) 834-8500","42.091775","-70.70517","Restaurants",
"Chessmens","16","16 Central Sq","Bridgewater","MA","(508) 697-4114","41.9895472","-70.9749501","Restaurants",
"West Garden","1890","1890 Centre St","West Roxbury","MA","(617) 469-2288","42.285486","-71.155741","Restaurants",
"Subway","29","29 Winn St","Burlington","MA","(781) 270-0366","42.49073","-71.174008","Restaurants",
"Family House of Pizza","329","329 Maple St","Marlborough","MA","(508) 481-1322","42.335808","-71.542196","Restaurants",
"Brothers Pizza & Restaurant","201","201 Reservoir St","Needham Heights","MA","(781) 444-5060","42.310301","-71.228686","Restaurants",
"Scotty Dog","437","437 Rantoul St","Beverly","MA","(978) 969-3487","42.5545668","-70.8812895","Restaurants",
"Subway","666","666 Oak St","Brockton","MA","(774) 381-7938","42.1010969","-71.0549066","Restaurants",
"Subway","157","157 Bedford St Ste B","Burlington","MA","(781) 270-4479","42.501588","-71.230383","Restaurants",
"Subway","74","74 Long Pond Rd Ste 3","Plymouth","MA","(774) 283-4786","41.9295508","-70.6574637","Restaurants",
"Chestnut Garden Apartments","35","35 Revere Beach Pkwy","Medford","MA","(925) 510-2142","42.404031","-71.078852","Restaurants",
"Domino's","7","7 Mill Rd Unit G","Durham","NH","(603) 868-6230","43.1335402939267","-70.9268572515481","Pizza",
"New York Fried Chicken","531","531 Columbia Rd","Dorchester","MA","(617) 282-6996","42.31542","-71.066346","Restaurants",
"Subway","430","430 Park St","Stoughton","MA","(781) 297-9437","42.120372","-71.0874461","Restaurants",
"Andreas House of Pizza","498","498 Main St","Stoneham","MA","(781) 438-9115","42.474046","-71.100498","Restaurants",
"Subway","25","25 Shelley Rd","Haverhill","MA","(978) 521-5220","42.757128","-71.118388","Restaurants",
"Italian Kitchen","91","91 Common St","Lawrence","MA","(978) 685-1652","42.70869","-71.155958","Restaurants",
"Billys House of Pizza","806","806 Brockton Ave","Abington","MA","(781) 857-3008","42.09312","-70.968738","Restaurants",
"Boston House of Pizza","956","956 American Legion Hwy","Roslindale","MA","(617) 323-1010","42.278203","-71.115979","Restaurants",
"Center Street Pizza","110","110 Newbury St Ste 8","Danvers","MA","(978) 777-2953","42.568299","-70.974826","Restaurants",
"Baldies Pizzeria","755","755 Bedford St","Bridgewater","MA","(508) 697-9711","41.967623","-70.973496","Restaurants",
"Johnnys Pizza & Subs","1917","1917 Dorchester Ave","Dorchester Center","MA","(617) 265-6660","42.285196","-71.064657","Restaurants",
"Subway","4","4 Central Sq","Cambridge","MA","(617) 873-0878","42.3650437467807","-71.1047754757249","Restaurants",
"Subway","4","4 Lowell Rd Unit 7","North Reading","MA","(978) 664-6411","42.580309","-71.11298","Restaurants",
"Subway","794","794 Boston Post Rd E # 1","Marlborough","MA","(508) 485-5777","42.351182","-71.497881","Restaurants",
"Ye Old Cottage Restaurant","403","403 Boston Post Rd","Weston","MA","(781) 893-9810","42.367511","-71.300774","Restaurants",
"Louie's Pizza","1600","1600 Main St","South Weymouth","MA","(781) 331-7001","42.149498","-70.954575","Restaurants",
"Sahtaine Restaurant","319","319 Merrimack St Ste 1","Methuen","MA","(978) 258-2186","42.743034","-71.130473","Restaurants",
"Boston Central Kitchen Express","28","28 Damrell St Ste 107","South Boston","MA","(617) 268-0106","42.333204","-71.055623","Restaurants",
"Mikes Pizza","312","312 Union St","Rockland","MA","(781) 982-8887","42.1308409","-70.916064","Restaurants",
"Subway","301","301 Falls Blvd","Quincy","MA","(617) 479-0028","42.236477","-70.986789","Restaurants",
"Subway","799","799 Middlesex Tpke Ste 3","Billerica","MA","(978) 663-6565","42.528928","-71.258899","Restaurants",
"Burger King","720","720 Broadway","Saugus","MA","(781) 233-4190","42.474108","-71.023471","Restaurants",
"Subway","438","438 Washington St","Stoughton","MA","(781) 341-1607","42.134091","-71.101288","Restaurants",
"Subway","251","251 W Central St Ste 9","Natick","MA","(508) 650-0605","42.282626","-71.392401","Restaurants",
"Arlington House of Pizza","797","797 Massachusetts Ave","Arlington","MA","(781) 646-5016","42.416748","-71.158928","Restaurants",
"Petes A Place","142","142 Pine St","Danvers","MA","(978) 774-5675","42.560025","-70.9484049","Restaurants",
"Chutneys","350","350 Longwood Ave","Boston","MA","(617) 264-2100","42.3384273","-71.1068512","Restaurants",
"Freeda's Pizza & Calzone","38","38 Enon St Ste R","Beverly","MA","(978) 969-0999","42.5859185","-70.885839","Restaurants",
"Town House Pizza","892","892 Highland Ave","Needham Heights","MA","(781) 444-4333","42.293513","-71.235121","Restaurants",
"West Newbury Pizza Co","282","282 Main St","West Newbury","MA","(978) 363-2920","42.795594","-70.996403","Restaurants",
"Hong Kong Express","461","461 Lincoln Ave","Saugus","MA","(781) 233-0288","42.448848","-71.008407","Restaurants",
"Oriental Express","8","8 W Water St","Rockland","MA","(781) 871-3600","42.1267656","-70.9152425","Restaurants",
"Napoli Pizza","32","32 Pembroke St","Kingston","MA","(781) 585-2291","41.997016","-70.745787","Restaurants",
"West Hanover Pizzeria","1415","1415 Hanover St","Hanover","MA","(781) 878-4403","42.11926","-70.881933","Restaurants",
"Imperial Chinese Restaurant","341","341 Broad St","Bridgewater","MA","(508) 697-4200","41.998851","-70.971135","Restaurants",
"Subway","31","31 Saint James Ave Ste L7","Boston","MA","(617) 482-0989","42.3508845","-71.0718857","Restaurants",
"Nick's & Angelo Pizza Place","2105","2105 Old Plymouth St","Bridgewater","MA","(508) 697-1948","41.9963240557522","-70.9005301400494","Restaurants",
"Pizza Plus","16","16 N Main St","Natick","MA","(508) 655-7140","42.285873","-71.348924","Restaurants",
"Crown Chicken Lowell","813","813 Lakeview Ave","Lowell","MA","(978) 221-6933","42.658616","-71.314034","Restaurants",
"M & M Ribs","155","155 Southampton St","Boston","MA","(617) 306-0788","42.3311072","-71.0671275","Restaurants",
"Subway","547","547 W Grove St Unit 2","Middleboro","MA","(508) 947-7875","41.901649","-70.956056","Restaurants",
"Domino's","1","1 Andover St","Peabody","MA","(978) 536-3100","42.5348891","-70.9288941","Pizza",
"D & E Pizza","618","618 Washington St","Canton","MA","(781) 828-1487","42.154099","-71.146134","Restaurants",
"Dairy Queen","914","914 Webster St","Marshfield","MA","(781) 837-4150","42.090831","-70.703714","Restaurants",
"North Beverly Roast Beef & Seafood","10","10 Enon St","Beverly","MA","(978) 927-7353","42.5837439","-70.8848351","Restaurants",
"Luke's Roast Beef","1317","1317 Middlesex St","Lowell","MA","(978) 710-5087","42.6387107","-71.3391787","Restaurants",
