Business Name,Physical Address Number,Physical Address,Physical City,Physical State,Phone,Latitude,Longitude,Primary SIC Description,
"Ocean Chef","91","91 Carver Rd Ste M","Plymouth","MA","(508) 732-9999","41.9448725","-70.7115161","Restaurants",
"China Blossom","946","946 Osgood St","North Andover","MA","(978) 682-2242","42.711429","-71.118913","Restaurants",
"PF Chang's","100","100 Cambridge St Ste 2200","Boston","MA","(781) 461-6060","42.359957","-71.062137","Restaurants",
"Bamboo Fine Asian Cuisine","1","1 Lan Dr","Westford","MA","(978) 589-9666","42.559848","-71.430739","Restaurants",
"Golden Temple","1651","1651 Beacon St","Brookline","MA","(617) 277-9722","42.3387401","-71.1362747","Restaurants",
"Tahiti Restaurant","22","22 Mah Way","Dedham","MA","(781) 329-2575","42.24508","-71.172342","Restaurants",
"Yangtze River Restaurant","25","25 Depot Sq","Lexington","MA","(781) 861-6030","42.4487215421195","-71.2281747450505","Restaurants",
"Myers & Chang","1145","1145 Washington St Ste 1","Boston","MA","(617) 542-5200","42.343871","-71.066367","Restaurants",
"Supinos Restaurant","250","250 Newbury St","Danvers","MA","(978) 774-0707","42.583612","-70.967968","Restaurants",
"Wu Loon Ming Restaurant","8","8 Chelmsford Rd","North Billerica","MA","(978) 663-9090","42.583819","-71.293492","Restaurants",
"Ichigo Ichie Hibachi","837","837 W Central St","Franklin","MA","(508) 541-8882","42.091889","-71.431485","Restaurants",
"Committee","50","50 Northern Ave","Boston","MA","(617) 737-5051","42.3535851","-71.046119","Restaurants",
"State Street Provisions","255","255 State St","Boston","MA","(617) 863-8363","42.3594346","-71.0511308","Restaurants",
"C Mart 2 Supermarket","109","109 Lincoln St","Boston","MA","(617) 426-8888","42.3513706","-71.058543","Convenience Stores",
"Pollo Tipico","190","190 Lawrence St","Lawrence","MA","(978) 975-8013","42.7157513392558","-71.1651302838737","Restaurants",
"Crossroads Cafe","405","405 Nagog Park","Acton","MA","(978) 263-9733","42.5229857","-71.4321318","Restaurants",
"Maui Restaurant","1875","1875 Main St","Brockton","MA","(508) 583-1010","42.0480779","-71.011129","Restaurants",
"Newcomb Farms Family Restaurant","1139","1139 Randolph Ave","Milton","MA","(617) 698-9547","42.229172","-71.071979","Restaurants",
"Chef Chows House","230","230 Harvard St","Brookline","MA","(617) 739-2469","42.340711","-71.121016","Restaurants",
"Oriental Garden","400","400 Lowell Ave Ste 13","Haverhill","MA","(978) 373-5626","42.774424","-71.113501","Restaurants",
"Bamboo-Bedford Fine Asian Cuisine & Sushi Bar","213","213 Burlington Rd","Bedford","MA","(781) 275-5888","42.501306","-71.235498","Restaurants",
"China Moon Restaurant","170","170 Main St","Stoneham","MA","(781) 438-0732","42.490265","-71.099679","Restaurants",
"Ocean Kai Restaurant","300","300 Lincoln St","Hingham","MA","(781) 749-6300","42.24898","-70.914186","Restaurants",
"Old Tyme Italian Cuisine","612","612 Boston St","Lynn","MA","(781) 596-1111","42.463525","-70.975403","Restaurants",
"Wangs Table","46","46 Washington St","Haverhill","MA","(978) 372-0089","42.773091","-71.083851","Restaurants",
"Jade Palace","28","28 Portsmouth Ave Ste 8","Stratham","NH","(603) 772-0572","42.9981177","-70.9210295","Restaurants",
"Wu ER By Wow Barbecue","320","320 Washington St","Brookline","MA","(617) 566-8858","42.3332186","-71.1201747","Restaurants",
"Dorset Hall","367","367 Neponset Ave","Dorchester","MA","(617) 533-7114","42.286701","-71.045127","Restaurants",
"Asia Chinese & Japanese","42","42 3rd St","Dover","NH","(603) 742-0040","43.198078","-70.87598","Restaurants",
"Lims Sports Bar","7","7 Veterans Memorial Pkwy","Salem","NH","(603) 893-9124","42.769961","-71.218608","Restaurants",
"Great Wall Restaurant","309","309 Great Rd","Bedford","MA","(781) 275-7007","42.4860682631326","-71.2615682209172","Restaurants",
"Chang Sho","1712","1712 Massachusetts Ave","Cambridge","MA","(617) 547-6565","42.383546","-71.119777","Restaurants",
"Tiki Island Restaurant","269","269 Middlesex Ave Ste 1","Medford","MA","(781) 391-0477","42.41183","-71.077987","Restaurants",
"Dynasty Chinese Restaurant","24","24 Signal St","Rochester","NH","(603) 332-1000","43.3054514","-70.9730381","Restaurants",
"Bamboo","55","55 Ariadne Rd","Dedham","MA","(781) 251-2566","42.2316733","-71.1820091","Restaurants",
"Sweet Basil","942","942 Great Plain Ave","Needham","MA","(781) 444-9600","42.28013","-71.235254","Restaurants",
"Yangtze Szechuan Restaurant","110","110 F W Hartford Dr","Portsmouth","NH","(603) 743-3355","43.0335871","-70.7740473","Restaurants",
"Bellinos Trattoria","146","146 Lowell St","Wakefield","MA","(781) 246-7666","42.523662","-71.078807","Restaurants",
"Yangtze River Restaurant","584","584 King St","Littleton","MA","(978) 486-0500","42.5465595258886","-71.4730300266833","Restaurants",
"Billy Tse Restaurant","240","240 Commercial St Lbby 1","Boston","MA","(617) 227-9990","42.36385","-71.051455","Restaurants",
"Jade East Restaurant Inc","433","433 Main St","Tewksbury","MA","(978) 851-7255","42.620209","-71.258461","Restaurants",
"Bamboo Cafe","1285","1285 Belmont St Ste 7","Brockton","MA","(508) 588-1988","42.059042","-71.068281","Restaurants",
"Rice Garden","690","690 Washington St","Brookline","MA","(617) 277-8221","42.338679","-71.134563","Restaurants",
"New Style Asian Food","25","25 Boston St","Lynn","MA","(781) 596-1688","42.479452","-70.956152","Restaurants",
"Mdm Noodles","351","351 Washington St","Brighton","MA","(617) 208-8663","42.3492363","-71.1528543","Restaurants",
"Jin's Sichuan House","922","922 Main St Ste 3","Waltham","MA","(781) 893-6663","42.375885","-71.248259","Restaurants",
"Mu Lan Taiwanese Restaurant","835","835 Main St","Waltham","MA","(781) 642-8888","42.376442","-71.2441319","Restaurants",
"The China","681","681 Hancock St","Quincy","MA","(617) 786-8890","42.2674092","-71.0158755","Restaurants",
"7 Chinese Restaurant","225","225 Grove St","West Roxbury","MA","(617) 363-9400","42.2618906","-71.1574114","Restaurants",
"Gourmet Garden","45","45 Enon St","Beverly","MA","(978) 720-8177","42.5876508","-70.8845866","Restaurants",
"Lucky Fast Food","60","60 Broadway","Malden","MA","(781) 605-1577","42.4254103","-71.0428795","Restaurants",
"China City Restaurant Inc","1158","1158 Beacon St","Newton Highlands","MA","(617) 243-9051","42.330753","-71.210314","Restaurants",
"Asian House","99","99 Cambridge St","Charlestown","MA","(617) 242-4165","42.38254","-71.079198","Restaurants",
"Chef Chang On Back Bay","30","30 Massachusetts Ave","Boston","MA","(617) 236-0888","42.350367","-71.089019","Restaurants",
"88 Chinese Restaurant","19","19 Hobart St","Danvers","MA","(978) 774-5028","42.5670737120038","-70.940370336374","Restaurants",
"Szechuans Dumpling","1360","1360 Massachusetts Ave","Arlington","MA","(781) 648-8882","42.4242579","-71.1837727","Restaurants",
"Mandarin Cuisine","691","691 Main St","Walpole","MA","(508) 660-1870","42.1538159","-71.245695","Restaurants",
"Sichuan Gourmet Sharon","388","388 S Main St","Sharon","MA","(781) 784-6698","42.1076674","-71.1983779","Restaurants",
"Asian Ginger","70","70 Central St","Foxboro","MA","(508) 698-3333","42.062602","-71.24807","Restaurants",
"PF Chang's","1245","1245 Worcester St Ste 4008","Natick","MA","(508) 651-7724","42.3004711","-71.3857931","Restaurants",
"Midget Restaurant","1712","1712 Massachusetts Ave","Cambridge","MA","(617) 354-8556","42.383546","-71.119777","Restaurants",
"PF Chang's","800","800 Boylston St","Boston","MA","(617) 378-9961","42.3482963792101","-71.0834282775152","Restaurants",
"Sei Bar","916","916 Broadway","Everett","MA","(617) 381-1880","42.420921","-71.043885","Restaurants",
"Super Wok","25","25 Orchard View Dr","Londonderry","NH","(603) 425-5108","42.862569","-71.354974","Restaurants",
"Yans China Bistro","146","146 Humphrey St","Swampscott","MA","(781) 593-3308","42.4680462","-70.916509","Restaurants",
"Marlborough Super Buffet","771","771 Boston Post Rd E Ste 1","Marlborough","MA","(508) 229-8889","42.349652","-71.499771","Restaurants",
"Oriental Restaurant","513","513 Medford St","Somerville","MA","(617) 628-8288","42.396669","-71.103559","Restaurants",
"Wah Sang Restaurant","42","42 Hampshire St","Methuen","MA","(978) 686-4118","42.727858","-71.189285","Restaurants",
"Teatone Chinese Restaurant","17","17 Railroad St","Andover","MA","(978) 623-8102","42.658676","-71.144516","Restaurants",
"Asian Too Express","1","1 Harborside Dr","East Boston","MA","(617) 561-7180","42.3634308","-71.0257061","Restaurants",
"Chau Chow Restaurant","699","699 William T Morrissey Blvd","Dorchester","MA","(617) 288-8188","42.297981","-71.0499509","Restaurants",
"Peking Kitchens","35","35 Washington St","Weymouth","MA","(781) 335-2222","42.219574651825","-70.9683085432106","Restaurants",
"Dragon Kitchen","24","24 Pleasant St","Dracut","MA","(978) 957-2980","42.663044","-71.325746","Restaurants",
"Feng Shui","380","380 Chief Justice Cushing Hwy Ste 21","Cohasset","MA","(781) 383-3328","42.234299","-70.822817","Restaurants",
"Hang Tai Too","75","75 Main St","Medway","MA","(508) 533-8828","42.151665","-71.409456","Restaurants",
"Master Wok","650","650 Atlantic Ave","Boston","MA","(617) 737-2044","42.3505062428841","-71.0563267058967","Restaurants",
"Iron Chef","435","435 Newbury St Ste 107","Danvers","MA","(978) 777-7888","42.599932","-70.959022","Restaurants",
"Great Chow","17","17 Beale St","Quincy","MA","(617) 328-1338","42.2675743","-71.0168673","Restaurants",
"Lucky Cafe","1107","1107 Dorchester Ave","Dorchester","MA","(617) 822-9888","42.3127318","-71.0574654","Restaurants",
"Mandarine Lowell","1590","1590 Middlesex St","Lowell","MA","(978) 459-1800","42.636182","-71.348464","Restaurants",
"Master Wok","1245","1245 Worcester St","Natick","MA","(508) 655-0615","42.3004711","-71.3857931","Restaurants",
"Vohns Restaurant","633","633 Pulaski Blvd","Bellingham","MA","(508) 883-4934","42.032745","-71.484156","Restaurants",
"Beijing","50","50 Essex St","Lynn","MA","(781) 598-9100","42.474431","-70.92864","Restaurants",
"Sunnyside Cafe","150","150 W Center St","West Bridgewater","MA","(508) 584-8800","42.0173824","-71.0166551","Restaurants",
"Grand Chinatown","21","21 Billings Rd","Quincy","MA","(617) 472-6868","42.273082","-71.025725","Restaurants",
"House of Siam on Tremont","592","592 Tremont St Ste 1","Boston","MA","(617) 267-7426","42.342936","-71.07302","Restaurants",
"South Garden","217","217 Quincy Ave","Quincy","MA","(617) 328-6628","42.240753","-70.992195","Restaurants",
"Oishii Boston","1166","1166 Washington St Ste 110","Boston","MA","(617) 482-8868","42.343406","-71.066023","Restaurants",
"Eastside Bar & Grill","561","561 Cambridge St","Cambridge","MA","(617) 661-3278","42.371888","-71.085548","Restaurants",
"New Ho Toy Chinese Restaurant","218","218 Old Colony Ave","South Boston","MA","(617) 268-2285","42.332848","-71.053385","Restaurants",
"Lucky Corner Restaurant","17","17 Freetown Rd Ste 9","Raymond","NH","(603) 895-8878","43.035369","-71.164925","Restaurants",
"Mr Chefs","490","490 Washington St","Stoughton","MA","(781) 341-8838","42.1326909","-71.101227","Restaurants",
"Cathay Kitchen","563","563 High St","Dedham","MA","(781) 329-2786","42.24823","-71.172412","Restaurants",
"Fibber Mcgee","104","104 Cabot St","Beverly","MA","(978) 232-0180","42.5456961","-70.880615","Restaurants",
"Chung Wah","199","199 Bowdoin St","Dorchester","MA","(617) 282-3822","42.305089","-71.068187","Restaurants",
"Beijing Cafe","728","728 Commonwealth Ave","Boston","MA","(617) 536-1616","42.349587","-71.106444","Restaurants",
"Shanghai Gateway Inc","204","204 Harvard Ave","Allston","MA","(617) 566-7344","42.35007","-71.130371","Restaurants",
"East Chinatown Restaurant","415","415 Hancock St","Quincy","MA","(617) 472-9928","42.273013","-71.025206","Restaurants",
"China Panda","60","60 High St","Somersworth","NH","(603) 692-3379","43.2613146296647","-70.8653526842877","Restaurants",
"Ginger Garden","1487","1487 Main St Ste 1","Tewksbury","MA","(603) 437-1688","42.599106","-71.221092","Restaurants",
"Jade Pacific","101","101 Lynnfield St","Lynn","MA","(781) 598-9639","42.48736","-70.964485","Restaurants",
"Peony Pavilion Restaurant","250","250 Bussey St","Dedham","MA","(781) 326-7706","42.248601","-71.154137","Restaurants",
"Shanghai Tokyo","54","54 E Central St","Natick","MA","(508) 651-0818","42.285098","-71.3422439","Restaurants",
"Charlton Chinese Take Out","1031","1031 Beacon St","Brookline","MA","(508) 248-1003","42.345396","-71.108043","Restaurants",
"Solstice","63","63 Summer St","Kingston","MA","(781) 585-2221","41.998326","-70.730128","Restaurants",
"Dragon Chef South Inc","338","338 Chestnut St","Needham","MA","(781) 449-4840","42.2742806065229","-71.23767653161","Restaurants",
"Tiki Garden","201","201 N Quincy St","Abington","MA","(781) 857-1300","42.117183","-70.999437","Restaurants",
"Taco Mex","65","65 Maverick Sq","East Boston","MA","(617) 569-2838","42.36969","-71.038647","Restaurants",
"Golden House","4403","4403 Washington St","Roslindale","MA","(617) 323-8239","42.281613","-71.133592","Restaurants",
"Magic Wok","1512","1512 Dorchester Ave","Dorchester","MA","(617) 288-6388","42.29911","-71.060343","Restaurants",
"Hong Kong Chef","889","889 Dorchester Ave","Dorchester","MA","(617) 288-4228","42.32007","-71.056926","Restaurants",
"Shun Feng Chinese Restaurant","433","433 Lafayette Rd","Seabrook","NH","(603) 474-8523","42.8868672263813","-70.8708088461586","Restaurants",
"Asia Bistro","195","195 W Central St","Natick","MA","(508) 653-8898","42.282612","-71.383003","Restaurants",
"Lucky Star Chinese Restaurant","11","11 Sylvia Ct","Hyde Park","MA","(781) 395-0304","42.256266","-71.14185","Restaurants",
"Cafe Sicilia","40","40 Main St","Gloucester","MA","(978) 283-7345","42.6121526","-70.6654262","Restaurants",
"Pho Da Lat Restaurant","1575","1575 Middlesex St","Lowell","MA","(978) 275-0022","42.6367059","-71.348347","Restaurants",
"New Great Taste Restaurant","24","24 Gorham St","Lowell","MA","(978) 937-8890","42.64155","-71.308501","Restaurants",
"Great Wok Restaurants","1284","1284 Massachusetts Ave","Dorchester","MA","(617) 288-1078","42.321027","-71.06171","Restaurants",
"China Mountain Restaurant Inc","39","39 Tyngsboro Rd","North Chelmsford","MA","(978) 251-8812","42.641757","-71.386679","Restaurants",
"Wah Sang Chinese Restaurant","60","60 Hilldale Ave","Haverhill","MA","(978) 521-0841","42.780109","-71.09132","Restaurants",
"Jade III","2","2 Market Sq","Amesbury","MA","(978) 388-0500","42.857703","-70.929822","Restaurants",
"Hunan Kitchen","799","799 S Main St Ste 7","Bellingham","MA","(508) 883-2088","42.051138","-71.484466","Restaurants",
"Mandarin Chef","34","34 Mechanic St","Foxboro","MA","(508) 698-3888","42.0673822","-71.2463439","Restaurants",
"Monevasia Donuts Inc","312","312 Maple St","Marlborough","MA","(508) 460-6281","42.336445","-71.541293","Restaurants",
"Pan Asian Restaurant","720","720 E Broadway","South Boston","MA","(617) 268-2821","42.3358042","-71.0363709","Restaurants",
"Golden Ginger","225","225 Main St","Wilmington","MA","(978) 988-3999","42.5557736","-71.1823557","Restaurants",
"Yummy House","343","343 Washington St","Stoughton","MA","(781) 344-1555","42.136765","-71.102615","Restaurants",
"Fusion House","301","301 Merrimack St Ste 2","Methuen","MA","(978) 686-8878","42.742485","-71.130578","Restaurants",
"Jade Garden","20","20 Tyler St","Boston","MA","(617) 423-3288","42.350693","-71.060566","Restaurants",
"Dinas Pizza","930","930 Hingham St","Rockland","MA","(781) 871-1100","42.160876","-70.903044","Restaurants",
"Golden Roll","470","470 Liberty St Ste 4","Hanson","MA","(781) 293-3522","42.0658409","-70.8696724","Restaurants",
"Cape Ann Coffees","86","86 Bass Ave","Gloucester","MA","(978) 282-1717","42.6178172","-70.641864","Restaurants",
"Happy Garden Chinese Restaurants","377","377 Washington St","Brighton","MA","(617) 787-0293","42.349216","-71.154369","Restaurants",
"Onion Town Grill","175","175 Water St","Danvers","MA","(978) 774-3343","42.543066","-70.920151","Restaurants",
"China Sail","28","28 Union St","Lynn","MA","(781) 599-2213","42.468427","-70.937752","Restaurants",
"Jade Gourmet","403","403 Lowell St","Wakefield","MA","(781) 245-1500","42.51696","-71.063383","Restaurants",
"Chen's Chinese","122","122 E Broadway","Derry","NH","(603) 437-8989","42.890556","-71.314679","Restaurants",
"Briannas Breakfast","100","100 Spring St Ste 3","Bridgewater","MA","(508) 279-6502","41.992819","-70.970718","Restaurants",
"Suppas Pizza","94","94 University Ave","Lowell","MA","(978) 970-3961","42.653841","-71.327339","Restaurants",
"Chens Kitchen","61","61 Mammoth Rd","Lowell","MA","(978) 441-0809","42.651219","-71.332937","Restaurants",
"Xin Garden Restaurant","134","134 Newton Rd Unit 2","Plaistow","NH","(603) 378-0778","42.833273","-71.05718","Restaurants",
"Changs House","1583","1583 Commonwealth Ave","Brighton","MA","(617) 787-5030","42.34429","-71.143063","Restaurants",
"Asian Garden Restaurant","28","28 Harrison Ave Ste 1","Boston","MA","(617) 695-1646","42.35192","-71.060978","Restaurants",
"Petes Dockside","12","12 Channel St Ste 104","Boston","MA","(617) 423-1110","42.345547","-71.036966","Restaurants",
"Simco's","1509","1509 Blue Hill Ave Ste B","Mattapan","MA","(617) 296-3800","42.2721708","-71.0938763","Restaurants",
"Casa Real","860","860 Dorchester Ave","Dorchester","MA","(617) 282-3135","42.321473","-71.0566429","Restaurants",
"Out of Asia Cafe & Grille","1268","1268 Broadway","Saugus","MA","(781) 231-3883","42.455061","-71.023344","Restaurants",
"Pub 97","935","935 Salem St","Groveland","MA","(978) 372-3320","42.734944","-71.0144","Restaurants",
"China Pearl","237","237 Quincy Ave","Quincy","MA","(617) 773-9838","42.24001","-70.990999","Restaurants",
"Dparma Restaurant","182","182 Sumner St","East Boston","MA","(617) 567-9671","42.369368","-71.04031","Restaurants",
"Tenichi","1400","1400 Worcester St Ste 5","Natick","MA","(508) 875-1888","42.298094","-71.392348","Restaurants",
"Wok & Talk","23","23 S Huntington Ave","Jamaica Plain","MA","(617) 487-8262","42.331341","-71.112063","Restaurants",
"Bocellis Restaurant & Pizzeria","374","374 Main St","Medford","MA","(781) 396-7070","42.405504","-71.10788","Restaurants",
"Chung King Rick's Cafe","446","446 Boston Rd Ste 2","Billerica","MA","(978) 262-9922","42.559087","-71.266413","Restaurants",
"Lucky Fortune","129","129 Main St","Epping","NH","(603) 679-2588","43.037753","-71.072983","Restaurants",
"Fortune Corner","688","688 Salem St","Malden","MA","(781) 324-8880","42.433856","-71.045729","Restaurants",
"CK Shanghai","15","15 Washington St","Wellesley Hills","MA","(781) 237-7500","42.3253628","-71.2600521","Restaurants",
"Asian Garden","1186","1186 Main St","Haverhill","MA","(978) 521-9990","42.810006","-71.103488","Restaurants",
"Burlington Jade","271","271 Cambridge St Ste 2","Burlington","MA","(781) 272-9913","42.514852","-71.20547","Restaurants",
"Red Ginger","117","117 Great Rd Ste 3a","Stow","MA","(978) 897-9998","42.434679","-71.485855","Restaurants",
"Pine Garden Szechuan-Chinese Restaurant","85","85 Portsmouth Ave","Exeter","NH","(603) 778-3779","42.986050963863","-70.9362238459148","Restaurants",
"House of Fortune","2","2 Wilkens Dr Ste 200","Plainville","MA","(508) 699-8887","42.009563","-71.307042","Restaurants",
"Express Panda Chinese Restaurant","43","43 Legion Pkwy","Brockton","MA","(508) 588-1888","42.084321","-71.0209683","Restaurants",
"Hong Kong Cafe","888","888 South St","Roslindale","MA","(617) 323-8122","42.2885876","-71.1343188","Restaurants",
"Kantin","1095","1095 Commonwealth Ave Ste 201","Boston","MA","(617) 562-8388","42.352352895952","-71.124291103477","Restaurants",
"Dumpling Cafe Inc","697","697 Washington St","Boston","MA","(617) 338-8858","42.3512299","-71.0630418","Restaurants",
"Little Q Hot Pub & Szechuan House","196","196 Massachusetts Ave","Arlington","MA","(781) 488-3755","42.4054937","-71.1424023","Restaurants",
"Ritu Ki Rasoi","207","207 Cambridge St","Burlington","MA","(781) 229-8349","42.511055","-71.201399","Restaurants",
"Mai Pearl Chinese Restaurant","121","121 Main St","Foxboro","MA","(508) 698-2600","42.0742609","-71.258742","Restaurants",
"Chinese Scallion Pie","307","307 Revere St","Revere","MA","(781) 485-9282","42.418296","-70.9989874","Restaurants",
"Beneventos","111","111 Salem St Ste 1","Boston","MA","(617) 523-4111","42.364266","-71.055356","Restaurants",
"Formosa Taipei Restaurant","315","315 Marrett Rd","Lexington","MA","(781) 862-6198","42.435871","-71.235658","Restaurants",
"Irashai Sushi","8","8 Kneeland St","Boston","MA","(617) 350-6888","42.351035","-71.0626489","Restaurants",
"Chang Long","160","160 Plaistow Rd Ste 10","Plaistow","NH","(603) 974-2968","42.849469","-71.104816","Restaurants",
"Midori Chinese Japanese Bistro","32","32 Washington Sq","Gloucester","MA","(978) 282-1888","42.6126589","-70.6693629","Restaurants",
"Asiana Fusion","1","1 Waverley Ave","Watertown","MA","(617) 923-3874","42.370147","-71.191118","Restaurants",
"Happy Garden","57","57 Court St Ste 1","Plymouth","MA","(508) 747-2801","41.958533","-70.667432","Restaurants",
"Ying Dynasty 2","24","24 County Rd","Mattapoisett","MA","(774) 377-3893","41.662833","-70.814693","Restaurants",
"Pollo Royal Restaurant","529","529 Broadway","Revere","MA","(781) 284-6039","42.412265","-71.010462","Restaurants",
"China Star-Lowell","369","369 Broadway St","Lowell","MA","(978) 454-7578","42.644013","-71.3214239","Restaurants",
"Dim Sum Restaurant","62","62 Crystal Ave","Derry","NH","(603) 434-0314","42.890477","-71.32727","Restaurants",
"Peach Farm Restaurant","4","4 Tyler St Ste 1","Boston","MA","(617) 482-1116","42.351149","-71.060401","Restaurants",
"Chinese Restaurant","701","701 S Main St","Haverhill","MA","(978) 373-8880","42.7589169","-71.097151","Restaurants",
"Maguro House","29","29 E Central St","Franklin","MA","(508) 520-8899","42.082495","-71.395929","Restaurants",
"Great Taste Bakery & Restaurant","61","61 Beach St","Boston","MA","(617) 426-8899","42.351147","-71.060247","Restaurants",
"Piezonis","25","25 Taunton St Unit 2","Plainville","MA","(508) 809-3513","42.013577","-71.305507","Restaurants",
"Fish Market","170","170 Brighton Ave","Allston","MA","(617) 783-1268","42.3529196","-71.1329823","Restaurants",
"O BS Cafe","74","74 Billings Rd","Quincy","MA","(617) 472-2777","42.2743379","-71.0242349","Restaurants",
"Tri City Wings & Grill","197","197 North St","Newtonville","MA","(617) 244-8220","42.365626","-71.217912","Restaurants",
"Yummee Chinese Restaurant","665","665 Tremont St","Boston","MA","(617) 267-0488","42.341951","-71.075871","Restaurants",
"Dicaras Deli Inc","1349","1349 Main St","Reading","MA","(781) 944-4400","42.5550244","-71.1046469","Restaurants",
"Best Bar-B-Que Kitchen Inc","86","86 Beach St","Boston","MA","(617) 399-0285","42.351089","-71.058814","Restaurants",
"China Jade","195","195 Newport Ave Ste 3","Quincy","MA","(617) 328-0999","42.269066","-71.0239299","Restaurants",
"King Garden","220","220 Winter St Ste 2","Bridgewater","MA","(508) 279-9988","41.968227","-70.974138","Restaurants",
"House of Chang","282","282 Concord Ave","Cambridge","MA","(617) 547-9888","42.38354","-71.133708","Restaurants",
"Panda Wok of Townsend","18","18 Main St Ste R7","Townsend","MA","(978) 597-1388","42.6487634","-71.6609355","Restaurants",
"New York Fried Chicken","1179","1179 N Main St","Randolph","MA","(781) 986-2323","42.195707","-71.060615","Restaurants",
"New Hong Kong Village Restaurant","455","455 High St","Medford","MA","(781) 391-6638","42.421232","-71.131705","Restaurants",
"Lucky Garden","522","522 Shirley St","Winthrop","MA","(617) 846-8560","42.3717015","-70.9701522","Restaurants",
"Ocean Garden","1","1 Maplewood Ave","Gloucester","MA","(978) 283-9668","42.6155176","-70.6640315","Restaurants",
"Quans Kitchen","427","427 Washington St","Weymouth","MA","(781) 337-7826","42.209006","-70.958718","Restaurants",
"Sei Bar","182","182 Main St","Medford","MA","(781) 391-4363","42.41298","-71.1105442596294","Restaurants",
"Hua Xia Chinese Restaurant","354","354 Ferry St","Everett","MA","(781) 350-6352","42.4153789","-71.0487826","Restaurants",
"Lamberts Marketplace","140","140 Tremont St","Boston","MA","(617) 338-6500","42.355656","-71.062556","Restaurants",
"Hong Kong Taste","501","501 Mammoth Rd Ste 2","Londonderry","NH","(603) 434-8228","42.9147787","-71.3967559","Restaurants",
"Number One Taste Chinese Restaurant","382","382 Trapelo Rd","Belmont","MA","(617) 489-9577","42.385629","-71.184853","Restaurants",
"Imperial Buffet","138","138 Boston St","Lynn","MA","(781) 593-9668","42.4734699","-70.9570255","Restaurants",
"Sunny Da Restaurant Inc","454","454 Chelmsford St","Lowell","MA","(978) 453-2073","42.627512","-71.321839","Restaurants",
"Peter Woos","374","374 Broadway","Revere","MA","(781) 289-5664","42.409829","-71.012566","Restaurants",
"China One","65","65 Route 27 Unit 2","Raymond","NH","(603) 895-1222","43.040166","-71.166523","Restaurants",
"China Connection","205","205 Sumner St","Norwood","MA","(781) 255-5503","42.1618061","-71.19722","Restaurants",
"China Is Mine Inc","10","10 Hilltop Ave","Lexington","MA","(781) 860-5120","42.433111","-71.231697","Restaurants",
"China Taste","197","197 Boston Post Rd W Ste A","Marlborough","MA","(508) 229-2882","42.3391594","-71.5905116","Restaurants",
"Happy Family China Restaurant","928","928 Hingham St","Rockland","MA","(781) 871-0504","42.1607551","-70.9030061","Restaurants",
"Hong Kong at Harvard Square","1238","1238 Massachusetts Ave","Cambridge","MA","(617) 864-5311","42.372355","-71.1160514","Restaurants",
"Hong Kong Restaurant","6","6 Winchester Plz","Newton Highlands","MA","(617) 244-1946","42.308501","-71.20766","Restaurants",
"Imperial Garden","439","439 Main St","Farmington","NH","(603) 755-9009","43.3895851","-71.0646286","Restaurants",
"Golden House","35","35 Central Ave","Chelsea","MA","(617) 884-2999","42.389859","-71.034178","Restaurants",
"Fuse Bistro","45","45 Palmer St","Lowell","MA","(978) 323-0424","42.644961","-71.3109506","Restaurants",
"Asian Village","17","17 Pine St Ste 1","Norfolk","MA","(774) 847-9730","42.0908734","-71.2966088","Restaurants",
"China Eatery Inc","34","34 Brockton Ave","Abington","MA","(781) 878-2221","42.105679","-70.947683","Restaurants",
"China Restaurant & Sports Bar","681","681 Hancock St","Quincy","MA","(617) 786-8890","42.2674092","-71.0158755","Restaurants",
"Hong Kong Cafe","12","12 Maple St","Danvers","MA","(978) 739-9188","42.5657264","-70.9361609","Restaurants",
"Charlottes Cozy & Kitchen","142","142 Main St","Pepperell","MA","(978) 433-2693","42.6662629","-71.5746195","Restaurants",
"Jings Garden","459","459 Washington St","Holliston","MA","(508) 429-7688","42.210396","-71.427102","Restaurants",
"Mandarin Tokyo","43","43 Careswell St","Marshfield","MA","(781) 837-4440","42.0832593","-70.6515864","Restaurants",
"Blue Fuji","38","38 Salem St","Medford","MA","(781) 388-1888","42.418674","-71.108299","Restaurants",
"Locale","352","352 Hanover St","Boston","MA","(857) 277-0466","42.365116","-71.053385","Restaurants",
"Bernards Restaurant","55","55 Boylston St","Brookline","MA","(617) 738-3388","42.3315478","-71.1191653","Restaurants",
"Theos Cozy Corner Restaurant","162","162 Salem St Ste 1","Boston","MA","(857) 277-1619","42.366083","-71.055108","Restaurants",
"Ginger Gourmet","265","265 Main St Ste 2","North Reading","MA","(978) 664-3333","42.592605","-71.116506","Restaurants",
"Dim Sum Cafe","679","679 Fellsway W","Medford","MA","(781) 396-2888","42.432931","-71.100912","Restaurants",
"Golden Leaf Restaurant","259","259 Main St","Hampstead","NH","(603) 378-9199","42.88698","-71.196298","Restaurants",
"Hong Kong Express","801","801 Islington St Ste 15","Portsmouth","NH","(603) 433-1616","43.068983","-70.772991","Restaurants",
"Tiki In","30","30 Mount Auburn St","Watertown","MA","(617) 923-2250","42.365876","-71.1835849","Restaurants",
"China Rainbow","36","36 N Beacon St","Watertown","MA","(617) 926-5170","42.364696","-71.180684","Restaurants",
"3 Fortunes Restaurant","177","177 Willow St","Waltham","MA","(781) 899-4024","42.3712436231276","-71.2205365978298","Restaurants",
"Cherry Blossom","80","80 Union St","Ashland","MA","(508) 881-8222","42.258258","-71.455077","Restaurants",
"Little Asia","991","991 Bennington St","East Boston","MA","(617) 569-8888","42.386397","-71.00703","Restaurants",
"Chinese Dragon Restaurant","380","380 Chelsea St","East Boston","MA","(617) 569-0300","42.3793232","-71.0280671","Restaurants",
"Chinatown Express Restaurant","79","79 River St","Mattapan","MA","(617) 298-1850","42.271419","-71.074033","Restaurants",
"China Sky Restaurant","784","784 Adams St","Dorchester Center","MA","(617) 282-4790","42.28302","-71.055624","Restaurants",
"Sunrise Chinese Food","1031","1031 Tremont St","Roxbury Crossing","MA","(617) 427-8068","42.336756","-71.085447","Restaurants",
"Wai Wai","99","99 Harrison Ave","Boston","MA","(617) 338-3178","42.350808","-71.061632","Restaurants",
"Wings Kitchen","13A","13a Hudson St","Boston","MA","(617) 338-2218","42.350953077777","-71.0601862298214","Restaurants",
"New Jumbo Seafood Restaurant","5","5 Hudson St","Boston","MA","(617) 542-2823","42.350937","-71.060198","Restaurants",
"Hong Kong","65","65 Chatham St","Boston","MA","(617) 227-2226","42.359564","-71.054111","Restaurants",
"I Yit Ho Restaurant","4","4 Lake St Ste 4","Peabody","MA","(978) 535-5095","42.548786","-71.0059985","Restaurants",
"Absolutely Asia","864","864 Main St","Waltham","MA","(781) 891-1700","42.376062","-71.24554","Restaurants",
"Dragon Star Chinese Restaurant","700","700 Washington St","Brookline","MA","(617) 277-4888","42.338883","-71.134823","Restaurants",
"Red Tea Garden","204","204 S Meadow Rd Ste D","Plymouth","MA","(508) 830-1888","41.915689","-70.726765","Restaurants",
"New China","317","317 Court St","Plymouth","MA","(508) 747-3040","41.9743889","-70.684051","Restaurants",
"Golden Corner","558","558 N Main St","Brockton","MA","(508) 580-8611","42.0969957","-71.0197118","Restaurants",
"Golden House Chinese Restaurant","204","204 Ferry St","Everett","MA","(617) 387-2800","42.411057","-71.04584","Restaurants",
"Sun Kong Restaurant","275","275 Eastern Ave","Malden","MA","(781) 388-9900","42.426083","-71.06082","Restaurants",
"Panda Castle","20","20 Lebanon St","Malden","MA","(781) 322-3233","42.4339469","-71.0462836","Restaurants",
"Thai Star Corporation","396","396 Old Farm Rd","Franklin","MA","(508) 520-7570","42.100599","-71.384825","Restaurants",
"Lucky 68","66","66 Billings Rd","Quincy","MA","(617) 847-3958","42.274349","-71.024538","Restaurants",
"Cathay Center Restaurant","211","211 Bridge St","North Weymouth","MA","(781) 337-1856","42.24239","-70.956826","Restaurants",
"Tiki Kye","2","2 Montello St Ste 8","Carver","MA","(508) 866-7733","41.9283241","-70.8100015","Restaurants",
"Lake East Restaurant","240","240 Lakeview Ave Ste 3","Tyngsboro","MA","(978) 649-2250","42.683927","-71.382949","Restaurants",
"Empire Hunan","87","87 Church St","Lowell","MA","(978) 458-8290","42.6413328674084","-71.3066204391059","Restaurants",
"China Buffet","436","436 Broadway Ste 10","Methuen","MA","(978) 685-9688","42.736113","-71.196173","Restaurants",
"Tea Garden Restaurant","904","904 Salem St","Groveland","MA","(978) 374-1990","42.739242","-71.021099","Restaurants",
"China Maxim","1734","1734 Lakeview Ave Ste 27","Dracut","MA","(978) 957-2685","42.678376","-71.342202","Restaurants",
"Dynasty Chinese Restaurant","77","77 Main St Ste 7","Hopkinton","MA","(508) 435-8088","42.227709","-71.524076","Restaurants",
"Yong Yong Chinese Restaurant","108","108 Ferry St","Malden","MA","(781) 322-8886","42.4250402","-71.0647765","Restaurants",
"Heidi's Restaurant","723","723 Moody St","Waltham","MA","(781) 891-5827","42.363978","-71.238949","Restaurants",
"Peking House","160","160 Dudley St","Roxbury","MA","(617) 442-9215","42.3287516315982","-71.0828891588173","Restaurants",
"Best Little Restaurant","13","13 Hudson St Ste A","Boston","MA","(617) 338-4988","42.350797","-71.060204","Restaurants",
"Pink Bamboo Hotpot Cafe","128","128 Penhallow St","Portsmouth","NH","(603) 319-8809","43.0780918","-70.7571522","Restaurants",
"Young Kong Restaurant","300","300 Centre St","Jamaica Plain","MA","(617) 522-8922","42.322758","-71.103057","Restaurants",
"Zoe's Chinese Restaurant","296","296 Beacon St","Somerville","MA","(617) 864-6265","42.383548","-71.113178","Restaurants",
"Good Taste Asian Cuisine","42","42 Central St","Ipswich","MA","(978) 356-8881","42.680763","-70.839208","Restaurants",
"China Station","532","532 Washington St","Dorchester Center","MA","(617) 265-8688","42.292947","-71.07164","Restaurants",
"Kume Japanese Steak House & Hibachi","24","24 Calef Hwy","Epping","NH","(603) 679-8882","43.0235214","-71.0772328","Restaurants",
"Kyota Chinese Restaurant","773","773 Washington St","Stoughton","MA","(781) 297-9988","42.12467","-71.102214","Restaurants",
"Thai Reflexology and Spa","220","220 W Squantum St","Quincy","MA","(617) 405-4013","42.2697709355677","-71.0340680566228","Restaurants",
"Gormet China House","55","55 Beach St","Boston","MA","(617) 292-9989","42.3512666","-71.0606817","Restaurants",
"Pan Thai Restaurant","15","15 Main St","Hopkinton","MA","(508) 497-9919","42.228756","-71.520081","Restaurants",
"Back Bay Sandwich","31","31 Saint James Ave Ste L20","Boston","MA","(617) 451-1561","42.3508845","-71.0718857","Restaurants",
"Chili Square","666","666 Hancock St","Quincy","MA","(617) 472-8888","42.2678315","-71.015969","Restaurants",
"Jasmine Garden","226","226 Washington St","Gloucester","MA","(978) 283-8188","42.620976","-70.6762145","Restaurants",
"Shaanxi Gourmet","259","259 Worcester St","Natick","MA","(508) 653-8000","42.3027332960798","-71.336309256892","Restaurants",
"Cao's Kitchen","180","180 Oak St","Brockton","MA","(508) 584-6826","42.101428","-71.031494","Restaurants",
"Jade Lee Kitchen","258","258 N Main St","Brockton","MA","(508) 584-4666","42.090805","-71.019484794037","Restaurants",
"Wah Sing Chinese & Polynesian Cuisine","285","285 E Central St","Franklin","MA","(508) 528-8178","42.0804282938523","-71.38411759625","Restaurants",
"East Side Restaurant","39","39 Main St","Millis","MA","(508) 376-2843","42.1802926","-71.3247595","Restaurants",
"Karma Japanese & Chinese Fusion Cuisine","209","209 N Main St","Andover","MA","(978) 809-3075","42.665481","-71.144194","Restaurants",
"Ginger Court","344","344 Great Rd","Acton","MA","(978) 264-3100","42.502455","-71.420494","Restaurants",
"Bamboo Moon","41","41 N Main St","Randolph","MA","(781) 986-2622","42.163672","-71.041864","Restaurants",
"New Jang Su BBQ","260","260 Cambridge St","Burlington","MA","(781) 272-3787","42.514249","-71.202747","Restaurants",
"Sichuan Gourmet","91","91 Middlesex Tpke","Burlington","MA","(781) 221-7288","42.4850832","-71.2189555","Restaurants",
"No 1 Food","49","49 Warren St","Roxbury","MA","(617) 442-8958","42.328874","-71.083146","Restaurants",
"Su Su Gourmet","70","70 Tyler St","Boston","MA","(617) 338-7388","42.3492654","-71.0612097","Restaurants",
"Silk Road Bistro","150","150 Main St","Marlborough","MA","(508) 630-8946","42.346574","-71.54838","Restaurants",
"Red Moon Chinese Restaurant","1299","1299 River St","Hyde Park","MA","(617) 361-1788","42.255865","-71.124927","Restaurants",
"Naco Taco","297","297 Massachusetts Ave","Cambridge","MA","(617) 945-1548","42.3624718","-71.0980722","Restaurants",
"Mandarin Malden","74","74 Pleasant St","Malden","MA","(781) 324-1148","42.4266715","-71.0693551","Restaurants",
"Happy Kitchen","56","56 Revere St","Winthrop","MA","(617) 207-1906","42.3825526551187","-70.9804530253515","Restaurants",
"China Sky","24","24 North St","Medfield","MA","(508) 242-9688","42.186907","-71.306515","Restaurants",
"Saga Hibachi Steak House","295","295 Patriot Pl","Foxboro","MA","(508) 698-1888","42.091026","-71.2679407","Restaurants",
"Boston Bagel Co","753","753 E Broadway","South Boston","MA","(857) 496-4168","42.3354535","-71.0352284","Restaurants",
"Chang Hai Restaurant","101","101 Broadway Rd","Dracut","MA","(978) 452-8818","42.6732904","-71.2940738","Restaurants",
"Yamoto II","545","545 Boylston St","Boston","MA","(857) 250-4473","42.350807","-71.075887","Restaurants",
"Dumpling Palace","179","179 Massachusetts Ave","Boston","MA","(617) 266-8888","42.345709","-71.087308","Restaurants",
"Purple Bamboo","265","265 Boston Rd Ste 1","North Billerica","MA","(978) 294-8994","42.5758864","-71.2839457","Restaurants",
"Burtons Grille","43","43 Middlesex Tpke Ste 6","Burlington","MA","(781) 221-2281","42.471412","-71.209482","Restaurants",
"Dumpling House of Newton Inc","870","870 Walnut St","Newton Center","MA","(617) 969-2800","42.331449","-71.206845","Restaurants",
"Ming Seafood Restaurant","19","19 Pleasant St","Malden","MA","(781) 321-3888","42.4268056","-71.0677326","Restaurants",
"Chinese Mirch","251","251 Massachusetts Ave","Boston","MA","(857) 350-4305","42.3452473","-71.0871311","Restaurants",
"Shoyu Restaurant","124","124 Broadway","Saugus","MA","(781) 233-2888","42.493348","-71.0154556","Restaurants",
"Jade Chinese Restaurant","12","12 Broad St","Hudson","MA","(978) 567-7997","42.3907074","-71.5639176","Restaurants",
"Golden Star Chinese Restaurant","1495","1495 Dorchester Ave","Dorchester","MA","(617) 288-1688","42.29968","-71.060521","Restaurants",
"Kashin Garden Restaurant","10","10 Dinley St","Dracut","MA","(978) 957-5588","42.6666012","-71.3224786","Restaurants",
"Sweet Ginger","184","184 Cambridge St","Burlington","MA","(781) 272-5885","42.511686","-71.200783","Restaurants",
"Lus Kitchen","83","83 Parkhurst Rd Unit 11","Chelmsford","MA","(978) 453-2873","42.624917","-71.359218","Restaurants",
"East Sakura Buffet","400","400 Highland Ave Ste 9","Salem","MA","(978) 740-0306","42.495598","-70.933267","Restaurants",
"Chow n Joy","626","626 Somerville Ave","Somerville","MA","(617) 623-4378","42.3838441","-71.1109394","Restaurants",
"Beijing Tokyo","781","781 Main St","Cambridge","MA","(617) 354-3388","42.3634136","-71.0968574","Restaurants",
"Wais Style","99","99 Harrison Ave","Boston","MA","(617) 338-3178","42.350808","-71.061632","Restaurants",
"Gourmet Garden","48","48 Whiting St","Hingham","MA","(781) 740-0688","42.175496","-70.888844","Restaurants",
"Nagoya","793","793 Crescent St Ste 3","Brockton","MA","(508) 588-8388","42.0812875","-70.9868526","Restaurants",
"S & I Asain Food","70","70 Broad St","Bridgewater","MA","(508) 807-4289","41.992103","-70.97556","Restaurants",
"Street Food Revolution","48","48 Harvard Ave","Allston","MA","(617) 903-4477","42.3545749","-71.132312","Restaurants",
"Ming Dynasty","752","752 Plain St","Marshfield","MA","(781) 536-8833","42.106635","-70.747622","Restaurants",
"Shabu Lee","654","654 Washington St","Norwood","MA","(781) 769-0520","42.1932199","-71.201093","Restaurants",
"Muffin House Cafe Inc","116","116 Main St Ste 203","Medway","MA","(508) 533-6655","42.1507497","-71.4173589","Restaurants",
"Yama Fuji Restaurant","74","74 Main St Unit 8","Medway","MA","(508) 321-1689","42.1515252","-71.412044","Restaurants",
"Wok N Talk","525","525 Washington St","Brighton","MA","(617) 903-3630","42.349248","-71.162846","Restaurants",
"Shanghai Fresh Restaurant","38","38 Edwin Rd","Waltham","MA","(617) 868-8877","42.379392","-71.213906","Restaurants",
"Golden Pacific","27","27 Glen St","Stoughton","MA","(781) 805-8172","42.1310896","-71.1030984","Restaurants",
"Panda Express","100","100 Cambridgeside Pl","Cambridge","MA","(617) 494-1009","42.3684293","-71.0764537","Restaurants",
"Fali Inc","290","290 Main St","Malden","MA","(781) 480-3671","42.424383","-71.067976","Restaurants",
"China Star","1733","1733 Middlesex St","Lowell","MA","(978) 856-7780","42.6356038","-71.3537919","Restaurants",
"Lucky Dragon","318","318 Broadway","Lynn","MA","(781) 595-8008","42.4853394","-70.960216","Restaurants",
"Genes Chinese Flatbread Cafe","86","86 Bedford St","Boston","MA","(617) 482-1888","42.3534498","-71.0595927","Restaurants",
"Golden Taste Chinese Restaurant","14","14 Medford St","Arlington","MA","(781) 648-8828","42.41513","-71.151065","Restaurants",
"Cafe 51","51","51 Sawyer Rd","Waltham","MA","(781) 893-1268","42.360461","-71.25748","Restaurants",
"Hanto Restaurant","380","380 Union St","Ashland","MA","(508) 881-6568","42.255083","-71.465611","Restaurants",
"Sabzi","352","352 Massachusetts Ave","Arlington","MA","(781) 753-0150","42.411152","-71.1484462","Restaurants",
"Lucky House","72","72 Walnut St","Peabody","MA","(978) 532-8888","42.5263215","-70.9209445","Restaurants",
"China 1 Spa","93","93 Washington St","Weymouth","MA","(781) 682-9898","42.2184661","-70.9671583","Restaurants",
"Sumiao Hunan Kitchen","270","270 3rd St","Cambridge","MA","(617) 945-0907","42.3671652129552","-71.0813349934817","Restaurants",
"BESS'S CAFE","224","224 Cypress St","Brookline","MA","(617) 879-0993","42.327606","-71.124292","Restaurants",
"China House","654","654 Main St","Brockton","MA","(508) 588-9081","42.0722497","-71.0184796","Restaurants",
"Dr Htet Htet DMD","1613","1613 Central St","Stoughton","MA","(781) 341-0320","42.131129","-71.124756","Restaurants",
"Iron Kitchen","164","164 Brighton Ave","Allston","MA","(617) 202-5229","42.352964","-71.132896","Restaurants",
"Kings Restaurant","303","303 W Broadway","South Boston","MA","(617) 269-6090","42.338506","-71.050775","Restaurants",
"Dar Hee","411","411 Ferry St","Everett","MA","(617) 389-7099","42.417356","-71.04927","Restaurants",
"East Ocean Seafood Restaurant","25","25 Billings Rd # 21a","Quincy","MA","(617) 472-6868","42.2730914","-71.0257381","Restaurants",
"Hulun Beir Mongolian Food","7","7 Holland St","Somerville","MA","(617) 625-6666","42.3971305","-71.1228129","Restaurants",
"Dumpling Kitchen","217","217 Highland Ave","Somerville","MA","(617) 628-1128","42.390244","-71.107701","Restaurants",
"Village Cafe","220","220 Washington St","Brookline","MA","(617) 739-0008","42.3323139","-71.118694","Restaurants",
"Our Zone","1583","1583 Commonwealth Ave","Brighton","MA","(617) 789-3688","42.34429","-71.143063","Restaurants",
"Lucky Garden","773","773 Washington St","Stoughton","MA","(781) 297-9988","42.12467","-71.102214","Restaurants",
"chinawokmarshfield","2040","2040 Ocean St","Marshfield","MA","(781) 319-0500","42.092635","-70.71182","Restaurants",
"Tiki House","569","569 Moody St","Waltham","MA","(781) 899-3466","42.366479","-71.238117","Restaurants",
"Oriental Gourmet","41","41 N Main St","Randolph","MA","(781) 986-2622","42.163672","-71.041864","Restaurants",
"Fortune Palace","99","99 Main St","Essex","MA","(978) 768-3839","42.6310382","-70.7768615","Restaurants",
"Greater Boston Chinese Golden Age Center Inc","60","60 Joy St","Boston","MA","(617) 589-0901","42.3604573","-71.0652412","Restaurants",
"Woh Lun Chinese Food","172","172 Main St","Wareham","MA","(508) 295-3122","41.7572585","-70.7145234","Restaurants",
"Hong Kong Eatery","1510","1510 Hancock St","Quincy","MA","(617) 770-3330","42.2481382","-71.0012228","Restaurants",
"New Moon Garden","701","701 S Main St","Haverhill","MA","(978) 373-8882","42.7589169","-71.097151","Restaurants",
"Grassland BBQ","2","2 Tyler St","Boston","MA","(617) 423-3848","42.351213","-71.060374","Restaurants",
"Panda Express","166","166 Providence Hwy","Dedham","MA","(781) 251-0027","42.2612244993708","-71.1688565025752","Restaurants",
"Gourmet Dumpling House","52","52 Beach St","Boston","MA","(617) 338-6223","42.351518","-71.060653","Restaurants",
"China Jade Restaurant","44","44 Dodge St","Beverly","MA","(978) 922-3035","42.5756439","-70.8921042","Restaurants",
"Sabatinos Restaurant","330","330 Main St","Wakefield","MA","(781) 246-4444","42.505002","-71.071","Restaurants",
"King & I","145","145 Charles St Ste 1","Boston","MA","(617) 227-3320","42.360362","-71.070564","Restaurants",
"Kyoto Japanese Restaurant","1487","1487 Main St Ste 3","Tewksbury","MA","(978) 863-9889","42.599106","-71.221092","Restaurants",
"China Roma","258","258 Broadway","Revere","MA","(781) 289-2670","42.407596","-71.014174","Restaurants",
"Penang","685","685 Washington St","Boston","MA","(617) 451-6373","42.35137","-71.063061","Restaurants",
"Su-Changs Restaurant","373","373 Lowell St","Peabody","MA","(978) 531-3366","42.5372179","-70.9556889","Restaurants",
"Chinatown Cafe","262","262 Harrison Ave","Boston","MA","(617) 695-9888","42.3474868","-71.0625317","Restaurants",
"Billy Tse Restaurant","441","441 Revere St","Revere","MA","(781) 286-2882","42.4185092","-70.9940923","Restaurants",
"Dragon Bowl Restaurant","400","400 Brookline Ave","Boston","MA","(617) 232-8880","42.3386573","-71.1071912","Restaurants",
"Winsor Dim Sum Cafe","10","10 Tyler St","Boston","MA","(617) 338-1688","42.350978","-71.060463","Restaurants",
"Bamboo Express","15","15 N Main St","Bellingham","MA","(508) 966-3778","42.0892971","-71.4746837","Restaurants",
"Yummy Yummy Chinese Restaurant","16","16 Everett Ave Ste B","Chelsea","MA","(617) 889-3747","42.3909448","-71.038614","Restaurants",
"Mayflower Restaurant","11","11 Depot Sq","Ipswich","MA","(978) 356-9878","42.67891","-70.840275","Restaurants",
"Hot Pot Buffet Inc","70","70 Beach St Ste 1","Boston","MA","(617) 338-0808","42.351369","-71.05988","Restaurants",
"B & B Roast Beef","325","325 Bennett Hwy","Revere","MA","(781) 324-9784","42.4447775876162","-71.0252057630803","Restaurants",
"Franklin Cafe Cape Ann","118","118 Main St","Gloucester","MA","(978) 283-7888","42.6126723","-70.6635781","Restaurants",
"Mei Ling's","434","434 Salem St Ste A","Medford","MA","(781) 391-5411","42.422904","-71.091831","Restaurants",
"Canton House","1728","1728 Dorchester Ave","Dorchester Center","MA","(617) 282-1620","42.290978","-71.062655","Restaurants",
"Saigon Hut","28","28 Emerald St","Newton","MA","(617) 331-0293","42.3559841","-71.20126","Restaurants",
"Gourmet Garden","430","430 Paradise Rd","Swampscott","MA","(781) 599-1780","42.481221","-70.9037295","Restaurants",
"Hei-La Moon","88","88 Beach St","Boston","MA","(617) 338-8813","42.3513456","-71.0598228","Restaurants",
"Green Tea Chinese Restaurant","751","751 Lynnway","Lynn","MA","(781) 595-2100","42.449887","-70.964181","Restaurants",
"Aroma Joes Coffee","10","10 Andrews Rd","Somersworth","NH","(603) 841-3733","43.2341848","-70.8824043","Restaurants",
"PF Chang's","8","8 Park Plz","Boston","MA","(617) 573-0821","42.3513773","-71.0687412","Restaurants",
"Mei Wei Durham","7","7 Mill Rd Unit J","Durham","NH","(603) 397-3363","43.1335402939267","-70.9268572515481","Restaurants",
"Moon Villa Restaurant","19","19 Edinboro St","Boston","MA","(617) 423-2061","42.3519073","-71.0599012","Restaurants",
"Fu Restaurant Inc","399","399 High Plain St","Walpole","MA","(508) 668-8989","42.1405853","-71.2210307","Restaurants",
"Roccos Restaurant & Bar","193","193 Main St","Wilmington","MA","(978) 657-7361","42.558726","-71.182277","Restaurants",
"Chinese Spaghetti Factory Inc","83","83 Newmarket Sq","Boston","MA","(617) 445-7714","42.3290573","-71.0673612","Restaurants",
"Majestic Dragon","81","81 Turnpike Rd","Ipswich","MA","(978) 356-0706","42.687747","-70.916839","Restaurants",
"Omelette Factory","24","24 Schoosett St","Pembroke","MA","(781) 826-4811","42.1044876","-70.8016724","Restaurants",
"Imperial Garden","811","811 Washington St","Hanover","MA","(781) 826-3842","42.128241","-70.830585","Restaurants",
"Golden House Restaurant","129","129 S Broadway","Lawrence","MA","(978) 688-0220","42.6960522","-71.1632299","Restaurants",
"Royal East Restaurant","792","792 Main St","Cambridge","MA","(617) 661-1660","42.363076","-71.096908","Restaurants",
"Yang Ming","341","341 S Broadway Ste 6","Salem","NH","(603) 898-2888","42.753936","-71.207305","Restaurants",
"Mandarin Gourmet","1020","1020 W Roxbury Pkwy","Chestnut Hill","MA","(617) 325-6661","42.3040971439215","-71.1521394966734","Restaurants",
"Sichuan Garden II","2","2 Alfred St","Woburn","MA","(781) 935-8488","42.5022298","-71.1575021","Restaurants",
"Shun Kitchen","520","520 Columbus Ave Ste 1","Boston","MA","(617) 421-9405","42.341889","-71.079777","Restaurants",
"Lime Leaf Thai Cuisine","435","435 Columbian St","South Weymouth","MA","(339) 499-5350","42.180567","-70.969273","Restaurants",
"Hang Tai Chinese Cuisine","28","28 E Central St","Franklin","MA","(508) 520-8828","42.0821816","-71.3963959","Restaurants",
"China Plaza Restaurant","35","35 Market St","Rockland","MA","(781) 878-7183","42.1198332","-70.9163129","Restaurants",
"Royal Garden Restaurant","3","3 Tremont St","Kingston","MA","(781) 585-5506","42.0077438","-70.7297738","Restaurants",
"Teriyaki Yummy","16","16 Everett Ave","Chelsea","MA","(617) 889-3747","42.3909448","-71.038614","Restaurants",
"Rosie Cafe","10","10 Hurd St","Lowell","MA","(978) 458-6578","42.6429967027348","-71.3079552506978","Restaurants",
"Jin's Fine Asian Cuisine","329","329 Harvard St","Brookline","MA","(617) 487-8238","42.343807","-71.123578","Restaurants",
"Oriental Food Market","30","30 Market Sq","Lynn","MA","(781) 598-6132","42.4625199","-70.9636588","Restaurants",
"Shabu & Mein","148","148 1st St","Cambridge","MA","(617) 577-7888","42.3665407","-71.0773488","Restaurants",
"Tiki Buddha","10","10 Merchants Way","Middleboro","MA","(508) 947-3828","41.88282","-70.91356","Restaurants",
"China Gourmet","1583","1583 Worcester Rd","Framingham","MA","(508) 628-9227","42.297163","-71.47258","Restaurants",
"Panda Express","491","491 Riverside Ave","Medford","MA","(781) 321-8012","42.410151","-71.086508","Restaurants",
"China Star","31","31 Westford St","Lowell","MA","(978) 455-8257","42.6378849","-71.3175146","Restaurants",
"Ray's New Garden","40","40 Chestnut Pl","Needham","MA","(781) 449-1450","42.27569","-71.23866","Restaurants",
"China Wok","45","45 Storey Ave","Newburyport","MA","(978) 572-5980","42.8198746","-70.9050381","Restaurants",
"Feng Shui","1924","1924 Beacon St","Brighton","MA","(617) 383-5542","42.336455","-71.149569","Restaurants",
"Asian Delight","95","95 Old Colony Ave","Quincy","MA","(617) 285-6103","42.2631825332733","-71.016341964161","Restaurants",
"Panda Express","125","125 University Ave","Westwood","MA","(781) 329-0809","42.206869","-71.152979","Restaurants",
"Golden Restaurant","9","9 Highland Ave","Malden","MA","(781) 322-3708","42.4152129","-71.0784054","Restaurants",
"China Palace","101","101 S Main St","Rochester","NH","(603) 332-3655","43.300505","-70.972188","Restaurants",
"Annes Market of Medway","86","86 Main St","Medway","MA","(508) 533-8309","42.1511808","-71.4134863","Restaurants",
"Thailand Cafe","161","161 Massachusetts Ave","Arlington","MA","(781) 643-0296","42.4051403","-71.1411117","Restaurants",
"Tsangs Village Cafe","644","644 Washington St","Hanover","MA","(781) 826-0202","42.1241623","-70.8262203","Restaurants",
"Rice Valley Restaurant","821","821 Washington St","Newtonville","MA","(617) 558-7666","42.351935","-71.206669","Restaurants",
"Sun Dynasty","21","21 Memorial Dr","Plymouth","MA","(508) 746-7600","41.960721","-70.668383","Restaurants",
"Chang An Restaurant","10","10 Concord Xing Ste 1","Concord","MA","(978) 369-5288","42.455832","-71.357615","Restaurants",
"Hunan Wok","2290","2290 Main St","Tewksbury","MA","(978) 658-3500","42.580863","-71.19413","Restaurants",
"Wok","180","180 Worcester St","Wellesley Hills","MA","(781) 235-0238","42.31535","-71.244762","Restaurants",
"Waikiki House","682","682 Bedford St","Whitman","MA","(781) 447-3680","42.0796096","-70.948031","Restaurants",
"Mandarin Reading Restaurant","296","296 Salem St","Reading","MA","(781) 942-8200","42.526069","-71.0848369","Restaurants",
"Jades Restaurant LLC","4","4 Bourbon St","Peabody","MA","(978) 535-3000","42.5474876","-70.9788639","Restaurant Management",
"Orient Pearl","285","285 Calef Hwy Unit 3","Epping","NH","(603) 679-8666","43.04391","-71.060066","Restaurants",
"Yangtze Inn","266","266 S Main St","West Bridgewater","MA","(508) 583-9020","42.010463","-70.9978","Restaurants",
"Yees Village","350","350 Main St","Townsend","MA","(978) 597-3155","42.6719717","-71.7234489","Restaurants",
"Sushi Time Inc","7","7 Plaistow Rd Ste C","Plaistow","NH","(603) 382-8788","42.8171110623826","-71.1029479095527","Restaurants",
"L St Diner & Pizzeria","108","108 L St","South Boston","MA","(617) 268-1155","42.334047","-71.035114","Restaurants",
"Golden Palace","300","300 Washington St","Stoughton","MA","(781) 344-2827","42.137802","-71.101895","Restaurants",
"Venus Cafe","47","47 South Ave","Whitman","MA","(781) 447-0494","42.0806783","-70.935364","Restaurants",
"Lucky Corner Restaurant","1155","1155 Main St","Haverhill","MA","(978) 373-9905","42.809122","-71.102226","Restaurants",
"J Garden","59","59 Franklin St","Quincy","MA","(617) 770-9898","42.2420516","-71.0038083","Restaurants",
"Beijing Chinese Dining","1709","1709 Massachusetts Ave","Lexington","MA","(781) 862-2100","42.44733","-71.226486","Restaurants",
"Momo N Curry","431","431 Somerville Ave","Somerville","MA","(617) 764-1563","42.382074","-71.101867","Restaurants",
"Jings Garden II","16","16 N Meadows Rd","Medfield","MA","(508) 359-8272","42.1864335","-71.3111341","Restaurants",
"Wai Wai","26","26 Oxford St","Boston","MA","(617) 338-9833","42.351683","-71.060272","Restaurants",
"Asia Tasty","24","24 Main St","Plymouth","MA","(508) 747-7888","41.9563267","-70.6644562","Restaurants",
"Star Ocean","200","200 Washington St Ste 3","Hudson","MA","(978) 568-8532","42.3806192","-71.5672089","Restaurants",
"Chochos","1815","1815 Massachusetts Ave Ste P3","Cambridge","MA","(617) 868-4246","42.387132","-71.118795","Restaurants",
"Cranberry Cottage","246","246 Marion Rd","Wareham","MA","(774) 678-4593","41.753124","-70.733437","Restaurants",
"Zheng Garden Chinese Restaurant","847","847 Edgell Rd","Framingham","MA","(508) 877-8877","42.327187","-71.435305","Restaurants",
"Galante Restaurant","320","320 Village St","Medway","MA","(508) 533-4473","42.1408226","-71.4261652","Restaurants",
"Imperial China","413","413 Worcester Rd","Framingham","MA","(508) 872-3939","42.298399","-71.412213","Restaurants",
"Fairy Cafe","16","16 Brook St","Quincy","MA","(617) 773-8880","42.2659834","-71.0209338","Restaurants",
"Jo Jo Tai Pei","103","103 Brighton Ave","Allston","MA","(617) 254-8889","42.3530373","-71.1305212","Restaurants",
"Chins Garden Restaurant","106","106 Main St","Marlborough","MA","(508) 481-2822","42.346847","-71.546593","Restaurants",
"China Cuisine","235","235 Main St","North Reading","MA","(978) 276-1888","42.588969","-71.115622","Restaurants",
"Medway Lotus Restaurant","128","128 Milford St","Medway","MA","(508) 473-4600","42.146634","-71.4737897","Restaurants",
"Gourmet China Restaurant","23","23 Tyler St Ste 1","Boston","MA","(617) 482-9888","42.3507472","-71.0608983","Restaurants",
"China Rama","884","884 Washington St Ste F","Norwood","MA","(781) 762-5636","42.1869307","-71.2025902","Restaurants",
"Kihei Dynasty Restaurant","745","745 Main St","Walpole","MA","(508) 668-1720","42.153582","-71.2461757","Restaurants",
"Taam China Restaurant","423","423 Harvard St","Brookline","MA","(617) 264-7274","42.345703","-71.127259","Restaurants",
"Sunrise Cuisine","76","76 Middlesex Ave","Somerville","MA","(617) 623-2992","42.3936935","-71.083141","Restaurants",
"Guangzhou Restaurant","1220","1220 Cambridge St","Cambridge","MA","(617) 547-6368","42.373146","-71.097833","Restaurants",
"Great Mandarin","186","186 Cambridge Rd Ste 7","Woburn","MA","(781) 937-3911","42.468522","-71.178606","Restaurants",
"Kennedy's Pub Inc","247","247 Maple St Ste A","Marlborough","MA","(508) 485-5800","42.338699","-71.542359","Restaurants",
"Alices Mandarin Taste","37","37 Pond St","Sharon","MA","(781) 784-7377","42.12214","-71.178712","Restaurants",
"Mary Chung Restaurant","26","26 Landsdowne St Ste 175","Cambridge","MA","(617) 864-1991","42.3608102","-71.0987805","Restaurants",
"New Golden Gate Inc","66","66 Beach St","Boston","MA","(617) 338-7721","42.351403","-71.060047","Restaurants",
"Chinawok","5","5 Dodge St","Beverly","MA","(978) 524-8833","42.5725849","-70.892729","Restaurants",
"China Ruby Restaurant","42","42 Nason St","Maynard","MA","(978) 897-5945","42.433272","-71.453392","Restaurants",
"Jumbo Seafood of Newton Inc","10","10 Langley Rd Ste 101","Newton Center","MA","(617) 332-3600","42.33129","-71.193812","Restaurants",
"Wongs of Boston","11","11 Winter St","Boston","MA","(617) 482-9069","42.35579","-71.060965","Restaurants",
"Hawaiian Isle","4","4 Plaistow Rd","Plaistow","NH","(603) 382-4746","42.816135","-71.104639","Restaurants",
"Yen Ching Restaurant","347","347 Woburn St","Lexington","MA","(617) 547-1130","42.449814","-71.197659","Restaurants",
"Herreras Mexican Grill","11","11 Temple Pl","Boston","MA","(617) 426-2350","42.355198","-71.062486","Restaurants",
"Ocean Wok","7","7 Ocean Blvd","Hampton","NH","(603) 926-6633","42.900641","-70.815635","Restaurants",
"Orchid of Hawaii","201","201 Bedford St","Lakeville","MA","(508) 946-0088","41.8663833","-70.9529619","Restaurants",
"Jumbo House","400","400 Main St","Everett","MA","(617) 389-1570","42.414412","-71.0642669","Restaurants",
"8 & 8 Chinese Restaurant","654","654 Main St","Brockton","MA","(508) 588-9085","42.0722497","-71.0184796","Restaurants",
"Pacific Gold","211","211 Lowell St","Wilmington","MA","(978) 658-0080","42.539265","-71.148328","Restaurants",
"Heavn'ly","592","592 Merrimack Ave","Dracut","MA","(978) 710-7620","42.6590965","-71.2633613","Restaurants",
"Sichuan Palace Restaurant","7","7 Summer St Ste 17","Chelmsford","MA","(978) 256-8545","42.593962","-71.349044","Restaurants",
"Lees Kitchen","389","389 W Central St","Franklin","MA","(508) 520-1228","42.088317","-71.412915","Restaurants",
"Golden Abacus Restaurant","1275","1275 Boston Providence Tpke Ste 6","Norwood","MA","(781) 762-8114","42.169727","-71.1974035","Restaurants",
"Rice Bowl","154","154 Harvard Ave","Allston","MA","(617) 267-2828","42.3517347","-71.1314612","Restaurants",
"Szechuan Garden","106","106 Main St Unit B","Medway","MA","(508) 533-8888","42.151209","-71.415014","Restaurants",
"Golden Dragon","35","35 Pleasant St Ste 3119","South Weymouth","MA","(781) 337-8881","42.171212","-70.953695","Restaurants",
"Mandarin Cuisine","238","238 Highland Ave Ste 4","Needham Heights","MA","(781) 455-8801","42.30382","-71.220882","Restaurants",
"Asia Treasures","399","399 High Plain St","Walpole","MA","(508) 668-8989","42.1405853","-71.2210307","Restaurants",
"Panti Green Tea Restaurant","76","76 30th St","Londonderry","NH","(603) 881-4209","42.86547","-71.37427","Restaurants",
"Chinatown Restaurant","51","51 Oak St Ext","Brockton","MA","(508) 580-2885","42.0993002","-71.0638664","Restaurants",
"China Gourmet","146","146 Front St Ste 102","Scituate","MA","(781) 545-4888","42.195538","-70.724746","Restaurants",
"Hong Kong Cafe","1391","1391 Beacon St","Brookline","MA","(617) 232-3838","42.3411033","-71.1241126","Restaurants",
"Conrads Restaurant","728","728 Washington St","Norwood","MA","(781) 769-3883","42.1918223","-71.2016706","Restaurants",
"Torrettas Bakery & Ice Cream","652","652 Winthrop Ave","Revere","MA","(781) 289-8608","42.397429","-70.991623","Restaurants",
"Shanghai Village Restaurant","434","434 Massachusetts Ave","Arlington","MA","(781) 646-6897","42.414268","-71.151151","Restaurants",
"Crown Royal Bakery","23","23 Edinboro St","Boston","MA","(617) 338-8889","42.3518173","-71.0598812","Restaurants",
"New Garden Restaurant","40","40 Chestnut Pl","Needham","MA","(781) 449-1450","42.27569","-71.23866","Restaurants",
"Great Chef Chinese Food Day Square","390","390 Chelsea St","East Boston","MA","(617) 569-3100","42.379496","-71.027911","Restaurants",
"Taiwan Cafe","34","34 Oxford St","Boston","MA","(617) 426-8181","42.3514843","-71.0602103","Restaurants",
"Beijing House","456","456 Washington St","Norwell","MA","(781) 659-8188","42.1592119","-70.854301","Restaurants",
"China Villa of Middleton Inc","239","239 Maple St","Middleton","MA","(978) 777-4988","42.5959105","-70.9914621","Restaurants",
"Hong Kong Dragon","68","68 Woodside Ave","Winthrop","MA","(617) 539-0012","42.3741946","-70.986098","Restaurants",
"Chungs Asian Cuisine","731","731 Granite St","Braintree","MA","(781) 817-5592","42.204941","-71.023562","Restaurants",
"Fuhing Chinese Restaurant","157","157 Gale Ave","Haverhill","MA","(978) 469-9899","42.8004521","-71.0773578","Restaurants",
"Dracut House of Pizza","1067","1067 Lakeview Ave","Dracut","MA","(978) 957-4210","42.6642052","-71.3209806","Restaurants",
"Peking Garden of Andover","36","36 Park St","Andover","MA","(978) 749-9922","42.65715","-71.138636","Restaurants",
"Atina Asian Bistro","115","115 S Main St","West Bridgewater","MA","(774) 223-5800","42.0161755","-71.0024786","Restaurants",
"Mala Restaurant","129","129 Brighton Ave","Allston","MA","(617) 254-1839","42.353101","-71.131092","Restaurants",
"WOW BBQ Food Truck","2","2 Boylston St","Boston","MA","(508) 826-3192","42.352087","-71.063128","Restaurants",
"Hokkaido Restaurant","1250","1250 Osgood St","North Andover","MA","(978) 687-9888","42.718343","-71.113133","Restaurants",
"Spicepepper Garden","36","36 Great Rd","Acton","MA","(978) 429-8024","42.474185","-71.409503","Restaurants",
"Mandarin Danvers","139","139 Endicott St Ste B1","Danvers","MA","(978) 774-8588","42.551133","-70.933435","Restaurants",
"Sichuan Gourmet","271","271 Worcester Rd Ste 2","Framingham","MA","(508) 626-0248","42.298876","-71.405626","Restaurants",
"Salem Lowe","197","197 Fort Ave","Salem","MA","(978) 744-6132","42.53549","-70.868746","Restaurants",
"China King","755","755 Main St","Haverhill","MA","(978) 373-8883","42.797264","-71.088232","Restaurants",
"Panda Express","106","106 Providence Hwy","East Walpole","MA","(508) 850-9688","42.1563731","-71.2019467","Restaurants",
"New China","869","869 Harrison Ave","Boston","MA","(617) 445-9670","42.334417","-71.076102","Restaurants",
"Iron Wok","8","8 Park Plz","Boston","MA","(617) 742-2888","42.3513773","-71.0687412","Restaurants",
"Tasty Garden Restaurant","444","444 Broadway","Everett","MA","(617) 381-1988","42.407394","-71.055544","Restaurants",
"China Garden","256","256 Highland Ave","Malden","MA","(781) 322-9815","42.422127","-71.0804519","Restaurants",
"Bangkok Spice","76","76 Haven St","Reading","MA","(781) 942-4595","42.522768","-71.105896","Restaurants",
"Lilys Kitchen","54","54 River St","Waltham","MA","(781) 647-0300","42.3684","-71.217916","Restaurants",
"Mr Chan's Restaurant","534","534 Adams St","Milton","MA","(781) 221-7288","42.258377","-71.040909","Restaurants",
"My Sister & I Restaurant","42","42 Central Sq","Bridgewater","MA","(508) 697-9544","41.989197","-70.9757","Restaurants",
"Dragon Chef","511","511 Broadway","Everett","MA","(617) 387-7900","42.4089255","-71.0533465","Restaurants",
"Brothers Deli","41","41 Market St","Lynn","MA","(781) 581-3363","42.4632787","-70.9504047","Restaurants",
"Wild Blossom","301","301 Washington St","Westwood","MA","(781) 235-8886","42.2185083","-71.1886492","Restaurants",
"Meridian Food Market","121","121 Meridian St","East Boston","MA","(617) 567-9725","42.373244","-71.038774","Convenience Stores",
"Dragon Chef","4198","4198 Washington St","Roslindale","MA","(617) 782-6500","42.286828","-71.127364","Restaurants",
"New Dragon Star Restaurant","273","273 Broadway","Somerville","MA","(617) 666-3150","42.391567","-71.090922","Restaurants",
"Hudson Super Buffet","167","167 Broad St","Hudson","MA","(978) 568-9889","42.3814356","-71.5653733","Restaurants",
"Quincy Jade Restaurant","22","22 Cottage Ave","Quincy","MA","(617) 328-3808","42.248963","-71.001347","Restaurants",
"Peking Kitchens","1659","1659 Hancock St","Quincy","MA","(617) 328-8860","42.245448","-71.000517","Restaurants",
"Fen Yang House","40","40 Atlantic Ave Ste 4","Marblehead","MA","(781) 639-8386","42.498753","-70.855855","Restaurants",
"Changhai","321","321 Woburn St","Lexington","MA","(781) 861-8889","42.448575","-71.2012759","Restaurants",
"Ba Le Restaurant","1052","1052 Dorchester Ave","Dorchester","MA","(617) 265-7171","42.314779","-71.0566429","Restaurants",
"Cheng-Du Restaurant","657","657 Washington St","Stoughton","MA","(781) 341-9888","42.128153","-71.102432","Restaurants",
"New Hong Kong","14","14 Tremont St","Brighton","MA","(617) 783-3236","42.350405","-71.168631","Restaurants",
"Kim Lai Chinese Restaurant","599","599 Lafayette Rd Ste 12","Portsmouth","NH","(603) 430-0761","43.055101","-70.769166","Restaurants",
"Shunju Fine Chinese & Japanese","733","733 Turnpike St","North Andover","MA","(978) 681-1888","42.6609953","-71.1103063","Restaurants",
"China Star","107","107 Main St","Amesbury","MA","(978) 388-4384","42.8560113","-70.931804","Restaurants",
"Wah Sang Chinese Restaurant","457","457 Chelmsford St","Lowell","MA","(978) 934-9077","42.6275512","-71.3226402","Restaurants",
"Chief Wok Restaurant","224","224 N Broadway Ste C7","Salem","NH","(603) 898-6200","42.789606","-71.233706","Restaurants",
"Theos Restaurant","122","122 W Main St Apt 9","Georgetown","MA","(978) 352-6171","42.729586","-70.99737","Restaurants",
"Bagels Best","113","113 Chapel St","Needham","MA","(781) 433-0003","42.28085","-71.23702","Restaurants",
"Blue Orchid","927","927 High St","Westwood","MA","(781) 320-9688","42.2178187","-71.2253113","Restaurants",
"Mikeys Famous Roastbeef & Pizza","250","250 Elliott St","Beverly","MA","(978) 927-0092","42.5560509","-70.8912988","Restaurants",
"Le Petit Cafe","660","660 Middlesex St","Lowell","MA","(978) 459-5999","42.6381461","-71.3199249","Restaurants",
"Oriental Garden","436","436 Central Ave","Dover","NH","(603) 742-5611","43.1972229","-70.8743797","Restaurants",
"Brothers Deli & Restaurant","1638","1638 Blue Hill Ave","Mattapan","MA","(617) 298-5224","42.268309","-71.093449","Restaurants",
"Good Fortune Restaurant","2","2 Elm St","Salisbury","MA","(978) 462-0506","42.841576","-70.861091","Restaurants",
"Sichuan Garden Inc","295","295 Washington St","Brookline","MA","(617) 734-1870","42.33341","-71.119362","Restaurants",
"Asia Garden","8","8 Market St","Lynn","MA","(781) 581-5811","42.4642155","-70.9506751","Restaurants",
"Oyes Restaurant and Bar","26","26 Walkers Brook Dr","Reading","MA","(781) 944-6800","42.519958","-71.093767","Restaurants",
"Blue Orchid","925","925 High St","Westwood","MA","(781) 202-6522","42.2174588060706","-71.2251392222907","Restaurants",
"Evergreen Chinese Restaurant","105","105 S Union St","Lawrence","MA","(978) 689-9797","42.698778","-71.153784","Restaurants",
"Mei Sum Bakery Coffee Shop","40","40 Beach St","Boston","MA","(617) 357-4050","42.351688","-71.061869","Restaurants",
"Yi Soon Bakery","112","112 Brighton Ave","Allston","MA","(617) 254-3099","42.3526097","-71.1304721","Restaurants",
"Lucky Dragon","339","339 S Broadway","Salem","NH","(603) 898-8888","42.754448","-71.20776","Restaurants",
"Green Peapod","557","557 Mount Auburn St","Watertown","MA","(617) 926-8881","42.370158","-71.160255","Restaurants",
"Olgas Cafe","291","291 Silver St # 2","South Boston","MA","(617) 204-9808","42.335982","-71.047656","Restaurants",
"Chengs Wok","184","184 Cambridge St","Burlington","MA","(781) 272-5885","42.511686","-71.200783","Restaurants",
"Oriental Pearl","220","220 Washington St","Brookline","MA","(617) 739-0008","42.3323139","-71.118694","Restaurants",
"South Boston Chinese Restaurant","429","429 W Broadway","South Boston","MA","(617) 269-1970","42.336295","-71.047432","Restaurants",
"Asian Wok Express","324","324 Lafayette Rd","Hampton","NH","(603) 929-6688","42.936936","-70.8386699","Restaurants",
"Knotty Pine Restaurant","295","295 Auburn St","Auburndale","MA","(617) 527-9864","42.3468019","-71.2472161","Restaurants",
"Lilac House","34","34 Milliston Rd","Millis","MA","(508) 376-8868","42.1669513","-71.3541052","Restaurants",
"Eighty Eight Restaurant","17","17 Hobart St","Danvers","MA","(978) 774-5028","42.567252","-70.940105","Restaurants",
"Mee King Garden","33","33 Main St","Bridgewater","MA","(508) 279-1228","41.990928","-70.975955","Restaurants",
"Red House Restaurant","24","24 Union Sq","Somerville","MA","(617) 666-4300","42.3798364","-71.0967651","Restaurants",
"Fornax Bread Co Inc","27","27 Corinth St","Roslindale","MA","(617) 325-8852","42.2861458","-71.1299396","Restaurants",
"Pho & Spice Inc","457","457 Moody St","Waltham","MA","(781) 788-8899","42.368322","-71.237796","Restaurants",
"Eastern Pearl","2275","2275 Boston Providence Hwy","Walpole","MA","(508) 850-9988","42.105666513358","-71.2531424763536","Restaurants",
"Hulun Beir","326","326 Cambridge St","Boston","MA","(857) 233-2688","42.3609348","-71.0692189","Restaurants",
"Imperial Mandarin","165","165 Pleasant St","Marblehead","MA","(781) 639-1540","42.500585","-70.859246","Restaurants",
"Sabina's Wong's III Chinese","790","790 Water St","Framingham","MA","(508) 877-1912","42.3287194979485","-71.4348664653862","Restaurants",
"Canton Eatery","339","339 Meridian St","East Boston","MA","(617) 569-2078","42.378309","-71.038978","Restaurants",
"Ginger Tree","527","527 Groton Rd Ste 3","Westford","MA","(978) 589-5155","42.626056","-71.415454","Restaurants",
"Eighty Eight Cafe Inc","358","358 Washington St","Winchester","MA","(781) 756-1688","42.461002","-71.128198","Restaurants",
"North Street Grille","229","229 North St","Boston","MA","(617) 720-2010","42.363395","-71.052521","Restaurants",
"Beverly Jade Inc","277","277 Rantoul St","Beverly","MA","(978) 927-1109","42.5505054","-70.8829979","Restaurants",
"Ocean City","61","61 Diauto Dr","Randolph","MA","(781) 986-7200","42.164748","-71.045249","Restaurants",
"Shogun","1385","1385 Washington St","West Newton","MA","(617) 965-6699","42.348528","-71.229672","Restaurants",
"Asia Taste Restaurant","637","637 Lowell St Ste 6","Peabody","MA","(978) 536-2860","42.550477","-71.001841","Restaurants",
"Horizon Chinese Restaurant","6","6 Rogers St","Gloucester","MA","(978) 283-8815","42.6114035","-70.6657701","Restaurants",
"Asia Wok","44","44 Harvard Ave","Allston","MA","(617) 254-5445","42.354585","-71.132301","Restaurants",
"Mango II Thai Cuisine","2171","2171 Main St","Tewksbury","MA","(978) 988-9779","42.584018","-71.197507","Restaurants",
"Sichuans Garden","411","411 Waverley Oaks Rd Ste 109","Waltham","MA","(781) 899-9991","42.3864779","-71.20378","Restaurants",
"Dengs Garden Restaurant","225","225 Bedford St Ste 10","East Bridgewater","MA","(508) 378-3155","42.0266897","-70.9597823","Restaurants",
"China East","590","590 Rogers St","Lowell","MA","(978) 458-8838","42.631798","-71.28366","Restaurants",
"China Chef Restaurant","92","92 Torrey St Ste 4","Brockton","MA","(508) 583-8898","42.073613","-71.045647","Restaurants",
"Foxboro Mandarin","10","10 Foxboro Blvd Ste 180","Foxboro","MA","(508) 543-8988","42.0368769673855","-71.234819441824","Restaurants",
"Osaka Hibachi Restaurant","416","416 Emerson Ave Unit 3","Hampstead","NH","(603) 329-8038","42.890634","-71.149708","Restaurants",
"Golden China Restaurant","599","599 Washington St","Canton","MA","(781) 828-3236","42.1534502","-71.1454232","Restaurants",
"Renees Cafe","198","198 Holland St","Somerville","MA","(617) 623-2727","42.401612990394","-71.126634785501","Restaurants",
"Highlands China House","109","109 Highland St","Rochester","NH","(603) 332-1628","43.3261770992245","-70.9542559446527","Restaurants",
"King's Subs & Pizza","1","1 Beacon St","Lawrence","MA","(978) 687-1448","42.6902916093489","-71.1736088097343","Restaurants",
"Halin Restaurant Inc","64","64 Market Sq","Lynn","MA","(781) 581-2255","42.4621925","-70.9653855","Restaurants",
"Mandarin Cafe Inc","5","5 Wethersfield Rd","Natick","MA","(508) 651-8771","42.3020867404612","-71.3521801230785","Restaurants",
"Mandarin Buffett","1100","1100 Revere Beach Pkwy","Chelsea","MA","(617) 889-0056","42.402842","-71.025481","Restaurants",
"China Max","100","100 Independence Way Ste C3","Danvers","MA","(978) 739-4299","42.552383","-70.940218","Restaurants",
"Shanghai Chinese Restaurant","232","232 Tremont St","Boston","MA","(617) 338-8686","42.351258","-71.0647133","Restaurants",
"Sals Ristorante & Pizza","205","205 L St","South Boston","MA","(617) 268-5800","42.331404","-71.035398","Restaurants",
"Shing Yee Restaurant","1255","1255 Washington St","West Newton","MA","(617) 332-0888","42.3495","-71.225117","Restaurants",
"Asian Taste","207","207 Middlesex Ave","Medford","MA","(781) 393-9398","42.409799","-71.079542","Restaurants",
"Food Wall Chinese Restaurant","387","387 Centre St","Jamaica Plain","MA","(617) 524-6636","42.322281","-71.109565","Restaurants",
"Chilli Garden","41","41 Riverside Ave","Medford","MA","(781) 396-8488","42.417685","-71.108431","Restaurants",
"Mays Cafe Chinese Food","367","367 Main St","Medford","MA","(781) 396-8750","42.4054282188957","-71.1082467993222","Restaurants",
"Asia Wok","573","573 Main St","Waltham","MA","(781) 647-1675","42.376917","-71.233842","Restaurants",
"Sayde's Bar & Grill","136","136 Cluff Crossing Rd","Salem","NH","(603) 890-1032","42.761798","-71.224848","Restaurants",
"Fusion Express","191","191 Mechanic St Ste 11","Bellingham","MA","(508) 657-1198","42.081702","-71.455261","Restaurants",
"Oriental House","3704","3704 Washington St","Jamaica Plain","MA","(617) 983-1388","42.3003868","-71.1129416","Restaurants",
"Taste of India","55","55 Main St","Dover","NH","(603) 742-8306","43.197024","-70.8724296","Restaurants",
"Hing Shing Pastry Inc","67","67 Beach St","Boston","MA","(617) 451-1162","42.351099","-71.060036","Restaurants",
"Westwood Jade Restaurant","220","220 Providence Hwy","Westwood","MA","(781) 407-9229","42.218462","-71.180074","Restaurants",
"Bellingham House of Pizza","442","442 Hartford Ave","Bellingham","MA","(508) 966-1211","42.130957","-71.450286","Restaurants",
"Hong Kong Kitchen","9","9 Railroad Ave","Rockport","MA","(978) 546-2626","42.6552213","-70.6246482","Restaurants",
"Green Tea Chinese Restaurant","126","126 Newbury St","Peabody","MA","(978) 535-8300","42.53515528402","-70.9898897613181","Restaurants",
"Newcomb Farms Family Restaurant","31","31 Beale St","Quincy","MA","(617) 472-9641","42.267073","-71.017592","Restaurants",
"China Chopstick Co","148","148 Granite St Ste 1","Quincy","MA","(617) 471-9277","42.245205","-71.006147","Restaurants",
"China Delight","524","524 Somerville Ave","Somerville","MA","(617) 623-6161","42.383009","-71.10617","Restaurants",
"Rangzen Tibet Restaurant","24","24 Pearl St","Cambridge","MA","(617) 354-8881","42.364123","-71.102984","Restaurants",
"Capitol Diner","431","431 Union St","Lynn","MA","(781) 595-9314","42.463247","-70.944448","Restaurants",
"Oriental Chinese Restaurant","351","351 Main St","Woburn","MA","(781) 933-8687","42.4792911","-71.1515612","Restaurants",
"Thai Chili","40","40 Main St","Maynard","MA","(978) 897-2984","42.432335","-71.452058","Restaurants",
"Jade Three Restaurant","338","338 Ferry St","Everett","MA","(617) 944-9198","42.415224","-71.0486449","Restaurants",
"Chung-Shin Yuan Inc","183","183 California St","Newton","MA","(617) 964-0111","42.3648529","-71.195755","Restaurants",
"Dumpling Daughter","37","37 Center St","Weston","MA","(781) 216-8989","42.3670288999132","-71.3006466413505","Restaurants",
"Supreme BBQ","247","247 Eastern Ave","Malden","MA","(781) 605-3854","42.425926069106","-71.0612935715758","Restaurants",
"Changling Chow","3850","3850 Mystic Valley Pkwy","Medford","MA","(781) 391-1937","42.407058","-71.0920513","Restaurants",
"Shandong Dumpling House","950","950 Massachusetts Ave Ste 3","Cambridge","MA","(617) 661-8066","42.3685001","-71.1101382","Restaurants",
"Bao Nation","575","575 Massachusetts Ave","Cambridge","MA","(617) 547-0295","42.365029","-71.102372","Restaurants",
"China Garden","34","34 Manchester Rd Unit 2","Derry","NH","(603) 965-4481","42.89826","-71.335438","Restaurants",
"China Rose Asian Cuisine and Bar","15","15 E Plain St","Wayland","MA","(508) 975-4953","42.321089","-71.363756","Restaurants",
"Cilantro Chinese Cuisine","1105","1105 Massachusetts Ave","Cambridge","MA","(617) 945-1768","42.370762","-71.113425","Restaurants",
"Hot Eastern","42","42 Beach St","Boston","MA","(617) 717-9866","42.3516273","-71.0614212","Restaurants",
"Sarku Japan","1245","1245 Worcester St Ste 2014","Natick","MA","(508) 655-1866","42.3004711","-71.3857931","Restaurants",
"Master Wok","75","75 Middlesex Tpke Ste 2104","Burlington","MA","(609) 799-0308","42.482397","-71.2137453","Restaurants",
"Five Spices House","58","58 Beach St","Boston","MA","(617) 574-8888","42.351486","-71.060439","Restaurants",
"Saigon Tokyo","892","892 Central Ave","Dover","NH","(603) 750-4128","43.218467","-70.883935","Restaurants",
"Happy Garden","75","75 High St","Danvers","MA","(978) 750-8855","42.561145","-70.933821","Restaurants",
"Ying Dynasty of Wareham","265","265 Marion Rd","Wareham","MA","(774) 678-0492","41.751348","-70.735591","Restaurants",
"Jennys House","1247","1247 Hancock St","Quincy","MA","(617) 302-3633","42.2520086","-71.004409","Restaurants",
"Peking Garden","159","159 Winter St # 97","Haverhill","MA","(978) 373-6947","42.777946","-71.083105","Restaurants",
"Lavender Too","855","855 Worcester Rd","Framingham","MA","(508) 405-8888","42.3004362","-71.4319207","Restaurants",
"88 Fin","358","358 Washington St","Winchester","MA","(781) 756-8988","42.461002","-71.128198","Restaurants",
"Breadsong Bakery","349","349 Auburn St","Auburndale","MA","(617) 964-4004","42.3466611","-71.2482061","Restaurants",
"Green Bamboo Chinese Restaurant","14","14 Kearney Sq","Lowell","MA","(978) 458-9358","42.6455713","-71.3070505","Restaurants",
"Mei Garden Inc","954","954 Washington St","Braintree","MA","(781) 849-1760","42.2021385","-71.0054515","Restaurants",
"Chinawok","329","329 Main St","Wilmington","MA","(978) 658-9669","42.550327","-71.177128","Restaurants",
"China Jade","21","21 Fresh River Rd","Epping","NH","(603) 679-2335","43.030123","-71.071592","Restaurants",
"China Sky","27","27 Converse Pl","Winchester","MA","(781) 729-6899","42.452217","-71.136095","Restaurants",
"Chinatown Restaurant","1455","1455 Commercial St","East Weymouth","MA","(781) 335-4828","42.214797","-70.92276","Restaurants",
"Lee Chen Chinese Cuisine","230","230 Winthrop Ave","Lawrence","MA","(978) 689-9888","42.684904","-71.139354","Restaurants",
"Lucky Boston Chinese Restaurant Inc","3096","3096 Washington St","Roxbury","MA","(617) 445-8302","42.315063","-71.098767","Restaurants",
"China Garden","750","750 Washington Ave Ste 2","Revere","MA","(781) 286-6700","42.429675","-71.022947","Restaurants",
"Sky Dragon","115","115 S Main St","Haverhill","MA","(978) 374-9808","42.7704781","-71.0757177","Restaurants",
"Jade Garden","368","368 Broadway","Lawrence","MA","(978) 682-2188","42.711497","-71.174184","Restaurants",
"Tea Leaf","487","487 Moody St","Waltham","MA","(781) 891-1900","42.3680106","-71.2378162","Restaurants",
"Donnas Restaurant","980","980 Saratoga St","East Boston","MA","(617) 568-9314","42.387003","-71.007175","Restaurants",
"New Dragon Chef","679","679 Moody St","Waltham","MA","(781) 891-5510","42.364617070902","-71.2386981357226","Restaurants",
"Uncle Cheungs Restaurant","266","266 Worcester Rd","Framingham","MA","(508) 872-9200","42.298102","-71.40525","Restaurants",
"Lucky Garden","10","10 Haverhill St","Methuen","MA","(978) 681-9312","42.7042918902848","-71.1909256214731","Restaurants",
"Peking Garden","159","159 Main St","Hudson","MA","(978) 568-8545","42.391127","-71.5651018","Restaurants",
"Emmas Breakfast","858","858 Washington St","Dedham","MA","(617) 328-3337","42.233731","-71.183122","Restaurants",
"Szechuan Taste of Exeter","42","42 Water St Ste A","Exeter","NH","(603) 772-8888","42.98096","-70.945637","Restaurants",
"China Sails","3","3 E Grove St Ste A","Middleboro","MA","(508) 946-8888","41.8854295","-70.9169226","Restaurants",
"Happy Garden","80","80 Revere Beach Blvd","Revere","MA","(781) 289-8117","42.4066649","-70.991626","Restaurants",
"Greek Corner Restaurant","2366","2366 Massachusetts Ave","Cambridge","MA","(617) 661-5655","42.396356","-71.129574","Restaurants",
"Talk & Wok Cafe","1277","1277 River St","Hyde Park","MA","(617) 361-6888","42.2559694","-71.1242906","Restaurants",
"Little Italy","294","294 Cabot St","Beverly","MA","(978) 922-4704","42.551906","-70.8790841","Restaurants",
"Pad Thai","1","1 Portsmouth Ave","Exeter","NH","(603) 658-0130","42.980997","-70.941158","Restaurants",
"Main House","495","495 Main St Ste C","Groton","MA","(978) 448-6088","42.6202048","-71.5866722","Restaurants",
"Sushi Corner","18","18 Essex St Ste C","Melrose","MA","(781) 662-2349","42.456179","-71.065341","Restaurants",
"Chopsticks Express Chinese Restaurant","910","910 Andover St","Tewksbury","MA","(978) 863-9090","42.6461883","-71.2712078","Restaurants",
"Panda House","46","46 Main St","Marlborough","MA","(508) 481-9170","42.347084","-71.544392","Restaurants",
"Nicks Deli","750","750 Washington Ave Ste 4","Revere","MA","(781) 284-8421","42.429675","-71.022947","Restaurants",
"Cafe Asia","860","860 S Franklin St","Holbrook","MA","(781) 961-0008","42.1273497","-71.0100444","Restaurants",
"Mandarin House","633","633 Hyde Park Ave","Roslindale","MA","(617) 327-3131","42.278522","-71.1194809","Restaurants",
"Kikis Chinese Food","127","127 Boston St","Salem","MA","(978) 744-3777","42.521038","-70.914225","Restaurants",
"Lucky Honga","6","6 Boston St Ste A","Salem","MA","(978) 744-2510","42.518128","-70.905869","Restaurants",
"Harbor Pacific","239","239 Meridian St","East Boston","MA","(617) 567-1088","42.3757949","-71.038973","Restaurants",
"Hong Kong Harbor Restaurant","5","5 Maverick Sq","East Boston","MA","(617) 569-3855","42.368885","-71.039283","Restaurants",
"Brigham Circle Chinese Food","728","728 Huntington Ave","Boston","MA","(617) 278-2000","42.333809","-71.105122","Restaurants",
"Hong Kong Eatery","79","79 Harrison Ave","Boston","MA","(617) 423-0838","42.351013","-71.061619","Restaurants",
"Bangkok Cafe","10","10 Foxboro Blvd Ste 210","Foxboro","MA","(508) 543-8424","42.0368769673855","-71.234819441824","Restaurants",
"Dragon Island II Restaurant","44","44 Hamilton St","Saugus","MA","(781) 231-3170","42.465797","-71.006351","Restaurants",
"Mee King Garden","187","187 Crescent St","Brockton","MA","(508) 588-1311","42.080522","-71.014188","Restaurants",
"Charlie Chans Restaurant","1270","1270 Main St","Brockton","MA","(508) 559-1776","42.060383","-71.014037","Restaurants",
"Jade Chef","585","585 North St","East Weymouth","MA","(781) 337-2500","42.229171","-70.9440004","Restaurants",
"Hong Kong City","303","303 Main St","Stoneham","MA","(781) 279-0403","42.481708","-71.100543","Restaurants",
"Number One Taste","381","381 Franklin St","Melrose","MA","(781) 662-5777","42.4685672","-71.0668574","Restaurants",
"Alamo Roast Beef & Seafood","21","21 Salem St","Medford","MA","(781) 396-2434","42.418239","-71.108643","Restaurants",
"Tin Tin Buffet Restaurant","200","200 N Beacon St","Brighton","MA","(617) 254-7888","42.3556841","-71.1481815","Restaurants",
"West Garden","1890","1890 Centre St","West Roxbury","MA","(617) 469-2288","42.285486","-71.155741","Restaurants",
"Pu Pu Restaurant","2060","2060 Centre St","West Roxbury","MA","(617) 323-3526","42.279858","-71.158314","Restaurants",
"Blue Star Restaurant","11","11 Corinth St","Roslindale","MA","(617) 323-9638","42.286407","-71.130432","Restaurants",
"Golden House Restaurant","426","426 Chelmsford St Ste 1","Lowell","MA","(978) 937-1818","42.628283","-71.321358","Restaurants",
"Servizio","1","1 Wall St Ste 103","Burlington","MA","(781) 272-4100","42.486258","-71.189198","Restaurants",
"Wang's Fast Food","509","509 Broadway","Somerville","MA","(617) 623-2982","42.3977600953993","-71.1051912779856","Restaurants",
"Lobster Wok","10","10 Austin St","Newtonville","MA","(617) 527-1100","42.3503582","-71.2075089","Restaurants",
"Ming's Restaurant","12","12 Salem St Ste 6","Lynnfield","MA","(781) 213-1133","42.5121817","-71.0361772","Restaurants",
"Bobolas Family Restaurant","1420","1420 Lakeview Ave","Dracut","MA","(978) 957-0065","42.672485","-71.33217","Restaurants",
"Chinese Spaghetti Factory","73","73 Essex St","Boston","MA","(617) 542-0224","42.352333","-71.060445","Restaurants",
"Haverhill Jade","203","203 Winter St","Haverhill","MA","(978) 372-6233","42.7779277020634","-71.0850779581655","Restaurants",
"Lucky Dragon","21","21 Scammell St","Quincy","MA","(617) 479-7393","42.2430949","-70.994705","Restaurants",
"China Maxim III","241","241 Market St","Brighton","MA","(617) 783-5458","42.354648","-71.1504902","Restaurants",
"Chinawok","129","129 Main St","North Andover","MA","(978) 689-4495","42.702383","-71.130962","Restaurants",
"Imperial Jade Gardens Restaurant","39","39 Tuttle St","Wakefield","MA","(781) 246-4722","42.502578","-71.076211","Restaurants",
"Brookside Cafe","1260","1260 Washington St Ste 1","Norwood","MA","(781) 762-7399","42.1737905","-71.2078789","Restaurants",
"Daybreak Family Restaurant","337","337 W Center St","West Bridgewater","MA","(508) 583-5341","42.016824","-71.0280329","Restaurants",
"Petrillos Italian Kitchen","6","6 Foster St","Peabody","MA","(978) 977-5330","42.5253734","-70.9273253","Restaurants",
"Mai Place","323","323 Turnpike St Ste 4","Canton","MA","(781) 828-1200","42.1751172","-71.112743","Restaurants",
"Sugarcane Thai Korean & Chinese Cuisine","180","180 Winter St Unit A","Bridgewater","MA","(508) 697-2266","41.967881","-70.975016","Restaurants",
"Kouzina Estiatorio","557","557 High St","Dedham","MA","(781) 467-0090","42.248139","-71.172354","Restaurants",
"Sichuan Gourmet","502","502 Boston Rd Ste 3","Billerica","MA","(978) 670-7339","42.554319","-71.264172","Restaurants",
"Shanti Taste of India","1111","1111 Dorchester Ave","Dorchester","MA","(617) 929-3900","42.3126558","-71.0574847","Restaurants",
"Chung Wah Restaurant","460","460 Broadway","Chelsea","MA","(617) 884-8286","42.39269","-71.03465","Restaurants",
"Mandarin Chinese Restaurant","7","7 Union Sq","Somerville","MA","(617) 776-8680","42.37932","-71.095453","Restaurants",
"Qing Dao Garden Restaurant","2382","2382 Massachusetts Ave","Cambridge","MA","(617) 492-7540","42.396814","-71.1298769","Restaurants",
"Billys Sub Shop","57","57 Berkeley St","Boston","MA","(617) 426-1822","42.346587","-71.07051","Restaurants",
"Canton House Chinese Food","6","6 Hancock St","Dorchester","MA","(617) 288-3825","42.3156","-71.065922","Restaurants",
"Dalat Restaurant","475","475 Chelmsford St","Lowell","MA","(978) 453-3303","42.6270991","-71.3229439","Restaurants",
"Dahra Thai Cuisine","1","1 Man Mar Dr Unit 7","Plainville","MA","(508) 643-9300","42.008396","-71.30506","Restaurants",
"Oriental House Restaurant","560","560 Washington St","Dorchester Center","MA","(617) 282-9329","42.292062","-71.071504","Restaurants",
"New Market Grill & Pizza","850","850 Massachusetts Ave","Boston","MA","(617) 427-1444","42.3320881","-71.0710225","Restaurants",
"Coconut Thai Cafe","257","257 Washington St","Wellesley Hills","MA","(781) 235-8255","42.3134744","-71.273928","Restaurants",
"China Express","112","112 Main St Ste 10","Pepperell","MA","(978) 433-8395","42.665302","-71.578497","Restaurants",
"Hong Kong King","28","28 Norman St Ste 2","Salem","MA","(978) 740-8727","42.520195","-70.897265","Restaurants",
"Imperial Dragon Inc","2","2 Man Mar Dr Unit 1","Plainville","MA","(508) 699-6088","42.009029","-71.305707","Restaurants",
"Foody Goody Chinese Restaurant","101","101 Lakeview Ave","Lowell","MA","(978) 459-7535","42.650141","-71.305802","Restaurants",
"Tsangs Cafe","45","45 Depot St","Duxbury","MA","(781) 934-8222","42.0251475","-70.6830289","Restaurants",
"Three Gorges Chinese Food Cuisine","45","45 Nicholas Rd","Framingham","MA","(508) 788-0753","42.3274770604308","-71.4034889431481","Restaurants",
"Lis Asian Gourmet","4","4 Cobbetts Pond Rd Unit 5","Windham","NH","(603) 893-8858","42.792701","-71.305105","Restaurants",
"C&J Cuisine","183","183 S Main St","Randolph","MA","(781) 963-0661","42.156661","-71.044847","Restaurants",
"China House","331","331 Hanover St","Boston","MA","(617) 723-9888","42.364201","-71.053824","Restaurants",
"Peking Restaurant","650","650 Lafayette Rd","Hampton","NH","(603) 926-4868","42.946032","-70.833786","Restaurants",
"Hans Garden","114","114 Washington St","Haverhill","MA","(978) 521-3399","42.772692","-71.085534","Restaurants",
"Shangri-Ia","149","149 Belmont St","Belmont","MA","(617) 489-1488","42.375672","-71.156307","Restaurants",
"Chinawok","2040","2040 Ocean St","Marshfield","MA","(781) 319-0300","42.092635","-70.71182","Restaurants",
"Chinawok","99","99 Washington St","Pembroke","MA","(781) 829-6883","42.103011","-70.803254","Restaurants",
"China Buffet","199","199 Plain St","Lowell","MA","(978) 937-8868","42.623618","-71.31793","Restaurants",
"Longs Kitchen","1866","1866 Main St Ste 5","Tewksbury","MA","(978) 640-6822","42.5919453","-71.2067591","Restaurants",
"Chef Co Inc","152","152 Haverhill St","Methuen","MA","(978) 687-4088","42.7048363","-71.2005651","Restaurants",
"Saigon","18","18 Exchange St","Millis","MA","(508) 376-2414","42.1665848004866","-71.3612348431575","Restaurants",
"Hull Jade Restaurant","516","516 Nantasket Ave","Hull","MA","(781) 925-9125","42.282476","-70.873272","Restaurants",
"South China Gourmet","187","187 South Ave","Whitman","MA","(781) 447-6833","42.0808024473009","-70.9309110847682","Restaurants",
"China Yan","256","256 Central Ave","Dover","NH","(603) 740-0079","43.1928358","-70.873796","Restaurants",
"Suns Chinese Kitchen","90","90 Lowell St","Arlington","MA","(781) 648-3388","42.425619","-71.181444","Restaurants",
"Roses Restaurant","321","321 Boston Ave","Medford","MA","(781) 395-8885","42.411573","-71.122215","Restaurants",
"Demets Donuts","199","199 Mystic Ave","Medford","MA","(781) 395-8422","42.4080273","-71.1042682","Restaurants",
"Jay House Japanese & Chinese Restaurant","123","123 Nashua Rd Unit 6","Londonderry","NH","(603) 437-5600","42.8465909","-71.3602779","Restaurants",
"Thai Thani Restaurant","481 1/2","481 1/2 Washington St","Norwood","MA","(781) 255-7333","42.1969353","-71.1993658","Restaurants",
"Triple Eatery","77","77 Cummins Hwy","Roslindale","MA","(617) 325-3388","42.2844959","-71.1254177","Restaurants",
"Pepper Terrace Thai Cuisine","400","400 Franklin Village Dr","Franklin","MA","(508) 528-1216","42.0896535","-71.4249002","Restaurants",
"Victoria Seafood Restaurant","1029","1029 Commonwealth Ave","Boston","MA","(617) 783-5111","42.3521422","-71.1218081","Restaurants",
"Cafe Mami","1815","1815 Massachusetts Ave Ste M4","Cambridge","MA","(617) 547-9130","42.387132","-71.118795","Restaurants",
"China Chef","8","8 Mazzeo Dr","Randolph","MA","(781) 961-7788","42.165057","-71.056558","Restaurants",
"China Garden Restaurant","44","44 Harvard Ave","Allston","MA","(617) 782-6714","42.354585","-71.132301","Restaurants",
"China Gourmet Restaurant","30","30 Manomet Point Rd","Plymouth","MA","(508) 224-3001","41.917028","-70.555003","Restaurants",
"JP Kitchen","3510","3510 Washington St","Jamaica Plain","MA","(617) 524-6888","42.305829","-71.107854","Restaurants",
"Buddhas Tavern","144","144 Washington St","Peabody","MA","(978) 977-9300","42.5200447","-70.9315087","Restaurants",
"Stephys Kitchen","41","41 Beckford St","Beverly","MA","(978) 921-6393","42.558046","-70.881922","Restaurants",
"Andreas House of Pizza","197","197 Main St","North Reading","MA","(978) 664-5223","42.585906","-71.113066","Restaurants",
"Leis Garden Restaurant","150","150 Rockingham Rd","Derry","NH","(603) 434-4911","42.86348","-71.287825","Restaurants",
"Li's Garden","258","258 Salem Rd Ste 5","Billerica","MA","(978) 362-8269","42.57414","-71.230371","Restaurants",
"Jade Garden","162","162 Main St","Newmarket","NH","(603) 659-7335","43.077807","-70.937273","Restaurants",
"Plainville House of Pizza","107","107 South St","Plainville","MA","(508) 699-4479","42.003909","-71.335389","Restaurants",
"Golden Garden","63","63 Concord Ave","Belmont","MA","(617) 489-4428","42.3915702","-71.1602317","Restaurants",
"Saigon Hut","305","305 Meridian St","East Boston","MA","(617) 567-1944","42.377293","-71.039043","Restaurants",
"South Ocean","710","710 E Broadway","South Boston","MA","(617) 268-2998","42.336156","-71.036509","Restaurants",
"China Sea Restaurant Inc","1202","1202 Blue Hill Ave","Mattapan","MA","(617) 298-2421","42.283486","-71.091358","Restaurants",
"China King","60","60 Beach St","Boston","MA","(617) 542-1763","42.351436","-71.060196","Restaurants",
"Bean & Leaf Cafe","20","20 Custom House St Ste 100","Boston","MA","(617) 261-4727","42.3581573","-71.0530612","Restaurants",
"Dedham House of Pizza","376","376 Washington St","Dedham","MA","(781) 329-9116","42.247883","-71.173313","Restaurants",
"Hong Kong Express","461","461 Lincoln Ave","Saugus","MA","(781) 233-0288","42.448848","-71.008407","Restaurants",
"Oriental Express","8","8 W Water St","Rockland","MA","(781) 871-3600","42.1267656","-70.9152425","Restaurants",
"Imperial Chinese Restaurant","341","341 Broad St","Bridgewater","MA","(508) 697-4200","41.998851","-70.971135","Restaurants",
"Jade Leaf Restaurant","1050","1050 Pearl St Ste 4","Brockton","MA","(508) 584-6366","42.052437","-71.06632","Restaurants",
"Golden Crown","300","300 Grove St","Braintree","MA","(781) 849-8048","42.1912436","-70.9873061","Restaurants",
"Imperial Kitchen Inc","50","50 Corinth St","Roslindale","MA","(617) 327-2180","42.2859873","-71.1291412","Restaurants",
"Gold Star Restaurant","358","358 Fairmount St","Lowell","MA","(978) 458-1074","42.632627","-71.2866","Restaurants",
"Red Rose Restaurant","716","716 Middlesex St Ste 1","Lowell","MA","(978) 452-5400","42.637815","-71.3208049","Restaurants",
"China Star II Restaurant","436","436 Prospect St","Methuen","MA","(978) 683-0702","42.72229","-71.156396","Restaurants",
"Peking Garden of Lawrence","261","261 Lawrence St","Lawrence","MA","(978) 975-5260","42.71878","-71.167779","Restaurants",
"Yummy Kitchen","42","42 Boston Post Rd E Ste 1","Marlborough","MA","(508) 460-3878","42.351531","-71.529058","Restaurants",
"Meihoo Restaurant","135","135 N Broadway","Salem","NH","(603) 890-0488","42.7859849","-71.232986","Restaurants",
"Beijing Kitchen","1068","1068 Washington St","Norwood","MA","(781) 352-2855","42.179609","-71.2050019","Restaurants",
"Quan's Kitchen","871","871 Washington St","Hanover","MA","(781) 826-8868","42.129572","-70.832571","Restaurants",
"Fish Market","34","34 Atlantic Ave","Marblehead","MA","(781) 990-1109","42.499178","-70.85549","Restaurants",
"Meilee Express","125","125 Canal St Ste 3","Salem","MA","(978) 745-5878","42.509753","-70.895913","Restaurants",
"Jasmine Cuisine","35","35 Lowell St Ste 1","Wilmington","MA","(978) 658-8880","42.541707","-71.165211","Restaurants",
"Yoma Burmese Restaurant","5","5 N Beacon St","Allston","MA","(617) 783-1372","42.353744","-71.137596","Restaurants",
"New King Fung Garden","21","21 Randlett St","Quincy","MA","(617) 357-5262","42.273414","-71.007589","Restaurants",
"Star House Chinese","595","595 Waverley St","Framingham","MA","(508) 872-8881","42.2751779","-71.422635","Restaurants",
"China River Restaurant","295","295 Rantoul St","Beverly","MA","(978) 921-1184","42.550958","-70.8829499","Restaurants",
"China Gold Restaurant Inc","800","800 Brockton Ave Ste 4","Abington","MA","(781) 857-1211","42.092963","-70.968214","Restaurants",
"Chang Chun Chinese Restaurant","776","776 Centre St","Brockton","MA","(508) 588-9091","42.087084","-70.986748","Restaurants",
"M and D Cafe","928","928 Hingham St","Rockland","MA","(781) 878-8960","42.1607551","-70.9030061","Restaurants",
"Wok N Roll","49","49 Park St","Ayer","MA","(978) 772-4526","42.563873","-71.590782","Restaurants",
"China Garden","439","439 Main St Ste 5","Hudson","MA","(978) 562-7464","42.3934692","-71.5446569","Restaurants",
"Asian Essence Restaurant","2291","2291 State Rd Ste 9","Plymouth","MA","(508) 888-2212","41.818496","-70.552854","Restaurants",
"E T Htet","1613","1613 Central St","Stoughton","MA","(781) 341-0320","42.131129","-71.124756","Chinese Restaurants",
