Business Name,Physical Address Number,Physical Address,Physical City,Physical State,Phone,Latitude,Longitude,Primary SIC Description,
"Les Vietnamese","35","35 Dunster St","Cambridge","MA","(617) 864-4100","42.372487033881","-71.1194067380245","Restaurants",
"Catalyst Restaurant","300","300 Technology Sq Ste 3","Cambridge","MA","(617) 576-3000","42.363419","-71.0915179","Restaurants",
"Raso's Bar and Grille","209","209 Mystic Ave","Medford","MA","(781) 396-2001","42.407715","-71.103876","Restaurants",
"LE's Restaurant","36","36 Jfk St","Cambridge","MA","(617) 864-4100","42.3727788","-71.1197524","Restaurants",
"Ole Mexican Grille","11","11 Springfield St","Cambridge","MA","(617) 492-4495","42.374065","-71.100144","Restaurants",
"Lims Sports Bar","7","7 Veterans Memorial Pkwy","Salem","NH","(603) 893-9124","42.769961","-71.218608","Restaurants",
"PHO Bistro","255","255 Main St","Medford","MA","(781) 321-9950","42.409989","-71.11029","Restaurants",
"Lil Tokoyo and Siagon","2800","2800 Lafayette Rd","Portsmouth","NH","(603) 427-8676","43.029161","-70.790611","Restaurants",
"N & H Saigon Sub","1185","1185 N Main St","Randolph","MA","(781) 963-8800","42.195805","-71.060619","Restaurants",
"Anh Hong","291","291 Adams St","Dorchester","MA","(617) 265-8889","42.2991973","-71.0581812","Restaurants",
"Pho Da Lat Restaurant","1575","1575 Middlesex St","Lowell","MA","(978) 275-0022","42.6367059","-71.348347","Restaurants",
"Saigon Seafood Restaurant","270","270 Adams St","Dorchester","MA","(617) 265-1008","42.299971","-71.0585569","Restaurants",
"163 Vietnam Sandwich","66","66 Harrison Ave","Boston","MA","(617) 542-7903","42.351287","-71.061052","Restaurants",
"Phon Rice Restaurant","289","289 Beacon St","Somerville","MA","(617) 864-8888","42.3836316","-71.1127122","Restaurants",
"Viet-Thai Restaurant","368","368 Merrimack St","Lowell","MA","(978) 446-0977","42.645907","-71.314217","Restaurants",
"Pho Dalat","131","131 Drum Hill Rd","Chelmsford","MA","(978) 710-7636","42.623484","-71.3652819","Restaurants",
"Green Tea Cafe","1899","1899 Main St Ste 2","Tewksbury","MA","(978) 455-3209","42.590703","-71.20533","Restaurants",
"Mekong Restaurant","378","378 Broadway St","Lowell","MA","(978) 441-6353","42.64373","-71.321475","Restaurants",
"Green Papaya","475","475 Winter St Ste 1","Waltham","MA","(781) 487-9988","42.398211","-71.263994","Restaurants",
"Amphora Restaurant","55","55 Crystal Ave Unit 3","Derry","NH","(603) 537-0111","42.892457","-71.323592","Restaurants",
"Bana MI Ngon","1759","1759 Centre St","West Roxbury","MA","(617) 325-0946","42.287484","-71.150644","Restaurants",
"Beantown Pho and Grill","272","272 Newbury St","Boston","MA","(857) 239-9436","42.349122","-71.083425","Restaurants",
"Saigon Noodles","144","144 Harvey Rd","Londonderry","NH","(603) 264-3420","42.928684","-71.423452","Restaurants",
"Gigi's Restaurant","177","177 Main St","Maynard","MA","(978) 793-8684","42.430572","-71.461477","Restaurants",
"Pho 98 Cuisine","92","92 N Main St","Randolph","MA","(781) 963-1899","42.164416233244","-71.0427632994895","Restaurants",
"Cilantro Thai & Vietnamese Cuisine","383","383 Main St","Woburn","MA","(781) 933-9888","42.47991","-71.1516597","Restaurants",
"New Saigon","985","985 Bennington St","East Boston","MA","(617) 561-6500","42.386287","-71.007256","Restaurants",
"Noodle Barn","707","707 Centre St","Jamaica Plain","MA","(617) 522-2299","42.31143","-71.114661","Restaurants",
"Nhu Lan Fast Foods","1155","1155 Dorchester Ave","Dorchester","MA","(617) 474-1989","42.311379","-71.058074","Restaurants",
"Bon Me","148","148 Hampden St","Roxbury","MA","(617) 989-9804","42.3280373","-71.0747312","Restaurants",
"Calibasil Beverly Inc","55","55 Dodge St","Beverly","MA","(978) 969-3255","42.575604","-70.889823","Restaurants",
"Pho Ever Chicken","3","3 Old Concord Rd","Burlington","MA","(781) 272-1580","42.473544","-71.208181","Restaurants",
"Pho Dakao","101","101 Concord St","Framingham","MA","(508) 872-2211","42.2786098","-71.4157819","Restaurants",
"Pho Countryside","217","217 Quincy Ave","Quincy","MA","(617) 328-8831","42.240753","-70.992195","Restaurants",
"Bambu","199","199 Plain St","Lowell","MA","(978) 455-2939","42.623618","-71.31793","Restaurants",
"Pho Common","468","468 Commonwealth Ave","Boston","MA","(857) 990-3679","42.348643","-71.0934467","Restaurants",
"Pho 1 Brighton","1799","1799 Commonwealth Ave","Brighton","MA","(617) 254-2254","42.3406908","-71.1517317","Restaurants",
"Saigon Chicken House","223","223 Adams St","Dorchester","MA","(617) 436-8888","42.3014859","-71.0600327","Restaurants",
"Pho Saigon Noodle Grill","10","10 Dinley St","Dracut","MA","(978) 957-5049","42.6666012","-71.3224786","Restaurants",
"Cho Vietnam Restaurant","906","906 Washington St","Braintree","MA","(781) 428-3298","42.2029322","-71.0048482","Restaurants",
"Sugar Cane","106","106 Main St Ste 5","Peabody","MA","(978) 532-7800","42.5245657","-70.9230815","Restaurants",
"Pho Lemongrass","239","239 Harvard St","Brookline","MA","(617) 731-8600","42.341174","-71.120825","Restaurants",
"Farnhams J & TS Seafood & Grill","88","88 Eastern Ave","Essex","MA","(978) 768-6643","42.633044","-70.762776","Restaurants",
"Winthrop Center Cafe","36","36 Woodside Ave","Winthrop","MA","(617) 846-6411","42.375076","-70.98678","Restaurants",
"Pho So 1 Randolph","51","51 Memorial Pkwy","Randolph","MA","(781) 961-6500","42.1632917840966","-71.0431831811035","Restaurants",
"Lime Leaf Thai Cuisine","435","435 Columbian St","South Weymouth","MA","(339) 499-5350","42.180567","-70.969273","Restaurants",
"Nwalpphop Property Owner","300","300 5th Ave","Waltham","MA","(781) 472-2577","42.390143","-71.257919","Restaurants",
"Anh Dao Restaurant","408","408 Broadway","Chelsea","MA","(617) 884-8844","42.39235","-71.035298","Restaurants",
"Lee Han Sandwich Inc","419","419 Hancock St","Quincy","MA","(617) 481-2921","42.2729524","-71.0251861","Restaurants",
"Balduccis House of Pizza","35","35 Billings Rd","Quincy","MA","(617) 328-0448","42.273393","-71.024919","Restaurants",
"Pho & I Restaurant","267","267 Huntington Ave","Boston","MA","(617) 262-0011","42.342149","-71.086238","Restaurants",
"Les Restaurant","137","137 Brighton Ave","Allston","MA","(617) 783-2340","42.353126","-71.131271","Restaurants",
"Biagio Ristorante & Bar","123","123 Moody St","Waltham","MA","(781) 891-0100","42.373987","-71.236762","Restaurants",
"Phoenician Restaurant","12","12 Alpha St","Haverhill","MA","(978) 373-1714","42.775859","-71.130218","Restaurants",
"Borrellis Italian Deli","322","322 Merrimack St","Methuen","MA","(978) 687-2306","42.74312","-71.131474","Restaurants",
"Phoenix Landing","512","512 Massachusetts Ave","Cambridge","MA","(617) 576-6260","42.364011","-71.101955","Restaurants",
"Bon Me","313","313 Congress St","Boston","MA","(617) 989-9804","42.3511352","-71.0502395","Restaurants",
"Pho Viets","1095","1095 Commonwealth Ave Ste 204","Boston","MA","(617) 562-8828","42.352352895952","-71.124291103477","Restaurants",
"Pho 1","908","908 Main St","Woburn","MA","(781) 932-4780","42.508876","-71.161132","Restaurants",
"12 palace","136","136 Newbury St Ste 2","Peabody","MA","(978) 535-8339","42.5364856","-70.9896355","Restaurants",
"Modern Pastry Shop","20","20 Salem St","Medford","MA","(781) 396-3618","42.4185461521642","-71.1088288092866","Restaurants",
"La Dalat Restaurant","181","181 Nantasket Ave","Hull","MA","(781) 925-4587","42.2693158","-70.8550318","Restaurants",
"Saigon Noodle","381","381 Main St","Malden","MA","(781) 397-1473","42.4258539","-71.0672252","Restaurants",
"Pho 98","94","94 N Main St","Randolph","MA","(781) 963-1899","42.1643571","-71.043209","Restaurants",
"Heng Heng Fast Food","32","32 Branch St Unit 4","Lowell","MA","(978) 275-3895","42.637548","-71.322335","Restaurants",
"Sunset Asian Restaurants","49","49 Union St","Lynn","MA","(781) 581-5090","42.46834","-70.938861","Restaurants",
"Ba Le Restaurant","1052","1052 Dorchester Ave","Dorchester","MA","(617) 265-7171","42.314779","-71.0566429","Restaurants",
"South Street Pizza","416","416 South St","Plainville","MA","(508) 809-6333","42.022708","-71.346394","Restaurants",
"Pho Minh Ky","238","238 Union St","Lynn","MA","(781) 477-0656","42.465651","-70.942686","Restaurants",
"Pho & Spice Inc","457","457 Moody St","Waltham","MA","(781) 788-8899","42.368322","-71.237796","Restaurants",
"Sa PA","92","92 Bedford St","Boston","MA","(617) 303-7000","42.35343","-71.059496","Restaurants",
"Pho 99-Malden","99","99 Pleasant St","Malden","MA","(781) 397-9990","42.4273097","-71.0699811","Restaurants",
"Pho Basil","177","177 Massachusetts Ave # A","Boston","MA","(617) 262-5377","42.345771","-71.087345","Restaurants",
"Milano House of Pizza","175","175 Boston Rd","North Billerica","MA","(978) 663-4339","42.583048","-71.290957","Restaurants",
"Sunrise Restaurant","1157","1157 Dorchester Ave","Dorchester","MA","(617) 288-7314","42.311226","-71.058112","Restaurants",
"Sai Gon One Restaurant","1331","1331 Dorchester Ave","Dorchester","MA","(617) 506-1409","42.305202","-71.059174","Restaurants",
"Nguyens Vietnamese Cuisine and Sushi Bar","286","286 Humphrey St","Swampscott","MA","(781) 592-0047","42.4673806","-70.913433","Restaurants",
"Cilantro Chinese Cuisine","1105","1105 Massachusetts Ave","Cambridge","MA","(617) 945-1768","42.370762","-71.113425","Restaurants",
"Pho Pasteur Inc","1462","1462 Hancock St","Quincy","MA","(617) 770-3300","42.2489572","-71.0017803","Restaurants",
"Pho 89","937","937 N Main St","Randolph","MA","(781) 885-7712","42.187216","-71.055986","Restaurants",
"Saigon Tokyo","892","892 Central Ave","Dover","NH","(603) 750-4128","43.218467","-70.883935","Restaurants",
"Bambu","287","287 Adams St","Dorchester","MA","(617) 533-7030","42.299682","-71.0587905","Restaurants",
"Nguyen's Kitchen","156","156 King St","Cohasset","MA","(781) 923-6984","42.2367739","-70.8246028","Restaurants",
"Kingdo Baguette & Bakery","1229","1229 Dorchester Ave","Dorchester","MA","(617) 436-5464","42.308587","-71.058021","Restaurants",
"T & N Restaurant","109","109 S Broadway","Lawrence","MA","(978) 794-8226","42.69683","-71.163531","Restaurants",
"Pho 2000 Restaurant","198","198 Adams St","Dorchester","MA","(617) 436-1908","42.302245","-71.060002","Restaurants",
"Pho Pasteur Restaurant","682","682 Washington St","Boston","MA","(617) 482-7467","42.3514259","-71.062733","Restaurants",
"Bangkok Cafe","10","10 Foxboro Blvd Ste 210","Foxboro","MA","(508) 543-8424","42.0368769673855","-71.234819441824","Restaurants",
"Pho Hoa Restaurant","1370","1370 Dorchester Ave","Dorchester","MA","(617) 287-9746","42.3040605","-71.0590719","Restaurants",
"Saigon Corner","24","24 Billings Rd","Quincy","MA","(617) 770-9333","42.2733483","-71.0260263","Restaurants",
"Dalat Restaurant","475","475 Chelmsford St","Lowell","MA","(978) 453-3303","42.6270991","-71.3229439","Restaurants",
"Saigon","18","18 Exchange St","Millis","MA","(508) 376-2414","42.1665848004866","-71.3612348431575","Restaurants",
"Pho 88","1270","1270 Westford St Ste 28","Lowell","MA","(978) 452-7300","42.62614","-71.358656","Restaurants",
"Li's Garden","258","258 Salem Rd Ste 5","Billerica","MA","(978) 362-8269","42.57414","-71.230371","Restaurants",
"Saigon Hut","305","305 Meridian St","East Boston","MA","(617) 567-1944","42.377293","-71.039043","Restaurants",
"Chau Bakery","1456","1456 Dorchester Ave","Dorchester","MA","(617) 288-8809","42.300879","-71.059717","Restaurants",
"Dot Cafe","1459","1459 Dorchester Ave","Dorchester","MA","(617) 436-9100","42.30097","-71.060145","Restaurants",
