Business Name,Physical Address Number,Physical Address,Physical City,Physical State,Phone,Latitude,Longitude,Primary SIC Description,
"Lobster Hut","25","25 Town Wharf","Plymouth","MA","(508) 746-2270","41.962674","-70.667443","Restaurants",
"Gateway Tavern","371","371 Marion Rd","Wareham","MA","(508) 291-6040","41.7423396","-70.7420941","Restaurants",
"Shea's Riverside Restaurant & Bar","122","122 Main St","Essex","MA","(978) 768-6931","42.630893","-70.774478","Restaurants",
"Row 34","383","383 Congress St","Boston","MA","(617) 553-5900","42.3496073","-71.0476411","Restaurants",
"Eddie V's Prime Seafood","50","50 South Ave","Burlington","MA","(781) 221-7151","42.4828362","-71.2196288","Restaurants",
"Ninety Nine Restaurant & Pub","13","13 Commonwealth Ave","Concord","MA","(978) 369-0300","42.456391","-71.392892","Restaurants",
"Telly's Restaurant & Pizza","235","235 Calef Hwy","Epping","NH","(603) 679-8225","43.0397196513844","-71.0658811830581","Restaurants",
"Alden Park Bar and Grill","160","160 Colony Place Rd","Plymouth","MA","(508) 830-6777","41.9540978","-70.7127207","Restaurants",
"Rays Seafood","1677","1677 Ocean Blvd","Rye","NH","(603) 436-2280","43.0045387","-70.7459529","Restaurants",
"Oar House","55","55 Ceres St","Portsmouth","NH","(603) 436-4025","43.0789810757921","-70.7581809768556","Restaurants",
"China Blossom","946","946 Osgood St","North Andover","MA","(978) 682-2242","42.711429","-71.118913","Restaurants",
"Calitri's Italian Cuisine","126","126 Newbury St","Danvers","MA","(978) 777-1266","42.569038","-70.974483","Restaurants",
"Sunset Cantina","916","916 Commonwealth Ave","Boston","MA","(617) 731-8646","42.350906","-71.116865","Restaurants",
"Noon Hill Grill","530","530 Main St","Medfield","MA","(508) 359-9155","42.185647","-71.307893","Restaurants",
"Venezia Waterfront Restaurant & Banquet Facility","20","20 Ericsson St","Dorchester","MA","(617) 436-3120","42.291745","-71.04032","Restaurants",
"Bambara Kitchen & Barcambridge","25","25 Edwin H Land Blvd","Cambridge","MA","(617) 868-4444","42.368026","-71.075255","Restaurants",
"Ninety Nine Restaurant & Pub","428","428 Lincoln St","Hingham","MA","(781) 740-8599","42.247967","-70.925831","Restaurants",
"Dubes Seafood","317","317 Jefferson Ave","Salem","MA","(978) 744-9531","42.502316","-70.89928","Restaurants",
"Ninety Nine Restaurant & Pub","20","20 Cummings St","Somerville","MA","(617) 629-0599","42.393955","-71.083764","Restaurants",
"Boston Sail Loft Restaurant","80","80 Atlantic Ave","Boston","MA","(617) 227-7280","42.362452","-71.0505419","Restaurants",
"Restaurant 45","45","45 Milford St Unit 1","Medway","MA","(508) 533-8171","42.1444912","-71.4436875","Restaurants",
"Minado Restaurant","1282","1282 Worcester St","Natick","MA","(508) 647-0495","42.298159","-71.3818469","Restaurants",
"North 26th","26","26 North St","Boston","MA","(617) 523-4119","42.3607973","-71.0562612","Restaurants",
"Ninety Nine Restaurant & Pub","672","672 Boston Rd","Billerica","MA","(978) 667-9789","42.541148","-71.247498","Restaurants",
"Siros Marina Bay","307","307 Victory Rd","Quincy","MA","(617) 472-4500","42.299293","-71.028538","Restaurants",
"Brewer's Fork","7","7 Moulton St","Charlestown","MA","(617) 337-5703","42.3767228","-71.0565796","Restaurants",
"Bailey's Surf N Turf","3056","3056 Cranberry Hwy","East Wareham","MA","(508) 295-1700","41.7570928","-70.6524964","Restaurants",
"Fish Bones","34","34 Central Sq","Chelmsford","MA","(978) 250-0101","42.5959940191743","-71.3522255085589","Restaurants",
"Old Ferry Landing","10","10 Ceres St","Portsmouth","NH","(603) 431-5510","43.0788465","-70.7570165","Restaurants",
"Isaac's Restaurant","114","114 Water St","Plymouth","MA","(508) 830-0001","41.9601088","-70.6660466","Restaurants",
"Bull Run Restaurant","215","215 Great Rd","Shirley","MA","(978) 425-4311","42.5845464","-71.6461813","Restaurants",
"East Coast Seafood Inc","448","448 Boston St","Topsfield","MA","(978) 561-3800","42.6609937","-70.9312861","Restaurants",
"Coach Grill","55","55 Boston Post Rd","Wayland","MA","(508) 358-5900","42.360514","-71.334265","Restaurants",
"Rons Landing","379","379 Ocean Blvd","Hampton","NH","(603) 929-2122","42.917029","-70.806564","Restaurants",
"Blue Marlin Grille","65","65 Eastern Ave","Essex","MA","(978) 768-7400","42.631744","-70.765745","Restaurants",
"Clam Box of Ipswich","246","246 High St","Ipswich","MA","(978) 356-9707","42.695761","-70.867089","Restaurants",
"Woodmans of Essex","121","121 Main St","Essex","MA","(978) 768-2559","42.63024","-70.774645","Restaurants",
"Paddys Restaurant","27","27 International Dr","Portsmouth","NH","(603) 430-9450","43.086194","-70.807396","Restaurants",
"Lone Oak Ice Cream","175","175 Milton Rd","Rochester","NH","(603) 332-1809","43.35376","-70.977582","Restaurants",
"Mission On The Bay","141","141 Humphrey St","Swampscott","MA","(781) 691-9277","42.4678285","-70.9171526","Restaurants",
"Franks Steak House","2310","2310 Massachusetts Ave","Cambridge","MA","(617) 661-0666","42.395412","-71.128282","Restaurants",
"Ristorante Molise","1","1 Market Sq","Amesbury","MA","(978) 388-4844","42.8669242456603","-70.9290364599963","Restaurants",
"Barking Crab","88","88 Sleeper St","Boston","MA","(617) 426-2722","42.3537702","-71.0487009","Restaurants",
"Highland Fried","1271","1271 Cambridge St","Cambridge","MA","(617) 714-4662","42.37359","-71.098601","Restaurants",
"Ristorante Villa Francesca","150","150 Richmond St","Boston","MA","(617) 367-2948","42.36342","-71.054525","Restaurants",
"Bertinis Inc","284","284 Canal St","Salem","MA","(978) 744-1436","42.502154","-70.896315","Restaurants",
"Maddies Sail Loft","15","15 State St","Marblehead","MA","(781) 631-9824","42.504943","-70.848545","Restaurants",
"Rosewood Restaurant","445","445 Hartford Ave","Bellingham","MA","(508) 966-1126","42.130727","-71.449414","Restaurants",
"Jumpin Jays Fish Cafe","150","150 Congress St","Portsmouth","NH","(603) 766-3474","43.0757157","-70.7605859","Restaurants",
"Windjammers Seafood Restaurant","240","240 Portland St","Rochester","NH","(603) 332-9622","43.3048209","-70.9727118","Restaurants",
"Ninety Nine Restaurant & Pub","10","10 Main St","Stoneham","MA","(781) 279-0399","42.50092","-71.100827","Restaurants",
"Moonstones","185","185 Chelmsford St","Chelmsford","MA","(978) 256-7777","42.607383","-71.341588","Restaurants",
"Mt Auburn Grill","645","645 Mount Auburn St","Watertown","MA","(617) 923-8013","42.37149","-71.15707","Restaurants",
"Novatos","218","218 Dedham St","Norfolk","MA","(508) 384-5122","42.0906384","-71.299934","Restaurants",
"Aegean Restaurant & Lounge","257","257 Cochituate Rd","Framingham","MA","(508) 879-8424","42.301906","-71.403439","Restaurants",
"Dockside Restaurant","1099","1099 Main St","Wakefield","MA","(781) 245-0200","42.478712","-71.0637969","Restaurants",
"B & G Oysters Ltd","550","550 Tremont St","Boston","MA","(617) 423-0550","42.343878","-71.071243","Restaurants",
"Red Lion Inn Restaurant","71","71 S Main St","Cohasset","MA","(781) 383-1704","42.239795","-70.801259","Restaurants",
"Bamboo-Bedford Fine Asian Cuisine & Sushi Bar","213","213 Burlington Rd","Bedford","MA","(781) 275-5888","42.501306","-71.235498","Restaurants",
"Nosh & Grog Provisions","21","21 North St","Medfield","MA","(508) 359-4100","42.187366","-71.305672","Restaurants",
"Midway Restaurant","269","269 Washington St","Dedham","MA","(781) 329-5575","42.251031","-71.170699","Restaurants",
"Olympia Restaurant","453","453 Market St","Lowell","MA","(978) 452-8092","42.646366","-71.316209","Restaurants",
"Popeyes Louisiana Kitchen","85","85 Parkhurst Rd","Chelmsford","MA","(978) 856-7079","42.625264","-71.359675","Restaurants",
"Azorean Restaurant & Bar","133","133 Washington St","Gloucester","MA","(978) 283-5500","42.6166886","-70.6690393","Restaurants",
"Princeton Station","147","147 Princeton St","North Chelmsford","MA","(978) 251-1500","42.633005","-71.376989","Restaurants",
"Stoddard Fine Food & Ale","48","48 Temple Pl","Boston","MA","(617) 426-0048","42.355214","-71.061622","Restaurants",
"Derry Restaurant","111","111 W Broadway","Derry","NH","(603) 432-2107","42.875123","-71.335487","Restaurants",
"Turk's Seafood","83","83 Marion Rd","Mattapoisett","MA","(508) 758-3117","41.663744","-70.788087","Restaurants",
"Audria","436","436 Oak St","East Bridgewater","MA","(781) 447-7888","42.060116","-70.913325","Restaurants",
"Fitzy's Pub","1","1 Man Mar Dr Unit 1","Plainville","MA","(508) 699-2532","42.008396","-71.30506","Restaurants",
"Brown's Lobster Pound","407","407 State Route 286","Seabrook","NH","(603) 474-3331","42.8716044695694","-70.8231666961953","Restaurants",
"Cape Ann Brewing Company","11","11 Rogers St","Gloucester","MA","(978) 282-7399","42.611237","-70.665164","Restaurants",
"Venus II Brothers","277","277 Ocean St","Marshfield","MA","(781) 837-6368","42.0911273448813","-70.6448526428257","Restaurants",
"Ninety Nine Restaurant & Pub","464","464 Lowell St","Andover","MA","(978) 475-8033","42.642627","-71.209841","Restaurants",
"Market Restaurant","33","33 River Rd","Gloucester","MA","(978) 282-0700","42.6526646","-70.6769132","Restaurants",
"Stephen Anthonys Seafood & Steakhouse","999","999 Boston Post Rd E","Marlborough","MA","(508) 460-9618","42.350921","-71.488438","Restaurants",
"Plum Island Grille","2","2 Plum Island Blvd","Newbury","MA","(978) 463-2290","42.798602","-70.812855","Restaurants",
"Beach Plum","2800","2800 Lafayette Rd Ste 9","Portsmouth","NH","(603) 373-8623","43.029161","-70.790611","Restaurants",
"Strip By Strega","64","64 Arlington St","Boston","MA","(617) 456-5300","42.350829","-71.069908","Restaurants",
"River House","53","53 Bow St","Portsmouth","NH","(603) 431-2600","43.0787415","-70.7569686","Restaurants",
"Carriage House Restaurant-Caterers","2263","2263 Ocean Blvd","Rye","NH","(603) 964-8251","42.9867653","-70.7628548","Restaurants",
"Porcini's Restaurant","68","68 School St","Watertown","MA","(617) 924-2221","42.364806","-71.166677","Restaurants",
"Ice House The Inc","112","112 Wentworth Rd","Rye","NH","(603) 431-3086","43.0532836","-70.7385864","Restaurants",
"Cascade Seaside Restaurant & Deck","3","3 D St","Hampton","NH","(603) 926-5988","42.9102166691711","-70.8105984106857","Restaurants",
"Legal Sea Foods","1","1 Harborside Dr","East Boston","MA","(617) 568-1888","42.3634308","-71.0257061","Restaurants",
"Lobster Pool","329","329 Granite St","Rockport","MA","(978) 309-8434","42.6873856","-70.6386754","Restaurants",
"Medway Cafe","74","74 Main St Unit 13","Medway","MA","(508) 533-6633","42.1515252","-71.412044","Restaurants",
"Ithaki Mediterranean Cuisine","25","25 Hammatt St","Ipswich","MA","(978) 356-0099","42.679653","-70.84098","Restaurants",
"Sun Tavern","500","500 Congress St","Duxbury","MA","(781) 837-1027","42.0577823","-70.7421783","Restaurants",
"Dairy Freeze","635","635 Adams St","Quincy","MA","(617) 471-9768","42.255802","-71.031171","Restaurants",
"Narrow's Crossing Restaurant & Lounge","1","1 Narrows Rd","Wareham","MA","(508) 295-9345","41.756385","-70.711363","Restaurants",
"Palmers","18","18 Elm St","Andover","MA","(978) 470-1606","42.658009","-71.140223","Restaurants",
"Samba Steak House & Sushi","1138","1138 Worcester Rd","Framingham","MA","(508) 628-0288","42.29857","-71.443682","Restaurants",
"Tryst Restaurant","689","689 Massachusetts Ave","Arlington","MA","(781) 641-2227","42.4163272","-71.1552284","Restaurants",
"Clam Haven","94","94 Rockingham Rd","Derry","NH","(603) 434-4679","42.8787319341622","-71.3007799386721","Restaurants",
"BOKX 109 American Prime","399","399 Grove St","Newton Lower Falls","MA","(617) 454-3399","42.3342402","-71.2551436","Restaurants",
"Hungry Traveler Restaurant & Lounge","98","98 Beach Rd","Salisbury","MA","(978) 465-9743","42.8388504","-70.8433368","Restaurants",
"Sail Loft","1200","1200 Boylston St","Chestnut Hill","MA","(617) 487-8608","42.3229968","-71.1647247","Restaurants",
"Taste Boston","18","18 Logan Airport","East Boston","MA","(617) 567-8300","42.37753","-71.03189","Restaurants",
"Off the Common","50","50 Park Plz","Boston","MA","(617) 457-2330","42.3512687","-71.0693763","Restaurants",
"Bobby Fish","312","312 Bowdoin St","Dorchester","MA","(617) 506-1566","42.3078323","-71.0655612","Restaurants",
"Brine","25","25 State St Frnt","Newburyport","MA","(978) 358-8479","42.810349","-70.8697877","Restaurants",
"Surfside Smokehouse","14","14 Union St","Plymouth","MA","(508) 927-4111","41.955916","-70.66121","Restaurants",
"Alex's Kitchen","107","107 Nichols Ave","Watertown","MA","(617) 393-9898","42.3686242","-71.1606176","Restaurants",
"Tavern On The Wharf","6","6 Town Wharf","Plymouth","MA","(508) 927-4961","41.9619169","-70.6671165","Restaurants",
"Ocean Prime","140","140 Seaport Blvd","Boston","MA","(617) 670-1345","42.3519440801336","-71.0453609891472","Restaurants",
"Linguines Italian Eatery","350","350 Boston Post Rd W","Marlborough","MA","(508) 481-9747","42.33601","-71.596087","Restaurants",
"Popeyes Louisiana Kitchen","200","200 Westgate Dr","Brockton","MA","(508) 559-1520","42.0955773","-71.0520278","Restaurants",
"Smith & Wollensky at Atlantic","294","294 Congress St","Boston","MA","(617) 778-2200","42.3528809","-71.052445","Restaurants",
"Popeyes Louisiana Kitchen","1886","1886 Revere Beach Pkwy","Everett","MA","(617) 387-7300","42.402315","-71.049921","Restaurants",
"Foundry On Elm","255","255 Elm St","Somerville","MA","(617) 628-4445","42.395576","-71.121803","Restaurants",
"Long John Silver's","1560","1560 Vfw Pkwy","West Roxbury","MA","(617) 327-2645","42.266837","-71.1685126","Restaurants",
"Top of The Hub","800","800 Boylston St Fl 52","Boston","MA","(617) 536-1775","42.3482963792101","-71.0834282775152","Restaurants",
"Fins Sushi & Grille","354","354 Chestnut Hill Ave","Brighton","MA","(617) 731-0018","42.336873","-71.1516313","Restaurants",
"110 Roastbeef & Seafood LLC","66 1/2","66 1/2 Haverhill Rd","Amesbury","MA","(978) 388-3800","42.8417488516706","-70.9470645428613","Restaurants",
"Topside Grill","50","50 Rogers St","Gloucester","MA","(978) 281-1399","42.6121741","-70.6630198","Restaurants",
"Jimbos Famous Roast Beef & Seafood","616","616 Main St Ste 1","Tewksbury","MA","(978) 851-3266","42.618153","-71.249535","Restaurants",
"Riverview Restaurant","20","20 Estes St","Ipswich","MA","(978) 356-0500","42.676519","-70.839346","Restaurants",
"Limoncello Ristorante","190","190 North St","Boston","MA","(617) 523-4480","42.3636140105152","-71.0530043681259","Restaurants",
"Robins Nest Ice Cream","423","423 High St","Rochester","MA","(508) 295-6992","41.7780707","-70.7872565","Restaurants",
"Foleys Backstreet Grille","531","531 Pearl St","Stoughton","MA","(781) 297-0100","42.138344","-71.113763","Restaurants",
"Jimbo's Famous Roast Beef","454","454 Main St","Reading","MA","(781) 944-0588","42.521373","-71.103538","Restaurants",
"Anmol Indian Restaurant","258","258 Rantoul St","Beverly","MA","(978) 232-9009","42.5500609","-70.883751","Restaurants",
"Erbaluce","69","69 Church St","Boston","MA","(617) 426-6969","42.3501566","-71.0684634","Restaurants",
"Sammys Roast Beef & Seafood","17","17 Canal St Ste 5","Salem","MA","(978) 744-7777","42.517392","-70.895417","Restaurants",
"Ponzu Fine Dining","286","286 Moody St","Waltham","MA","(781) 736-9188","42.37126","-71.236805","Restaurants",
"Snappy Kitchen","234","234 Elm St","Somerville","MA","(617) 625-0400","42.3946647","-71.1218183","Restaurants",
"East Chinatown Restaurant","415","415 Hancock St","Quincy","MA","(617) 472-9928","42.273013","-71.025206","Restaurants",
"Castaways","31","31 Cocheco St","Dover","NH","(603) 834-6030","43.1978601","-70.8694118","Restaurants",
"Bob Lobster","49","49 Plum Island Tpke","Newbury","MA","(978) 465-7100","42.796844","-70.831659","Restaurants",
"Ceals Clam Stand","190","190 Ocean Blvd","Seabrook","NH","(603) 474-3150","42.877718","-70.818038","Restaurants",
"Mike's Place","237","237 Hamilton St","Saugus","MA","(781) 233-8260","42.460325","-70.989246","Restaurants",
"Unique Sushi","303","303 Main St","Everett","MA","(617) 381-0220","42.4111851","-71.0625479","Restaurants",
"Finnegans Pub","25","25 South St Ste 5","Hudson","MA","(978) 567-7961","42.3902327","-71.5687904","Restaurants",
"Jade Garden","20","20 Tyler St","Boston","MA","(617) 423-3288","42.350693","-71.060566","Restaurants",
"Maria's Pizza","35","35 Pearl St","Gloucester","MA","(978) 283-7373","42.6159533","-70.6664294","Restaurants",
"Saigon Seafood Restaurant","270","270 Adams St","Dorchester","MA","(617) 265-1008","42.299971","-71.0585569","Restaurants",
"Oceanaire Seafood Room","40","40 Court St","Boston","MA","(617) 742-2277","42.358907","-71.059293","Restaurants",
"New England Seafoods","225","225 Merrimack St","Methuen","MA","(978) 686-7494","42.736145","-71.133018","Restaurants",
"Cantina Italiana","346","346 Hanover St","Boston","MA","(617) 723-4577","42.365024","-71.053467","Restaurants",
"Tommy Doyle's Bar & Grill","235","235 E Ashland St","Brockton","MA","(508) 587-5511","42.0955842","-71.0097774","Restaurants",
"Charlies Place","83","83 Bass Ave","Gloucester","MA","(978) 281-5002","42.6173832","-70.64131","Restaurants",
"Suppas Pizza","94","94 University Ave","Lowell","MA","(978) 970-3961","42.653841","-71.327339","Restaurants",
"Moby Dick of Boston","269","269 Huntington Ave","Boston","MA","(617) 236-5511","42.3419979","-71.086362","Restaurants",
"Center Cafe","1027","1027 Great Plain Ave","Needham","MA","(781) 455-8800","42.280509","-71.237477","Restaurants",
"Feng Sushi Restaurant","191","191 Washington St","Hudson","MA","(978) 568-8885","42.3814064","-71.5685063","Restaurants",
"Changs House","1583","1583 Commonwealth Ave","Brighton","MA","(617) 787-5030","42.34429","-71.143063","Restaurants",
"Simco's","1509","1509 Blue Hill Ave Ste B","Mattapan","MA","(617) 296-3800","42.2721708","-71.0938763","Restaurants",
"Bella Famiglia Italian","59","59 Great Rd","Acton","MA","(978) 263-2222","42.4765988","-71.4097383","Restaurants",
"Ninety Nine Restaurant & Pub","401","401 Main St","Tewksbury","MA","(978) 863-9099","42.620031","-71.259603","Restaurants",
"Legal Sea Foods","50","50 Worcester Rd","Framingham","MA","(508) 766-0600","42.2990216869199","-71.3949159165949","Restaurants",
"Seaglass Restaurant & Lounge","4","4 Ocean Front N","Salisbury","MA","(978) 462-5800","42.843468","-70.816143","Restaurants",
"Lobster Pot","3155","3155 Cranberry Hwy","Wareham","MA","(508) 759-3876","41.75329","-70.71419","Restaurants",
"Mr Sushi Japanese Restaurant","693","693 Massachusetts Ave","Arlington","MA","(781) 643-4175","42.4163272","-71.1552284","Restaurants",
"P A Seafood Restaurant","345","345 Somerville Ave","Somerville","MA","(617) 776-1557","42.380864","-71.098265","Restaurants",
"Met Back Bay","279","279 Dartmouth St","Boston","MA","(617) 267-0451","42.3511373","-71.0775812","Restaurants",
"Legal Sea Foods","161","161 Prescott St","East Boston","MA","(617) 568-2800","42.3759974","-71.0264512","Restaurants",
"Lobster Stop","723","723 Washington St","Quincy","MA","(617) 405-4760","42.2450676","-70.9715065","Restaurants",
"Legal Sea Foods","55","55 Boylston St","Chestnut Hill","MA","(617) 277-7300","42.322694","-71.170167","Restaurants",
"Ristorante Pavarotti","601","601 Main St","Reading","MA","(781) 670-9050","42.523698","-71.102656","Restaurants",
"Rudder Restaurant","73","73 Rocky Neck Ave","Gloucester","MA","(978) 283-7967","42.6073307","-70.6561937","Restaurants",
"Atlantica Restaurant","40","40 Border St","Cohasset","MA","(781) 383-2203","42.2397698754528","-70.7915000445218","Restaurants",
"Restaurant Oro","227","227 Chief Justice Cushing Hwy","Scituate","MA","(781) 378-2465","42.1743174","-70.7495108","Restaurants",
"Nick Bistro","169","169 Squire Rd","Revere","MA","(781) 284-9400","42.4242127","-71.0098756","Restaurants",
"Stockholders steakhouse LLC","1073","1073 Main St","South Weymouth","MA","(781) 335-3100","42.167606","-70.956036","Restaurants",
"Cotali Mar Restaurante","32","32 Sumner St","Norwood","MA","(508) 990-0066","42.169059","-71.2029861","Restaurants",
"Harbor Seafood","200","200 Great Rd Ste 206","Bedford","MA","(781) 271-0515","42.489533","-71.271686","Restaurants",
"Chop Shop","920","920 Lafayette Rd","Seabrook","NH","(603) 760-7706","42.902478","-70.868049","Restaurants",
"Irashai Sushi","8","8 Kneeland St","Boston","MA","(617) 350-6888","42.351035","-71.0626489","Restaurants",
"Thelonious Monkfish","524","524 Massachusetts Ave","Cambridge","MA","(617) 441-2116","42.364167","-71.10212","Restaurants",
"Port 305","305","305 Victory Rd","Quincy","MA","(617) 302-4447","42.2990309","-71.0290729","Restaurants",
"Citizen Public House & Oyster Bar","1330","1330 Boylston St","Boston","MA","(617) 450-9000","42.34409","-71.09866","Restaurants",
"Domino's Place","637","637 Broadway","Malden","MA","(781) 399-4811","42.442047","-71.030526","Restaurants",
"Old Colonial Cafe","171","171 Nahatan St","Norwood","MA","(781) 769-0323","42.1944814","-71.1993716","Restaurants",
"Liberty Bell Roast Beef Seafood & Pizza","420","420 Boston Rd","Billerica","MA","(978) 667-2355","42.559468","-71.268383","Restaurants",
"Tony's Place","188","188 Baker St","West Roxbury","MA","(617) 323-3550","42.2760273","-71.1672512","Restaurants",
"Village Seafood Emporium","35","35 Corporate Dr Ste 400","Burlington","MA","(800) 498-5242","42.493652","-71.189701","Restaurants",
"Pellana","9","9 Sylvan St","Peabody","MA","(978) 531-4800","42.5468097","-70.9436044","Restaurants",
"Peach Farm Restaurant","4","4 Tyler St Ste 1","Boston","MA","(617) 482-1116","42.351149","-71.060401","Restaurants",
"Legal Sea Foods","100","100 Huntington Ave Ste 77","Boston","MA","(617) 266-7775","42.347042","-71.077828","Restaurants",
"San Soo Kap Sa Sushi","3","3 Old Concord Rd","Burlington","MA","(781) 270-6200","42.473544","-71.208181","Restaurants",
"J's Tomodachi Sushi","201","201 Massachusetts Ave","Boston","MA","(617) 236-1464","42.3452473","-71.0871311","Restaurants",
"Fish Market","170","170 Brighton Ave","Allston","MA","(617) 783-1268","42.3529196","-71.1329823","Restaurants",
"Original Soup Man","350","350 Longwood Ave","Boston","MA","(617) 383-6419","42.3384273","-71.1068512","Restaurants",
"Nicks Roast Beef","636","636 Boston Post Rd E","Marlborough","MA","(508) 460-7770","42.350516","-71.505381","Restaurants",
"Sushi Joy","124","124 Colony Place Rd","Plymouth","MA","(508) 732-9288","41.9562539","-70.7141487","Restaurants",
"Little Jacks Seafood Restaurant & Lobster Pool","539","539 Ocean Blvd","Hampton","NH","(603) 926-8053","42.9208799","-70.799235","Restaurants",
"Popeyes Louisiana Kitchen","710","710 American Legion Hwy","Roslindale","MA","(617) 477-8252","42.282984","-71.112837","Restaurants",
"Grill Fifty Eight","284","284 Monponsett St","Halifax","MA","(781) 293-6665","41.9941453","-70.8439169","Restaurants",
"Newicks Seafood Restaurant","431","431 Dover Point Rd","Dover","NH","(603) 742-3205","43.121601","-70.8320467","Restaurants",
"Jasmines Famous Roast Beef & Seafood","178","178 Lafayette Rd","Seabrook","NH","(603) 474-8181","42.878507","-70.869513","Restaurants",
"Polcaris Bridgwaye Inn","1265","1265 Ferry St","Marshfield","MA","(781) 834-2020","42.137583","-70.694536","Restaurants",
"Landing Restaurant","81","81 Front St","Marblehead","MA","(781) 631-1878","42.5042918","-70.8468997","Restaurants",
"Odonnells","1048","1048 N Main St","Randolph","MA","(781) 963-9812","42.191085","-71.059189","Restaurants",
"Charlie's Too","825","825 Washington St","Pembroke","MA","(781) 826-5646","42.0620924","-70.7729787","Restaurants",
"Cabin","114","114 E Grove St","Middleboro","MA","(508) 947-8590","41.876372","-70.891509","Restaurants",
"Billys Famous Roast Beef","1291","1291 Main St","Wakefield","MA","(781) 665-2070","42.473593","-71.06191","Restaurants",
"Giorgios Roast Beef & Seafood","800","800 Washington Ave","Revere","MA","(781) 324-1778","42.430686","-71.023495","Restaurants",
"Mimis Roast Beef & Seafood","447","447 Main St","Watertown","MA","(617) 923-0255","42.371101","-71.194975","Restaurants",
"Nicky's","460","460 Franklin St","Wrentham","MA","(508) 384-8283","42.073741","-71.341488","Restaurants",
"Prezza Restaurant","24","24 Fleet St Ste 1","Boston","MA","(617) 227-1577","42.364667","-71.052758","Restaurants",
"Oysters Bar & Grille","254","254 Church St Ste 7","Pembroke","MA","(781) 924-5249","42.1078667","-70.7615991","Restaurants",
"Boston Chops","1375","1375 Washington St","Boston","MA","(857) 263-7690","42.341644","-71.069576","Restaurants",
"Giulia","1682","1682 Massachusetts Ave","Cambridge","MA","(617) 441-2800","42.382502","-71.120104","Restaurants",
"Mikeys Roast Beef","11","11 Hilldale Ave","Haverhill","MA","(978) 241-9477","42.7789094","-71.089858","Restaurants",
"New England Clam Bakes & BBQ Co","20","20 Pleasant St","Millis","MA","(508) 376-2026","42.162506","-71.365684","Restaurants",
"Portside Seafood","212","212 Northern Ave","Boston","MA","(617) 261-2464","42.350476","-71.038265","Restaurants",
"Kings Famous Roast Beef & Seafood","145","145 North St","Salem","MA","(978) 745-7779","42.528824","-70.904086","Restaurants",
"Dinas Roast Beef & Seafood","135","135 Canal St Ste 1","Salem","MA","(978) 744-1229","42.508901","-70.895916","Restaurants",
"Charlottes Cozy & Kitchen","142","142 Main St","Pepperell","MA","(978) 433-2693","42.6662629","-71.5746195","Restaurants",
"Steves Roast Beef Pizza Subs & Seafood","12","12 Lebanon St","Malden","MA","(781) 397-8801","42.433991","-71.046385","Restaurants",
"Tucasa Restaurant","403","403 Broadway","Chelsea","MA","(617) 887-0888","42.391942","-71.034987","Restaurants",
"Firehouse Seafood Inc","5","5 High St","Hudson","MA","(978) 568-1867","42.3920267","-71.5626046","Restaurants",
"Opus Salem","87","87 Washington St","Salem","MA","(978) 744-9600","42.5221089","-70.8955213","Restaurants",
"Pizza Market","502","502 Main St","Woburn","MA","(781) 933-3747","42.482425","-71.151009","Restaurants",
"Rocky Neck Fish","21","21 Fish Pier","Boston","MA","(857) 350-4637","42.3498208098374","-71.0387836080218","Restaurants",
"Carroll's","21","21 Main St","Medford","MA","(781) 395-3344","42.4179473","-71.1101701","Restaurants",
"Cottage","47","47 Boylston St","Chestnut Hill","MA","(617) 916-5413","42.3225967","-71.1699838","Restaurants",
"Simon Seafood Deli","154","154 Dudley St","Roxbury","MA","(617) 427-0702","42.328773","-71.083177","Restaurants",
"Joe Fish Seafood Restaurant and Bar","60","60 Main St","North Reading","MA","(978) 207-0357","42.570457","-71.109852","Restaurants",
"Popeyes Louisiana Kitchen","481","481 S Broadway","Salem","NH","(603) 458-5564","42.744916","-71.200358","Restaurants",
"Ginger Exchange","1625","1625 Tremont St","Roxbury Crossing","MA","(617) 739-8888","42.3339238","-71.1035333","Restaurants",
"Martingale Wharf Club","99","99 Bow St Ste 400e","Portsmouth","NH","(603) 431-0901","43.0789484","-70.7561604","Restaurants",
"G Bar & Kitchen","256","256 Humphrey St","Swampscott","MA","(781) 596-2228","42.4673191","-70.9140078","Restaurants",
"Legal Sea Foods","736","736 Legacy Pl","Dedham","MA","(781) 234-6500","42.230976","-71.177735","Restaurants",
"Legal Sea Foods","270","270 Northern Ave","Boston","MA","(617) 477-2900","42.3487269","-71.037859","Restaurants",
"Lobster Claw Seafoods","7","7 Main St Ste A","North Reading","MA","(978) 664-6349","42.5659208367537","-71.1079489187493","Restaurants",
"Markey's Lobster Pool","420","420 State Route 286","Seabrook","NH","(603) 474-2851","42.8713071","-70.8226922","Restaurants",
"MC Cormick & Schmick's Seafood","1","1 N Market St","Boston","MA","(617) 720-5522","42.3601873","-71.0547111","Restaurants",
"Bedford House of Roast Beef","328","328 Great Rd","Bedford","MA","(781) 275-2006","42.48633","-71.262894","Restaurants",
"Belle Isle Lobster & Seafood","1","1 Main St","Winthrop","MA","(617) 567-1619","42.382297","-70.993562","Restaurants",
"Top of The Hill Seafood & Subs","1357","1357 Blue Hill Ave","Mattapan","MA","(617) 296-1200","42.277642","-71.093763","Restaurants",
"Bella Vista","288","288 Hanover St","Boston","MA","(617) 367-4999","42.364015","-71.054505","Restaurants",
"New Jumbo Seafood Restaurant","5","5 Hudson St","Boston","MA","(617) 542-2823","42.350937","-71.060198","Restaurants",
"Waterline","296","296 State St","Boston","MA","(617) 227-3838","42.3600067","-71.050906","Restaurants",
"Park Lunch","181","181 Merrimac St","Newburyport","MA","(978) 465-9817","42.814991","-70.878495","Restaurants",
"Portugalia","723","723 Cambridge St","Cambridge","MA","(617) 491-5373","42.3723238","-71.0887184","Restaurants",
"J P Seafood Cafe","730","730 Centre St","Jamaica Plain","MA","(617) 983-5177","42.3108194","-71.1144598","Restaurants",
"Tournament Wharf Restaurant","1","1 Tournament Wharf","Newburyport","MA","(978) 462-7785","42.813875","-70.873676","Restaurants",
"Lucias Tavola","31","31 Main St","Ayer","MA","(978) 391-4837","42.5597455","-71.5882697","Restaurants",
"Gen Sushi","61","61 Concord Ave","Belmont","MA","(617) 484-1708","42.391679","-71.16016","Restaurants",
"Lakeside Pizza & Seafood","24","24 Parham Rd","Tyngsboro","MA","(978) 649-8880","42.684024","-71.380961","Restaurants",
"China Buffet","436","436 Broadway Ste 10","Methuen","MA","(978) 685-9688","42.736113","-71.196173","Restaurants",
"Perkins Pier Clam Shack & Bar","134","134 Ashworth Ave","Hampton","NH","(603) 601-7702","42.905564","-70.814079","Restaurants",
"Kitchens of The Bay State","30","30 River St","Haverhill","MA","(978) 478-3588","42.771242","-71.087881","Restaurants",
"Shi Sushi Inc","83","83 Parkhurst Rd","Chelmsford","MA","(978) 455-5598","42.624917","-71.359218","Restaurants",
"Ostra","1","1 Charles St S","Boston","MA","(857) 233-5533","42.351108","-71.0673","Restaurants",
"Tuckaway Tavern & Butchery","58","58 Route 27","Raymond","NH","(603) 244-2431","43.038832","-71.164213","Restaurants",
"J & B Seafood","66","66 Cottage St","Everett","MA","(617) 852-2992","42.40667","-71.052605","Restaurants",
"Ninety Nine Restaurant & Pub","250","250 Granite St Ste B","Braintree","MA","(781) 849-9902","42.2220443","-71.0227762","Restaurants",
"Ninety Nine Restaurant & Pub","362","362 Turnpike St","Canton","MA","(781) 821-8999","42.1730086","-71.110677","Restaurants",
"Popeyes Louisiana Kitchen","330","330 Martin Luther King Blvd","Roxbury","MA","(617) 442-3545","42.318573","-71.082889","Restaurants",
"Nubar","16","16 Garden St","Cambridge","MA","(617) 234-1365","42.377144","-71.123173","Restaurants",
"Kumo Sushi","25","25 Indian Rock Rd Ste 15","Windham","NH","(603) 965-4390","42.806385","-71.296024","Restaurants",
"Ck Pearl","112","112 Main St","Essex","MA","(978) 890-7378","42.631085","-70.775327","Restaurants",
"Alfredo's Italian Kitchen","425","425 Lynnway","Lynn","MA","(781) 584-4954","42.456785","-70.953705","Restaurants",
"Seafood Restaurant","560","560 Moody St","Waltham","MA","(781) 891-8880","42.3666214","-71.2376629","Restaurants",
"Franklin Oyster House","148","148 Fleet St","Portsmouth","NH","(603) 373-8500","43.0767267","-70.7593875","Restaurants",
"Castle Kreek Cookhouse","234","234 John Wise Ave","Essex","MA","(978) 890-7325","42.652182","-70.804088","Restaurants",
"Tata Seafood","25","25 Tyler St","Boston","MA","(617) 338-8770","42.3506992","-71.0609054","Restaurants",
"Alfredo Italian Kitchen","691","691 Cambridge St","Cambridge","MA","(617) 491-8292","42.3722388","-71.0881591","Restaurants",
"Great Road Kitchen","613","613 Constitution Ave","Littleton","MA","(978) 952-7333","42.5516794905092","-71.4796976025554","Restaurants",
"Sea Glass Restaurant","141","141 Essex Ave","Gloucester","MA","(978) 515-7386","42.6148524","-70.6873359","Restaurants",
"Elm Square Oyster Co","2","2 Elm Sq","Andover","MA","(978) 470-2228","42.657028","-71.140477","Restaurants",
"Tailgaters Grille","166","166 Great Rd","Acton","MA","(978) 429-8146","42.485311","-71.417117","Restaurants",
"Livingstone's Seafood & Deli","265","265 Boston Rd","North Billerica","MA","(978) 362-1247","42.5758864","-71.2839457","Restaurants",
"Maplewood Fish Market","689","689 Salem St","Malden","MA","(781) 322-5200","42.433434","-71.045684","Restaurants",
"Shaking Crab","203","203 Adams St","Newton","MA","(617) 795-1630","42.358028","-71.199999","Restaurants",
"Columbus Fish & Oyster LLC","41","41 Belvidere St","Boston","MA","(617) 421-1201","42.3460373","-71.0853012","Restaurants",
"Pier Six","1","1 8th St","Charlestown","MA","(617) 337-0054","42.3755550825636","-71.0534340380817","Restaurants",
"Short and Main","36","36 Main St","Gloucester","MA","(978) 281-0044","42.6120224","-70.6655856","Restaurants",
"Row 34","5","5 Portwalk Pl","Portsmouth","NH","(603) 294-0168","43.0774696992812","-70.7606694203401","Restaurants",
"Bbs Bar and Grill","2424","2424 Cranberry Hwy","Wareham","MA","(774) 678-4215","41.7803659","-70.7429764","Restaurants",
"Luke's Lobster","75","75 Exeter St","Boston","MA","(857) 350-4626","42.3485582","-71.0792442","Restaurants",
"Ming Seafood Restaurant","19","19 Pleasant St","Malden","MA","(781) 321-3888","42.4268056","-71.0677326","Restaurants",
"Martinez Seafood Inc","212","212 Northern Ave Ste 305","Boston","MA","(857) 350-3483","42.350476","-71.038265","Restaurants",
"Serafina","10","10 High St","Boston","MA","(617) 426-1234","42.3535473","-71.0567312","Restaurants",
"Marina Restaurant & Bar at the Wharf","543","543 N Shore Rd","Revere","MA","(781) 629-3798","42.431718","-70.977942","Restaurants",
"En Fuego Cocina Mexicana","141","141 High St","Ipswich","MA","(978) 312-1088","42.69088","-70.85208","Restaurants",
"Ibasaw","95","95 Middlesex St","Malden","MA","(781) 338-0810","42.423924","-71.069801","Restaurants",
"Clam Shack","200","200 Fort Ave","Salem","MA","(978) 741-2526","42.535498","-70.869252","Restaurants",
"Il Molo","100","100 N Beacon St","Allston","MA","(857) 277-1895","42.3543785","-71.1431516","Restaurants",
"Legal Sea Foods","558","558 Washington St","Boston","MA","(617) 692-8888","42.353414","-71.061988","Restaurants",
"Long John Silver's","322","322 S Broadway","Salem","NH","(603) 890-3514","42.755092","-71.209613","Restaurants",
"Louis","1269","1269 Sea St","Quincy","MA","(617) 481-1980","42.27134","-70.951418","Restaurants",
"Maggie's Farm","119","119 S Main St","Middleton","MA","(978) 539-8583","42.5862331","-71.0100274","Restaurants",
"Mile Marker One","75","75 Essex Ave","Gloucester","MA","(978) 283-2122","42.6121549","-70.6813221","Restaurants",
"Select Oyster Bar","50","50 Gloucester St","Boston","MA","(857) 239-8064","42.3486033","-71.0841042","Restaurants",
"Ward 8","90","90 N Washington St Fl 1","Boston","MA","(617) 823-4478","42.365406","-71.05866","Restaurants",
"Blue Smoke","1132","1132 Blue Hill Ave","Dorchester Center","MA","(617) 436-0000","42.285433","-71.0906679","Restaurants",
"GoGo on the Ocean","561","561 Shirley St","Winthrop","MA","(617) 846-8866","42.370587","-70.970649","Restaurants",
"Bellas Inc","1211","1211 Osgood St Ste 1","North Andover","MA","(978) 258-1123","42.719627","-71.111215","Restaurants",
"Jb Seafood","187","187 Ocean Blvd","Hampton","NH","(603) 926-1420","42.910224","-70.81087","Restaurants",
"Sea Level Oyster Bar","94","94 Wharf St","Salem","MA","(978) 741-0555","42.51975","-70.888","Restaurants",
"Shaking Crab","18","18 Cottage Ave","Quincy","MA","(617) 481-0054","42.2487289421249","-71.0014555591861","Restaurants",
"Bencotto","361","361 Hanover St","Boston","MA","(857) 233-4088","42.364658","-71.053371","Restaurants",
"Popeyes Louisiana Kitchen","180","180 Boston St","Lynn","MA","(781) 215-6936","42.4711685","-70.9585994","Restaurants",
"Wright John B Fish Co Inc","1","1 Fleetwoods Dr","Gloucester","MA","(978) 281-6692","42.6131989","-70.6877436","Restaurants",
"Luke's Lobster","53","53 Northern Ave","Boston","MA","(617) 848-0911","42.353126","-71.047221","Restaurants",
"Harborside Grill and Patio","101","101 Harborside Dr","East Boston","MA","(617) 568-6060","42.35906","-71.027097","Restaurants",
"Jimmy Jones Locker","531","531 Columbus Ave","Rochester","NH","(603) 332-9447","43.2995984","-70.9731096","Restaurants",
"EBC Boston","42","42 South St","Hopkinton","MA","N/A","42.209945","-71.549297","Restaurants",
"Legal Sea Foods","4","4 S Market St","Boston","MA","(617) 896-5295","42.3600171438771","-71.0558218133899","Restaurants",
"Bait To Plate","1504","1504 Dorchester Ave","Dorchester","MA","(617) 297-5744","42.2993773","-71.0602212","Restaurants",
"Shaking Crab","250","250 Harvard St","Brookline","MA","(617) 383-5182","42.3413929","-71.121225","Restaurants",
"Bonefish Harry's","45","45 Lewis St","Lynn","MA","(781) 790-4545","42.466702","-70.927524","Restaurants",
"Black & Blue Steak And Crab Burlington Ma","400","400 District Ave","Burlington","MA","(781) 365-1626","42.4838552","-71.2111558","Restaurants",
"King Lobster Restaurant","125","125 Hampshire St","Lawrence","MA","(978) 655-8057","42.708443","-71.166266","Restaurants",
"Hook and Reel Cajun Seafood Restaurant and Bar","151","151 Vfw Pkwy","Revere","MA","(781) 629-1919","42.4105309","-70.9947588","Restaurants",
"Trident Galley Raw Bar","23","23 Shipyard Dr","Hingham","MA","(781) 374-7225","42.2519526","-70.9215987","Restaurants",
"Ninety Nine Restaurant & Pub","233","233 Broad St","Bridgewater","MA","(508) 279-2799","41.994113","-70.972845","Restaurants",
"99 Restaurants LLC","14A","14a Gill St","Woburn","MA","(781) 933-8999","42.5093066269214","-71.1469071586039","Restaurants",
"Atlantic Lobster International","27","27 Harbor Loop","Gloucester","MA","(978) 281-3888","42.6113789","-70.6591317","Restaurants",
"Popeyes Louisiana Kitchen","694","694 Crescent St","Brockton","MA","(774) 223-5059","42.0812260736369","-70.9911729174188","Restaurants",
"Cafe Italia Trattoria","10","10 School St","Marblehead","MA","(781) 631-5700","42.501586","-70.856304","Restaurants",
"Ecco Trattoria","1167","1167 Main St","South Weymouth","MA","(781) 335-5600","42.1642252","-70.9556582","Restaurants",
"Good Thymes Restaurant","1278","1278 Gorham St Ste 3","Lowell","MA","(978) 441-2799","42.6211367","-71.3050049","Restaurants",
"Isabellas Restaurant","566","566 High St","Dedham","MA","(781) 461-8485","42.247863","-71.172752","Restaurants",
"Olde School Cafe","65","65 School St","Pembroke","MA","(781) 293-0480","42.0412807","-70.8372441","Restaurants",
"Kyoto Japanese Restaurant","1487","1487 Main St Ste 3","Tewksbury","MA","(978) 863-9889","42.599106","-71.221092","Restaurants",
"China Roma","258","258 Broadway","Revere","MA","(781) 289-2670","42.407596","-71.014174","Restaurants",
"Nick's Place","171","171 Route 27","Raymond","NH","(603) 895-4114","43.0408029","-71.199198","Restaurants",
"Fishn Chicken","110","110 Willard St","Quincy","MA","(617) 770-0106","42.251591","-71.036253","Restaurants",
"Wardhurst Grille","31","31 Lynnfield St","Peabody","MA","(978) 531-9730","42.517179","-70.94629","Restaurants",
"Barnacle Restaurant Inc","141","141 Front St","Marblehead","MA","(781) 631-4236","42.5068369317386","-70.844424885149","Restaurants",
"Hulls Kitchen","19","19 Hull Shore Dr","Hull","MA","(781) 925-0225","42.274278","-70.8608046","Restaurants",
"Generations Banquet Hall","81","81 Memorial Dr","Avon","MA","(508) 588-9955","42.118911","-71.032161","Restaurants",
"Franklin Cafe Cape Ann","118","118 Main St","Gloucester","MA","(978) 283-7888","42.6126723","-70.6635781","Restaurants",
"Green Tea Chinese Restaurant","751","751 Lynnway","Lynn","MA","(781) 595-2100","42.449887","-70.964181","Restaurants",
"Wood's Seafood","15","15 Town Wharf","Plymouth","MA","(508) 746-0261","41.9620124","-70.6663877","Restaurants",
"Heberts Seafood & Steak Restaurant","1500","1500 Lafayette Rd Ste 8","Portsmouth","NH","(603) 431-5882","43.0449239","-70.7743385","Restaurants",
"Captain Marden's","279","279 Linden St","Wellesley","MA","(781) 235-3737","42.301972","-71.288048","Restaurants",
"Gregs Restaurant","821","821 Mount Auburn St","Watertown","MA","(617) 491-0122","42.374285","-71.150545","Restaurants",
"Blu Restaurant","4","4 Avery St","Boston","MA","(617) 375-8550","42.3530863","-71.0629214","Restaurants",
"Ponte Vecchio Restaurant & Lounge","435","435 Newbury St Ste 101","Danvers","MA","(978) 777-9188","42.599932","-70.959022","Restaurants",
"Superior Roast Beef","200","200 Lynnfield St","Lynn","MA","(781) 599-3223","42.491011","-70.971847","Restaurants",
"Sushi House","794","794 Elm St","Concord","MA","(978) 369-8856","42.465571","-71.389277","Restaurants",
"Atlantic Sea Grill","77","77 Great Rd","Acton","MA","(978) 263-3162","42.477901","-71.411234","Restaurants",
"Farnhams J & TS Seafood & Grill","88","88 Eastern Ave","Essex","MA","(978) 768-6643","42.633044","-70.762776","Restaurants",
"Imperial Garden","811","811 Washington St","Hanover","MA","(781) 826-3842","42.128241","-70.830585","Restaurants",
"Nate's at Front Beach","18","18 Beach St","Rockport","MA","(978) 546-0055","42.6592069","-70.6221437","Restaurants",
"Ninety Nine Restaurant & Pub","847","847 W Central St","Franklin","MA","(508) 520-9909","42.090783","-71.431641","Restaurants",
"Kims Fish Market","551","551 Washington St","Dorchester Center","MA","(617) 282-6142","42.2925303","-71.0719814","Restaurants",
"Mission Oak Grill","26","26 Green St","Newburyport","MA","(978) 463-9009","42.810625","-70.873033","Restaurants",
"Ninety Nine Restaurant & Pub","166","166 Church St","Pembroke","MA","(781) 829-9912","42.1084033","-70.7685508","Restaurants",
"Lobster Boat Restaurant","75","75 Portsmouth Ave Ste 15","Exeter","NH","(603) 583-5183","42.985076","-70.9369679","Restaurants",
"O Sushi","1","1 Eliot St","Cambridge","MA","(617) 945-9450","42.3726822","-71.1212797","Restaurants",
"Victor's Italian Cuisine","1539","1539 Broadway","Saugus","MA","(781) 558-5210","42.45451","-71.023878","Restaurants",
"Demeter's Steakhouse","3612","3612 Lafayette Rd","Portsmouth","NH","(603) 766-0001","43.018495","-70.80159","Restaurants",
"All American Tavern","34","34 Bridge Rd","Salisbury","MA","(978) 499-7100","42.836884","-70.861624","Restaurants",
"Fish","29","29 S Bolton St","Marlborough","MA","(508) 460-3474","42.346128","-71.546507","Restaurants",
"Cupboard of Gloucester","41","41 Hough Ave","Gloucester","MA","(978) 281-1908","42.603646","-70.680892","Restaurants",
"Renzo Pizzaria","381","381 Revere Beach Blvd","Revere","MA","(781) 284-5600","42.4225001","-70.9847602","Restaurants",
"Alive & Kicking Lobsters","269","269 Putnam Ave","Cambridge","MA","(617) 876-0451","42.362661","-71.113805","Restaurants",
"New Ginza Japanese Restaurant","65","65 Galen St","Watertown","MA","(617) 923-2100","42.363433","-71.186399","Restaurants",
"M & M Seafood","184","184 N Main St","Brockton","MA","(508) 857-0692","42.0891864725586","-71.0194931955719","Restaurants",
"Tavern at Rivers Edge","163","163 Water St Frnt","Exeter","NH","(603) 772-7393","42.981894","-70.947989","Restaurants",
"Woodman's Restaurant & Clambake Catering","121","121 Main St","Essex","MA","(978) 768-6057","42.63024","-70.774645","Restaurants",
"Liberty Bell Famous Roast Beef Seafood","894","894 Main St","Wakefield","MA","(781) 246-1155","42.483943","-71.066813","Restaurants",
"Ikes Seafood and Grille","63","63 Revere Beach Blvd","Revere","MA","(781) 629-3482","42.4058267","-70.9916629","Restaurants",
"Dolphin Seafood","12","12 Washington St","Natick","MA","(508) 655-0669","42.284774","-71.346597","Restaurants",
"Salt Water Grille","226","226 Washington St","Gloucester","MA","(978) 879-4244","42.620976","-70.6762145","Restaurants",
"Portofino Restaurant","157","157 Pleasant St","Malden","MA","(781) 324-1163","42.427755","-71.07115","Restaurants",
"Sea Level Oyster Bar","1","1 Market Sq","Newburyport","MA","(978) 462-8862","42.8124066348669","-70.8744326574929","Restaurants",
"Abseafood","18","18 Newmarket Sq","Boston","MA","(617) 318-1602","42.32975","-71.064803","Restaurants",
"Ninety Nine Restaurant & Pub","100","100 Macy St","Amesbury","MA","(978) 378-5699","42.847264","-70.911472","Restaurants",
"Legal Sea Foods","15","15 Columbus","Boston","MA","(617) 426-7777","42.3514936917663","-71.0685054453527","Restaurants",
"Kitchens Seafood","380","380 Main St","Stoneham","MA","(781) 435-2058","42.4795","-71.100032","Restaurants",
"Legal Sea Foods","55","55 Boylston St","Brookline","MA","(617) 735-1858","42.3315478","-71.1191653","Restaurants",
"Popeyes Louisiana Kitchen","572","572 Washington St","Dorchester Center","MA","(617) 514-4316","42.291594","-71.07147","Restaurants",
"Currents Seafood And Spirits","150","150 Lafayette Rd","Rye","NH","(603) 964-0974","43.0093642","-70.8050292","Restaurants",
"Chart House","77","77 Warren St","Brighton","MA","(617) 254-5636","42.3490373","-71.1426612","Restaurants",
"Blue Ribbon Barbecue Inc","1375","1375 Washington St","West Newton","MA","(617) 332-2583","42.3487164","-71.2293325","Restaurants",
"Christopher's 3rd St Grill","16","16 3rd St","Dover","NH","(603) 740-0044","43.1983410742244","-70.8751201006776","Restaurants",
"Dolphin Striker","15","15 Bow St","Portsmouth","NH","(603) 431-5222","43.0784379177827","-70.7573427147527","Restaurants",
"Riverbend Bar & Grill","2345","2345 Commonwealth Ave","Auburndale","MA","(617) 969-1000","42.3463801","-71.2582198","Restaurants",
"Bradford Seafood Restaurant & Fish Market","124","124 Winter St","Haverhill","MA","(978) 373-6597","42.777598","-71.082054","Restaurants",
"Mango That Cuisine","115","115 Elm St","West Newton","MA","(617) 630-8101","42.34878","-71.229403","Restaurants",
"Dinatale Seafood","315","315 Court St","Plymouth","MA","(508) 591-8209","41.9741852","-70.6843214","Restaurants",
"My Place By The Sea Bear Skin Neck","68","68 Bearskin Nck","Rockport","MA","(978) 546-9667","42.6608503","-70.6145212","Restaurants",
"Green Harbor Lobster Pound","131","131 Beach St","Green Harbor","MA","(781) 834-4571","42.07954","-70.65124","Restaurants",
"Seawitch Lobster Co & Fish Market","203","203 Newbury St","Peabody","MA","(978) 535-3631","42.544597","-70.9841658","Restaurants",
"Clam Box","789","789 Quincy Shore Dr","Quincy","MA","(617) 773-6677","42.276266","-71.009298","Restaurants",
"Mamagoos Pizza & Sub Shop","6","6 Concord Ln","Cambridge","MA","(617) 354-9139","42.388057","-71.14219","Restaurants",
"Shish & Fish Restaurant","325","325 Granite St","Rockport","MA","(978) 546-6568","42.6881191","-70.6384794","Restaurants",
"Morton Seafood & Sub","896","896 Morton St","Mattapan","MA","(617) 287-1127","42.280972","-71.083969","Restaurants",
"Fins Sushi & Grill","636","636 Beacon St Ste A","Boston","MA","(617) 267-8888","42.349562","-71.095286","Restaurants",
"Upham House Pizzeria Trattoria","566","566 Columbia Rd","Dorchester","MA","(617) 282-7141","42.316565","-71.066098","Restaurants",
"Rollys Tavern On The Square","338","338 Broadway","Lynn","MA","(781) 599-2160","42.4850384","-70.9597526","Restaurants",
"Frenchs Restaurant","825","825 Main St","Tewksbury","MA","(978) 851-2111","42.614854","-71.241923","Restaurants",
"Highlands Pizza & Seafood Restaurant","1290","1290 Westford St","Lowell","MA","(978) 453-5100","42.626029","-71.358973","Restaurants",
"Adriatic Restaurant","155","155 Washington St Ste 1","Salem","MA","(978) 594-1832","42.520121","-70.895126","Restaurants",
"Mccormick & Schmicks Seafood","1","1 Faneuil Hall Market Pl","Boston","MA","(617) 720-5522","42.359767226036","-71.053461385707","Restaurants",
"Sushi Time Inc","7","7 Plaistow Rd Ste C","Plaistow","NH","(603) 382-8788","42.8171110623826","-71.1029479095527","Restaurants",
"Beach Plum Ice Cream Stand","17","17 Ocean Blvd","North Hampton","NH","(603) 964-7451","42.95505","-70.782512","Restaurants",
"Marias Pizzeria","932","932 Salem St","Malden","MA","(781) 324-9646","42.434476","-71.038341","Restaurants",
"Peteys Summertime Seafood & Bar","1209","1209 Ocean Blvd","Rye","NH","(603) 433-1937","43.0219490722817","-70.7336022388254","Restaurants",
"Sun Pizza","46","46 Washington St","Dorchester","MA","(617) 541-1991","42.307086","-71.082046","Restaurants",
"Hideaway Restaurant","9","9 Station St","Middleboro","MA","(508) 947-5188","41.892868","-70.917406","Restaurants",
"Italian Kitchen of Brockton","1071","1071 Main St","Brockton","MA","(508) 586-2100","42.0641762","-71.0159216","Restaurants",
"Royal Roast Beef & Seafood II","475","475 Main St","Stoneham","MA","(781) 438-7779","42.475759","-71.100956","Restaurants",
"InBoston","175","175 Massachusetts Ave","Boston","MA","(617) 982-7118","42.345828","-71.087367","Restaurants",
"Luke's Lobster","47","47 Winter St","Boston","MA","(857) 317-4839","42.356258","-71.061882","Restaurants",
"Nashoba Pizza","14","14 Central Ave","Ayer","MA","(978) 772-2736","42.559699","-71.584849","Restaurants",
"Franks Restaurant","265","265 N Pearl St","Brockton","MA","(508) 588-9604","42.098929","-71.065562","Restaurants",
"Demainos Restaurant","14","14 Malden St","Revere","MA","(781) 284-8110","42.416453","-71.008885","Restaurants",
"Sushi Man","387","387 Boylston St","Newton Center","MA","(617) 969-7878","42.3192801","-71.1845218","Restaurants",
"Top Dog","2","2 Doyle Cove Rd","Rockport","MA","(978) 546-0006","42.6600912","-70.6154933","Restaurants",
"Teds Place","642","642 Washington St","Whitman","MA","(781) 447-2100","42.082319","-70.938103","Restaurants",
"Petes Place","614","614 Washington St","Canton","MA","(781) 828-6960","42.154148","-71.146101","Restaurants",
"Imperial China","413","413 Worcester Rd","Framingham","MA","(508) 872-3939","42.298399","-71.412213","Restaurants",
"Legal Sea Foods","96","96 Derby St","Hingham","MA","(781) 556-0010","42.1800142540939","-70.9091882741177","Restaurants",
"Lee Circle Grocery","87","87 Calef Hwy","Lee","NH","(603) 868-3040","43.1509602074025","-71.0058502592388","Restaurants",
"Kipos Roast Beef","117","117 Water St","Wakefield","MA","(781) 246-1161","42.5024064","-71.0654361","Restaurants",
"Shanty Rose Pub","16","16 Town Wharf","Plymouth","MA","(508) 746-7673","41.962211","-70.66686","Restaurants",
"Ninety Nine Restaurant & Pub","659","659 Worcester Rd","Framingham","MA","(508) 626-3639","42.299191","-71.42439","Restaurants",
"Brazil On The Grill","696","696 Crescent St","Brockton","MA","(508) 588-6665","42.081892","-70.991268","Restaurants",
"Brothers Roast Beef & Seafood","89","89 Foster St","Peabody","MA","(978) 538-7333","42.5229203","-70.9304657","Restaurants",
"Alamo Roast Beef & Seafood","574","574 Broadway","Everett","MA","(617) 387-6567","42.410808","-71.052309","Restaurants",
"Sanders Fish Market","367","367 Marcy St","Portsmouth","NH","(603) 436-4568","43.0729169673855","-70.7503772561889","Restaurants",
"Cafe Assisi","667","667 South St Ste 5","Wrentham","MA","(508) 384-9400","42.050053","-71.345669","Restaurants",
"Mickey Cassidy's","116","116 Main St Ste 5","Medway","MA","(508) 533-1343","42.1507497","-71.4173589","Restaurants",
"Al's Seafood","51","51 Lafayette Rd","North Hampton","NH","(603) 964-9591","42.9691509","-70.835262","Restaurants",
"Flav's Red Skiff","15","15 Mount Pleasant St","Rockport","MA","(978) 546-7647","42.6534001","-70.612143","Restaurants",
"Seaport Seafood Market","714","714 Crescent St","Brockton","MA","(508) 584-4989","42.0820884","-70.9907501","Restaurants",
"Vee Vee","763","763 Centre St","Jamaica Plain","MA","(617) 522-0145","42.3104299","-71.115181","Restaurants",
"Sharons Seagrille","186","186 Ocean Blvd","Seabrook","NH","(603) 474-2618","42.877647","-70.8179959","Restaurants",
"Bubor Cha Cha","45","45 Beach St","Boston","MA","(857) 233-2478","42.351299","-71.060816","Restaurants",
"Jumbo Seafood of Newton Inc","10","10 Langley Rd Ste 101","Newton Center","MA","(617) 332-3600","42.33129","-71.193812","Restaurants",
"Ninety Nine Restaurant & Pub","59","59 Newport Ave","Quincy","MA","(617) 472-5000","42.2728958","-71.0285736","Restaurants",
"CJ's Northside Grill","911","911 Edgell Rd","Framingham","MA","(508) 877-5900","42.3301067287858","-71.4358067884307","Restaurants",
"Chowder Boston Cafe","1245","1245 Worcester St","Natick","MA","(508) 907-6228","42.3004711","-71.3857931","Restaurants",
"Francos Trattoria","365","365 Boston Post Rd Ste 102","Sudbury","MA","(978) 443-3494","42.361644","-71.416746","Restaurants",
"Yen Ching Restaurant","347","347 Woburn St","Lexington","MA","(617) 547-1130","42.449814","-71.197659","Restaurants",
"Chickie Flynns","94","94 Washington St","Foxboro","MA","(508) 203-9471","42.0846177","-71.2756954","Restaurants",
"Daily Catch","21","21 Drydock Ave","Boston","MA","(617) 772-4400","42.3442717","-71.0309395","Restaurants",
"Sushi Time II","11","11 Vernon St","Quincy","MA","(617) 328-8887","42.2367839","-71.0148306","Restaurants",
"North Beach Bar & Grille","931","931 Ocean Blvd","Hampton","NH","(603) 967-4884","42.94158","-70.794456","Restaurants",
"Freds Seafood","49","49 N Main St","Randolph","MA","(781) 963-9824","42.163764","-71.041921","Restaurants",
"Chestnut Hill Restaurant","616","616 Hammond St","Chestnut Hill","MA","(617) 738-8654","42.323077","-71.163217","Restaurants",
"T J Spirits South","355","355 W Union St","Ashland","MA","(508) 881-1565","42.2415216536806","-71.4860054813043","Restaurants",
"Colonial House Restaurant","33","33 Savin Ave","Norwood","MA","(781) 762-3000","42.1810716","-71.2065101","Restaurants",
"Emmas Pub & Pizza","1420","1420 Pleasant St","Bridgewater","MA","(508) 697-8815","41.968185","-71.021269","Restaurants",
"Village Sushi & Grill","14","14 Corinth St","Roslindale","MA","(617) 363-7874","42.286493","-71.1301019","Restaurants",
"Stashs Pizza","612","612 Blue Hill Ave","Dorchester","MA","(617) 282-9200","42.303217","-71.084897","Restaurants",
"Roy Moore Lobster Co See Moore Roy Lobster Co","39","39 Bearskin Nck","Rockport","MA","(978) 546-6696","42.6596641","-70.6157018","Restaurants",
"China Gourmet","146","146 Front St Ste 102","Scituate","MA","(781) 545-4888","42.195538","-70.724746","Restaurants",
"Harrys Pizza","405","405 Sea St","Quincy","MA","(617) 479-8270","42.261724","-70.984214","Restaurants",
"Hale St Tavern & Oyster Bar","717","717 Hale St","Beverly","MA","(978) 922-9232","42.5620382","-70.814533","Restaurants",
"Conrads Restaurant","728","728 Washington St","Norwood","MA","(781) 769-3883","42.1918223","-71.2016706","Restaurants",
"Ember","459","459 Plain St","Marshfield","MA","(781) 834-9159","42.103909","-70.734588","Restaurants",
"Tonys Clam Shop","861","861 Quincy Shore Dr","Quincy","MA","(617) 773-5090","42.275204","-71.005945","Restaurants",
"Cafe Sushi","1105","1105 Massachusetts Ave Ste 3","Cambridge","MA","(617) 492-0434","42.370762","-71.113425","Restaurants",
"Sushi Express","1038","1038 Beacon St Ste 3","Brookline","MA","(617) 738-5658","42.346102","-71.108626","Restaurants",
"Baystate Chowda","109","109 Main St","North Andover","MA","(978) 685-9610","42.702742","-71.131791","Restaurants",
"Dracut House of Pizza","1067","1067 Lakeview Ave","Dracut","MA","(978) 957-4210","42.6642052","-71.3209806","Restaurants",
"Schooners","157","157 Nantasket Ave","Hull","MA","(781) 925-5200","42.267801","-70.852465","Restaurants",
"Ichiro Sushi","538","538 Adams St","Milton","MA","(617) 698-8832","42.258377","-71.04075","Restaurants",
"Euno Restaurante","119","119 Salem St","Boston","MA","(617) 573-9406","42.364538","-71.055365","Restaurants",
"Drydock Cafe","7","7 Drydock Ave","Boston","MA","(617) 951-2999","42.3443047","-71.036125","Restaurants",
"Ivy Cafe","185","185 Harvard Ave","Allston","MA","(617) 202-3808","42.3509353","-71.1315302","Restaurants",
"Summer Street Grille","653","653 Summer St","Boston","MA","(617) 269-2200","42.3403941","-71.0431418","Restaurants",
"Lobster Tail Restaurant & Fish Market","1081","1081 Osgood St","North Andover","MA","(978) 682-7713","42.7156631","-71.1133589","Restaurants",
"Yankee Lobster Co","300","300 Northern Ave","Boston","MA","(617) 345-9799","42.3478535","-71.0359425","Restaurants",
"Fieldston Restaurant","882","882 Ocean St","Marshfield","MA","(781) 834-2909","42.10578","-70.664722","Restaurants",
"J & JS Seafood Drive In","197","197 County St","Lakeville","MA","(508) 763-5977","41.7964374","-70.9558797","Restaurants",
"La Frontera Restaurant","290","290 Bennington St Ste 1","East Boston","MA","(617) 569-8600","42.3789957","-71.0285918","Restaurants",
"Lobster Shanty","25","25 Front St","Salem","MA","(978) 745-5449","42.5203832159034","-70.8945267438225","Restaurants",
"Hammersmith Family Restaurant","330","330 Central St","Saugus","MA","(781) 233-8089","42.462723","-71.009379","Restaurants",
"Ipswich Catering","8","8 Hayward St","Ipswich","MA","(978) 356-6941","42.6742411","-70.842736","Restaurants",
"Three Cod Tavern","141","141 Pleasant St","Marblehead","MA","(781) 639-3263","42.500849","-70.858123","Restaurants",
"Mullaneys Fish Market","754","754 Chief Justice Cushing Hwy","Cohasset","MA","(781) 383-1181","42.2224568","-70.8031066","Restaurants",
"Liberty Bell Famous Roast Beef & Seafood","219","219 Main St","Stoneham","MA","(781) 279-2000","42.487286","-71.10041","Restaurants",
"Dparma Restaurant","467","467 Shirley St","Winthrop","MA","(617) 846-5867","42.372907","-70.971537","Restaurants",
"Captain Fish Bones","332","332 Victory Rd","Quincy","MA","(617) 471-3511","42.299428","-71.030382","Restaurants",
"Oriental Garden","436","436 Central Ave","Dover","NH","(603) 742-5611","43.1972229","-70.8743797","Restaurants",
"Dimitrios Cuisine","272","272 Brookline St","Cambridge","MA","(617) 876-3272","42.357418","-71.107731","Restaurants",
"Cape Cod Lobster Rolls","239","239 Onset Ave","Onset","MA","(508) 743-7020","41.74868","-70.66631","Restaurants",
"Legal Sea Foods","10","10 City Sq","Charlestown","MA","(617) 712-1988","42.372293","-71.0616905","Restaurants",
"Legal Sea Foods","30","30 Forbes Rd","Braintree","MA","(781) 817-1292","42.220455","-71.030511","Restaurants",
"Legal Sea Foods","301","301 Great River Rd","Somerville","MA","(617) 337-4088","42.3958926755851","-71.0810489634562","Restaurants",
"Sunset Tiki Bar and Grill","79","79 Powers Rd","Westford","MA","(978) 692-5700","42.5424268651643","-71.4406472669526","Restaurants",
"Out of The Blue Restaurant","215","215 Elm St","Somerville","MA","(617) 776-5020","42.394495","-71.121006","Restaurants",
"Snug Harbor Fish Co","459","459 Washington St","Duxbury","MA","(781) 934-8167","42.0387062","-70.6712688","Restaurants",
"Off The Boat Seafood","306","306 Revere St","Revere","MA","(617) 561-8800","42.4183635","-70.9990198","Restaurants",
"Rockyneck Fish Co","10","10 Bassett St Ste 6","Milton","MA","(617) 698-7625","42.2601121","-71.0408713","Restaurants",
"Haleys Package Store","112","112 Washington St","Marblehead","MA","(781) 631-0169","42.504659","-70.849825","Restaurants",
"Jimmy Jones Locker","53","53 Columbus Ave","Rochester","NH","(603) 332-9447","43.3075981793993","-70.9759156977319","Restaurants",
"Pier View Restaurant","201","201 Onset Ave","Onset","MA","(508) 295-5968","41.74868","-70.66631","Restaurants",
"Thai Choice Restaurant","272","272 Main St","Gloucester","MA","(978) 281-8118","42.6152621","-70.6587332","Restaurants",
"James Hook & Co","440","440 Atlantic Ave","Boston","MA","(617) 982-2658","42.3547629134401","-71.0511565814497","Restaurants",
"Bracketts Oceanview Restaurant","25","25 Main St","Rockport","MA","(978) 546-2797","42.658468","-70.618477","Restaurants",
"Nikos Place Roastbeef & Seafood","194","194 Elm St","Salisbury","MA","(978) 463-8887","42.844498","-70.895785","Restaurants",
"Blue-Eyed Crab Grille & Raw Bar","170","170 Water St","Plymouth","MA","(508) 747-6776","41.962261","-70.669361","Restaurants",
"Mcmenamy Seafood","810","810 Belmont St","Brockton","MA","(508) 586-1122","42.067421","-71.050337","Restaurants",
"Banner Pub","167","167 Union St","Rockland","MA","(781) 878-8717","42.1269639","-70.914519","Restaurants",
"Las Vegas Seafood Restaurant","6","6 Maple St","Hyde Park","MA","(617) 364-2772","42.255759","-71.121998","Restaurants",
"Davids Pizza","218","218 W Squantum St","Quincy","MA","(617) 801-2121","42.269743","-71.033951","Restaurants",
"China Chef Restaurant","92","92 Torrey St Ste 4","Brockton","MA","(508) 583-8898","42.073613","-71.045647","Restaurants",
"Boston & Maine Fish Co","1","1 Faneuil Hall Market Pl","Boston","MA","(617) 723-4111","42.359767226036","-71.053461385707","Restaurants",
"Sushi Time","417","417 Washington St Ste 1","Boston","MA","(617) 292-7610","42.355816","-71.060373","Restaurants",
"Court House Seafoods Inc","484","484 Cambridge St","Cambridge","MA","(617) 876-6716","42.371412","-71.084384","Restaurants",
"Siam Delight Thai Cuisine","128","128 Cabot St","Beverly","MA","(978) 922-8514","42.546418","-70.8800664","Restaurants",
"Fresh Pond Seafood","75","75 Summer St","Arlington","MA","(781) 777-1784","42.419271","-71.156474","Restaurants",
"Ipswich Clambake Lobster & Seafood Co","196","196 High St","Ipswich","MA","(978) 356-2050","42.692273","-70.859769","Restaurants",
"Fiorellas","187","187 North St","Newtonville","MA","(617) 969-9990","42.365247","-71.218192","Restaurants",
"Pizza Place","210","210 Boston Rd","Chelmsford","MA","(978) 256-2721","42.579253","-71.339956","Restaurants",
"Irie Jamaican Style Restaurant","23","23 Johnston Rd","Dorchester Center","MA","(617) 929-3866","42.2875804","-71.0914214","Restaurants",
"Charlies Seafood","188","188 Essex St","Lynn","MA","(781) 595-8953","42.471659","-70.933851","Restaurants",
"World Seafood Processing","400","400 Dorchester Ave","South Boston","MA","(617) 269-1010","42.3349012","-71.0563249","Restaurants",
"Hong Kong Kitchen","9","9 Railroad Ave","Rockport","MA","(978) 546-2626","42.6552213","-70.6246482","Restaurants",
"Lobster Barn","996","996 Hancock St","Abington","MA","(781) 871-2433","42.1348975","-70.9759009","Restaurants",
"Broken Yolk Restaurant","251","251 Broadway Ste 5","Malden","MA","(781) 397-0628","42.431848","-71.039299","Restaurants",
"Court House Seafood Restaurant","498","498 Cambridge St","Cambridge","MA","(617) 491-1213","42.3714271","-71.0843329","Restaurants",
"Eastern Standard","528","528 Commonwealth Ave","Boston","MA","(617) 532-9100","42.348478","-71.095651","Restaurants",
"Jimbos Famous Roast Beef & Seafood","40","40 Bow St","Somerville","MA","(617) 623-9068","42.381468","-71.097887","Restaurants",
"Fishermans Net","1","1 Faneuil Hall Market Pl","Boston","MA","(617) 742-2872","42.359767226036","-71.053461385707","Restaurants",
"Chinatown Restaurant","1455","1455 Commercial St","East Weymouth","MA","(781) 335-4828","42.214797","-70.92276","Restaurants",
"Daily Catch","441","441 Harvard St","Brookline","MA","(617) 734-2700","42.346136","-71.1277099","Restaurants",
"Windward Grille Restaurant","109","109 Eastern Ave","Essex","MA","(978) 768-0050","42.63076","-70.760224","Restaurants",
"Ristorante Fiore","250","250 Hanover St","Boston","MA","(617) 371-1176","42.363567","-71.0549939","Restaurants",
"Mikeys Famous Roastbeef & Seafood","729","729 Boston Rd","Billerica","MA","(978) 262-9933","42.534736","-71.236909","Restaurants",
"Nicks Pizza & Seafood","1143","1143 Blue Hill Ave","Dorchester Center","MA","(617) 282-8805","42.28549","-71.091346","Restaurants",
"Prime Roast Beef Seafood Inc","321","321 Marrett Rd","Lexington","MA","(781) 538-5870","42.435911","-71.235774","Restaurants",
"Alexs Roast Beef Pizza & Seafood","53","53 Main St","Topsfield","MA","(978) 887-1222","42.6401555","-70.9497675","Restaurants",
"Classic Pizza","72","72 Hosmer St Ste 2","Marlborough","MA","(508) 485-6999","42.35403","-71.533308","Restaurants",
"On The Rocks Tavern","42","42 Court St","Plymouth","MA","(508) 732-8919","41.9580998","-70.6672614","Restaurants",
"Mr Dooleys Boston Tavern","77","77 Broad St","Boston","MA","(617) 338-5656","42.3576607","-71.0536408","Restaurants",
"Satuit Tavern","39","39 Jericho Rd","Scituate","MA","(781) 545-2500","42.2010154","-70.7276461","Restaurants",
"Sushi Corner","18","18 Essex St Ste C","Melrose","MA","(781) 662-2349","42.456179","-71.065341","Restaurants",
"Fishermans Restaurant","870","870 East St","Dedham","MA","(781) 326-0412","42.232559","-71.159845","Restaurants",
"Hana Sushi","2372","2372 Massachusetts Ave","Cambridge","MA","(617) 868-2121","42.3966399","-71.1298327","Restaurants",
"Jimmys Famous Beef & Seafood","71","71 High St","Danvers","MA","(978) 774-9748","42.5618074","-70.9329269","Restaurants",
"Avana Sushi III","589","589 Main St","Reading","MA","(781) 942-0069","42.5233633","-71.1028123","Restaurants",
"Lobster Tail Restaurant & Fish","4","4 Cobbetts Pond Rd Unit 2","Windham","NH","(603) 890-5555","42.792701","-71.305105","Restaurants",
"Harbor Pacific","239","239 Meridian St","East Boston","MA","(617) 567-1088","42.3757949","-71.038973","Restaurants",
"Hong Kong Harbor Restaurant","5","5 Maverick Sq","East Boston","MA","(617) 569-3855","42.368885","-71.039283","Restaurants",
"Vaughan Fish & Chips","1","1 Erie St","Dorchester","MA","(617) 825-1194","42.303192","-71.078851","Restaurants",
"Star Fish Market","3089","3089 Washington St","Roxbury","MA","(617) 524-8711","42.315487","-71.099072","Restaurants",
"Village Roast Beef & Seafood","10","10 Bessom St","Marblehead","MA","(781) 639-4433","42.500218","-70.859277","Restaurants",
"Alamo Roast Beef & Seafood","21","21 Salem St","Medford","MA","(781) 396-2434","42.418239","-71.108643","Restaurants",
"Fishmonger","252","252 Huron Ave","Cambridge","MA","(617) 661-4834","42.3813522","-71.1338569","Restaurants",
"Chestnut Garden Apartments","35","35 Revere Beach Pkwy","Medford","MA","(925) 510-2142","42.404031","-71.078852","Restaurants",
"Peoples Choice Seafood & Roast Beef","17","17 Market Sq","Lynn","MA","(781) 599-0491","42.463169","-70.963884","Restaurants",
"Bobolas Family Restaurant","1420","1420 Lakeview Ave","Dracut","MA","(978) 957-0065","42.672485","-71.33217","Restaurants",
"Sea Lion Sushi","100","100 Independence Way Ste B10","Danvers","MA","(978) 774-5976","42.552383","-70.940218","Restaurants",
"Exchange Street Bistro","67","67 Exchange St","Malden","MA","(781) 322-0071","42.426552","-71.069472","Restaurants",
"Lobster Claw II","4","4 S Main St","Derry","NH","(603) 437-2720","42.891525","-71.31117","Restaurants",
"Neptune Oyster","63","63 Salem St Ste 1","Boston","MA","(617) 742-3474","42.363232","-71.055943","Restaurants",
"East Dedham Pizzeria","234","234 Bussey St","Dedham","MA","(781) 461-8555","42.248849","-71.154264","Restaurants",
"Rock Bottom Seafood","2234","2234 State Rd","Plymouth","MA","(508) 888-6678","41.822693","-70.549936","Restaurants",
"Petrillos Italian Kitchen","6","6 Foster St","Peabody","MA","(978) 977-5330","42.5253734","-70.9273253","Restaurants",
"Mimi's Roast Beef & Seafood","205","205 Centre St","Malden","MA","(718) 325-1443","42.424996","-71.067372","Restaurants",
"China Express","112","112 Main St Ste 10","Pepperell","MA","(978) 433-8395","42.665302","-71.578497","Restaurants",
"Maki Sushi","43","43 Main St","Peabody","MA","(978) 854-5426","42.524565","-70.9253841","Restaurants",
"Steamers","311","311 Watertown St","Newton","MA","(617) 244-9155","42.361199","-71.199173","Restaurants",
"China House","331","331 Hanover St","Boston","MA","(617) 723-9888","42.364201","-71.053824","Restaurants",
"Moultons","178","178 Winthrop St","Medford","MA","(781) 396-6466","42.416462","-71.118675","Restaurants",
"Hingham Lobster Pound","4","4 Broad Cove Rd","Hingham","MA","(781) 749-1984","42.250894","-70.892789","Restaurants",
"Windham House of Pizza","58","58 Range Rd Ste 7","Windham","NH","(603) 893-8832","42.805485","-71.263429","Restaurants",
"South China Gourmet","187","187 South Ave","Whitman","MA","(781) 447-6833","42.0808024473009","-70.9309110847682","Restaurants",
"Lupos Italian Kitchen & Pizzeria","647","647 Lowell St","Peabody","MA","(978) 535-0411","42.5506648","-71.0018917","Restaurants",
"Nantasket Seafood","533","533 Nantasket Ave","Hull","MA","(781) 925-2803","42.283088","-70.874188","Restaurants",
"Burkes Seafood","61","61 Billings Rd","Quincy","MA","(617) 479-1540","42.273864","-71.024309","Restaurants",
"Victoria Seafood Restaurant","1029","1029 Commonwealth Ave","Boston","MA","(617) 783-5111","42.3521422","-71.1218081","Restaurants",
"Charlies Roast Beef","152","152 S Main St","Middleton","MA","(978) 777-5993","42.584407","-71.0055493","Restaurants",
"Elaines Pizza","234","234 Hampshire St","Lawrence","MA","(978) 687-9211","42.71063","-71.168607","Restaurants",
"Tacos Lupita","129","129 Munroe St","Lynn","MA","(781) 593-6437","42.462611","-70.947358","Restaurants",
"Carmens Cafe Nicole","114","114 Water St","Plymouth","MA","(508) 747-4343","41.9601088","-70.6660466","Restaurants",
"Sea Ketch Restaurant","127","127 Ocean Blvd","Hampton","NH","(603) 926-0324","42.908308","-70.811463","Restaurants",
"Celebrity Pizza & Dairy Bar","684","684 Mount Auburn St","Watertown","MA","(617) 924-0009","42.372581","-71.156174","Restaurants",
"D & A House of Pizza","308","308 Watertown St","Newton","MA","(617) 527-0203","42.360953","-71.198881","Restaurants",
"Ice Cream Factory","7","7 Elm St","Townsend","MA","(978) 597-5131","42.666428","-71.706536","Restaurants",
"Topacio","120","120 Meridian St","East Boston","MA","(617) 567-9523","42.373481","-71.039248","Restaurants",
"Saigon Hut","305","305 Meridian St","East Boston","MA","(617) 567-1944","42.377293","-71.039043","Restaurants",
"Daily Catch","323","323 Hanover St","Boston","MA","(617) 523-8567","42.364076","-71.053962","Restaurants",
"Brant Rock Fish Market","267","267 Ocean","Brant Rock","MA","(781) 834-6231","42.09168","-70.64638","Restaurants",
"Stanley Seafood Co","833","833 N Shore Rd","Revere","MA","(781) 286-1122","42.425289","-70.986251","Restaurants",
"Abbondanza Italian Seafood Restaurant","195","195 Main St","Everett","MA","(617) 387-8422","42.407438","-71.061944","Restaurants",
"New Deal Fish Market","622","622 Cambridge St","Cambridge","MA","(617) 876-8227","42.371705","-71.086809","Restaurants",
"Pisces Fish Market","690","690 American Legion Hwy Ste 6","Roslindale","MA","(617) 522-2028","42.283334","-71.112033","Restaurants",
"Captain Johns","333","333 Westford St","Lowell","MA","(978) 458-0752","42.635083","-71.327794","Restaurants",
"Crown Chicken Lowell","813","813 Lakeview Ave","Lowell","MA","(978) 221-6933","42.658616","-71.314034","Restaurants",
"Fish Market","34","34 Atlantic Ave","Marblehead","MA","(781) 990-1109","42.499178","-70.85549","Restaurants",
"Turner's Seafood","43","43 Church St","Salem","MA","(978) 745-7665","42.5223902","-70.8952509","Restaurants",
"Blue Lobster Grill","15","15 Dock Sq","Rockport","MA","(978) 546-9990","42.6587856","-70.6166316","Restaurants",
"Causeway Restaurant","78","78 Essex Ave","Gloucester","MA","(978) 281-5256","42.612434","-70.683312","Restaurants",
"North Beverly Roast Beef & Seafood","10","10 Enon St","Beverly","MA","(978) 927-7353","42.5837439","-70.8848351","Restaurants",
"Harber Seafood","11","11 School St","Gloucester","MA","(978) 559-7583","42.6141655","-70.6645526","Restaurants",
