Business Name,Physical Address Number,Physical Address,Physical City,Physical State,Phone,Latitude,Longitude,Primary SIC Description,
"Posto","187","187 Elm St","Somerville","MA","(617) 625-0600","42.393266","-71.120361","Restaurants",
"Area Four","500","500 Technology Sq Fl 4","Cambridge","MA","(617) 758-4444","42.3634028","-71.0925412","Restaurants",
"Tosca","14","14 North St","Hingham","MA","(781) 740-0080","42.244557","-70.884902","Restaurants",
"Monicas Mercato","130","130 Salem St Ste 1","Boston","MA","(617) 742-4101","42.365094","-71.055592","Convenience Stores",
"Telly's Restaurant & Pizza","235","235 Calef Hwy","Epping","NH","(603) 679-8225","43.0397196513844","-71.0658811830581","Restaurants",
"Calitri's Italian Cuisine","126","126 Newbury St","Danvers","MA","(978) 777-1266","42.569038","-70.974483","Restaurants",
"Venezia Waterfront Restaurant & Banquet Facility","20","20 Ericsson St","Dorchester","MA","(617) 436-3120","42.291745","-71.04032","Restaurants",
"Mamma Mias of Carver","73","73 Main St","Carver","MA","(508) 866-7900","41.89233","-70.777484","Restaurants",
"Restaurant 45","45","45 Milford St Unit 1","Medway","MA","(508) 533-8171","42.1444912","-71.4436875","Restaurants",
"Mamma Maria Restaurant","3","3 North Sq","Boston","MA","(617) 523-0077","42.364069","-71.053502","Restaurants",
"Siros Marina Bay","307","307 Victory Rd","Quincy","MA","(617) 472-4500","42.299293","-71.028538","Restaurants",
"Mamas Italian Restaurant","1140","1140 Lakeview Ave","Dracut","MA","(978) 957-7117","42.665768","-71.323199","Restaurants",
"A R T U Catering","6","6 Prince St","Boston","MA","(617) 248-8890","42.364106","-71.053724","Restaurants",
"Menton","354","354 Congress St Ste 101","Boston","MA","(617) 737-0099","42.350526","-71.048256","Restaurants",
"Strega Waterfront","1","1 Marina Park Dr","Boston","MA","(617) 345-3992","42.353176","-71.045229","Restaurants",
"Bertucci's Brick Oven Pizza & Pasta","27","27 Enon St","Beverly","MA","(978) 927-6866","42.585281","-70.884362","Restaurants",
"Mamma Mia's","122","122 Water St","Plymouth","MA","(508) 747-4670","41.9605343","-70.6668553","Restaurants",
"Lucca Restaurant","226","226 Hanover St","Boston","MA","(617) 742-9200","42.363161","-71.055402","Restaurants",
"Supinos Restaurant","250","250 Newbury St","Danvers","MA","(978) 774-0707","42.583612","-70.967968","Restaurants",
"Brothers Restaurant","404","404 Harvard St","Brookline","MA","(617) 383-6268","42.345036","-71.126841","Restaurants",
"Splitsville","220","220 Patriot Pl","Foxboro","MA","(508) 698-2695","42.0934123","-71.265948","Restaurants",
"Papa Gino's","782","782 River St","Haverhill","MA","(978) 372-5468","42.769954","-71.113282","Pizza",
"Papa Gino's","81","81 Carver Rd","Plymouth","MA","(508) 747-5386","41.9448699","-70.7096925","Pizza",
"The Colosseum Restaurant","264","264 N Broadway","Salem","NH","(603) 898-1190","42.794567","-71.235386","Restaurants",
"Olivadi Restaurant","32","32 Guild St","Norwood","MA","(781) 762-9090","42.1907306","-71.2010682","Restaurants",
"Ristorante Molise","1","1 Market Sq","Amesbury","MA","(978) 388-4844","42.8669242456603","-70.9290364599963","Restaurants",
"II Capriccio","888","888 Main St","Waltham","MA","(781) 894-2234","42.375996","-71.246748","Restaurants",
"Ristorante Villa Francesca","150","150 Richmond St","Boston","MA","(617) 367-2948","42.36342","-71.054525","Restaurants",
"Papa Gino's","233","233 Broad St Ste 18","Bridgewater","MA","(508) 697-8137","41.994113","-70.972845","Pizza",
"Bertinis Inc","284","284 Canal St","Salem","MA","(978) 744-1436","42.502154","-70.896315","Restaurants",
"5 Corners Kitchen","2","2 School St","Marblehead","MA","(781) 631-5550","42.501352","-70.85578","Restaurants",
"Brickhouse Cafe","107","107 Bridge St","Dedham","MA","(781) 326-1980","42.267859","-71.176221","Restaurants",
"Casa Mia","261","261 Washington St","Marblehead","MA","(781) 631-1200","42.50112","-70.856094","Restaurants",
"Olive Garden Italian Kitchen","153","153 Andover St","Danvers","MA","(978) 750-8324","42.5594053","-70.9677731","Restaurants",
"Lisa's Family Pizzeria","903A","903a Main St","Woburn","MA","(781) 938-0123","42.5087846971023","-71.1605256342933","Restaurants",
"Novatos","218","218 Dedham St","Norfolk","MA","(508) 384-5122","42.0906384","-71.299934","Restaurants",
"Floramos Fifth Ave Restaurant & Lounge","213","213 Everett Ave","Chelsea","MA","(617) 889-1330","42.3985694","-71.0400018","Restaurants",
"Cafe Tosca","15","15 North St","Hingham","MA","(781) 740-9400","42.244619","-70.885169","Restaurants",
"Capellinis","896","896 Main St","Tewksbury","MA","(978) 851-7271","42.613844","-71.237748","Restaurants",
"Orta Restaurant","75","75 Washington St Ste D","Pembroke","MA","(781) 826-8883","42.104183","-70.804404","Restaurants",
"Gaetano's","271","271 Main St Ste G04","Stoneham","MA","(781) 279-0100","42.4834481","-71.1005951","Restaurants",
"Stellina Restaurant","47","47 Main St","Watertown","MA","(617) 924-9475","42.3663923","-71.1853215","Restaurants",
"Venetian Inc","909","909 Broad St","East Weymouth","MA","(781) 337-4363","42.215334","-70.923505","Restaurants",
"Danns Restaurant","340","340 Centre Ave","Abington","MA","(781) 878-8767","42.1105383","-70.9317593","Restaurants",
"Garibaldi Club","36","36 Castle St","Plymouth","MA","(508) 746-9834","41.9737506","-70.6809987","Restaurants",
"Old Tyme Italian Cuisine","612","612 Boston St","Lynn","MA","(781) 596-1111","42.463525","-70.975403","Restaurants",
"Princeton Station","147","147 Princeton St","North Chelmsford","MA","(978) 251-1500","42.633005","-71.376989","Restaurants",
"Derry Restaurant","111","111 W Broadway","Derry","NH","(603) 432-2107","42.875123","-71.335487","Restaurants",
"Turk's Seafood","83","83 Marion Rd","Mattapoisett","MA","(508) 758-3117","41.663744","-70.788087","Restaurants",
"Pasta Loft","220","220 E Main St","East Hampstead","NH","(603) 378-0092","42.889493","-71.137072","Restaurants",
"Bertucci's Brick Oven Pizza & Pasta","414","414 Washington St","Holliston","MA","(508) 429-4571","42.211095","-71.425549","Restaurants",
"Destinos","129","129 Prospect St","Gloucester","MA","(978) 283-3100","42.6166982","-70.6574541","Restaurants",
"La Morra","48","48 Boylston St","Brookline","MA","(617) 739-0007","42.331178","-71.118838","Restaurants",
"Glorias Pizzeria","920","920 Main St","Winchester","MA","(781) 729-8850","42.462211","-71.143397","Restaurants",
"Pleasant Cafe & Restaurant","4515","4515 Washington St","Roslindale","MA","(617) 323-2111","42.2787580733705","-71.1366819884739","Restaurants",
"Roka ZC","801","801 Massachusetts Ave","Boston","MA","(617) 989-9988","42.333062","-71.0732356","Restaurants",
"Cafe Bella","19","19 Warren St","Randolph","MA","(781) 961-7729","42.165849","-71.0444918","Restaurants",
"Middleboro House of Pizza","29","29 N Main St","Middleboro","MA","(508) 947-7438","41.892698","-70.908542","Restaurants",
"Frank Pepes of Chesnut Hill","199","199 Boylston St","Chestnut Hill","MA","(617) 964-7373","42.3212813","-71.1761169","Restaurants",
"Sauce Pizza & Wine","19","19 Essex St","Andover","MA","(978) 475-4769","42.656771","-71.142166","Restaurants",
"il Casale cucina campana + Bar","1727","1727 Massachusetts Ave","Lexington","MA","(781) 538-5846","42.4473415","-71.2264298","Restaurants",
"Papa Gino's","10","10 N Meadows Rd","Medfield","MA","(508) 359-2040","42.186142","-71.310505","Pizza",
"Papa Gino's","179","179 Cambridge St","Burlington","MA","(781) 273-3020","42.5098123","-71.2000389","Pizza",
"Papa Gino's","9","9 Plaistow Rd","Plaistow","NH","(603) 382-3991","42.817652","-71.101272","Pizza",
"Papa Gino's","92","92 Cluff Crossing Rd Ste 5","Salem","NH","(603) 893-8476","42.766198","-71.221326","Pizza",
"Papa Gino's","142","142 Nahatan St","Norwood","MA","(781) 278-0717","42.191624","-71.196584","Pizza",
"Papa Gino's","29","29 Chelmsford St","Chelmsford","MA","(978) 256-6999","42.598086","-71.350024","Pizza",
"Papa Gino's","1018","1018 Lexington St","Waltham","MA","(781) 893-6440","42.410304","-71.234346","Pizza",
"Carmelas Italian Restaurant & Lounge","138","138 Main St","Kingston","MA","(781) 585-2148","41.987817","-70.716732","Restaurants",
"Marios Italian Restaurant","1733","1733 Massachusetts Ave","Lexington","MA","(781) 861-1182","42.447619","-71.22691","Restaurants",
"Porcini's Restaurant","68","68 School St","Watertown","MA","(617) 924-2221","42.364806","-71.166677","Restaurants",
"Papa Gino's","211","211 North St Ste 1","Foxboro","MA","(508) 543-1516","42.1027045","-71.2586316","Pizza",
"Papa Gino's","8","8 Commercial St","Foxboro","MA","(508) 543-6100","42.054305","-71.241148","Pizza",
"Dantes Pasta & Vino","320","320 Route 125","Barrington","NH","(603) 664-4000","43.2209834765217","-70.9929095540467","Restaurants",
"Santarpio's Pizza","111","111 Chelsea St","East Boston","MA","(617) 567-9871","42.372616","-71.03529","Restaurants",
"Basil","43","43 Frairy St","Medfield","MA","(508) 359-4400","42.188071","-71.310256","Restaurants",
"Mandee's Pizza","408","408 Essex St","Salem","MA","(978) 745-6400","42.517996","-70.905407","Restaurants",
"Montes Restaurant","141","141 Eastern Ave","Lynn","MA","(781) 599-0478","42.472107","-70.925359","Restaurants",
"Papa Gino's","190","190 Main St","Stoneham","MA","(781) 438-8422","42.489562","-71.09964","Pizza",
"Sweet Basil","942","942 Great Plain Ave","Needham","MA","(781) 444-9600","42.28013","-71.235254","Restaurants",
"Campaneles Restaurant","88","88 Pearl St","Braintree","MA","(781) 843-6966","42.202457","-71.002976","Restaurants",
"Ronaldo's Restaurant","69","69 Lafayette Rd","North Hampton","NH","(603) 964-5064","42.973179","-70.834404","Restaurants",
"Olive Garden Italian Kitchen","11","11 Allstate Rd # B","Dorchester","MA","(617) 989-1371","42.32601","-71.063607","Restaurants",
"Toscano Restaurant","41","41 Charles St","Boston","MA","(617) 723-4090","42.357421","-71.069813","Restaurants",
"Olive Garden Italian Kitchen","102","102 Colony Place Rd","Plymouth","MA","(508) 746-5043","41.954509","-70.714344","Restaurants",
"Trattoria Di Monica","67","67 Prince St","Boston","MA","(617) 720-5472","42.365313","-71.055185","Restaurants",
"Masala Inc","1127","1127 Broadway","Somerville","MA","(617) 718-0703","42.4032162","-71.1266306","Restaurants",
"Olive Garden Italian Kitchen","1","1 Worcester Rd Ste 28","Framingham","MA","(508) 879-7285","42.3019866","-71.394939","Restaurants",
"Bellinos Trattoria","146","146 Lowell St","Wakefield","MA","(781) 246-7666","42.523662","-71.078807","Restaurants",
"Olive Garden Italian Kitchen","2048","2048 Woodbury Ave","Portsmouth","NH","(603) 436-8400","43.096194","-70.798242","Restaurants",
"Mamma Mia's","3","3 Village Grn N Ste 312","Plymouth","MA","(774) 773-3129","41.8801686","-70.5997513","Restaurants",
"Amelias Restaurant","217","217 Washington St","Stoughton","MA","(781) 886-6125","42.139818","-71.103708","Restaurants",
"Lisa's Family Pizzeria","283","283 Boston Ave","Medford","MA","(781) 874-2450","42.4128287084464","-71.1239936246814","Restaurants",
"Brelundi","185","185 Crescent St","Waltham","MA","(781) 788-8807","42.366846","-71.243835","Restaurants",
"Rocco's Cucina & Bar","450","450 Commercial St","Boston","MA","(617) 523-4055","42.367317","-71.053405","Restaurants",
"La Famiglia Spagnuolo","240","240 Hanover St","Boston","MA","(617) 742-9124","42.363382","-71.055167","Restaurants",
"Mumma Marys","219","219 Main St","Wareham","MA","(508) 295-5308","41.7584739","-70.7153606","Restaurants",
"Brelundi Cafe","16","16 Felton St","Waltham","MA","(781) 788-8805","42.374249","-71.23743","Restaurants",
"Tremezzo Ristorante","2","2 Lowell St","Wilmington","MA","(978) 447-5967","42.542494","-71.167189","Restaurants",
"Greenhouse Kitchen","435","435 Faneuil St","Brighton","MA","(617) 903-3097","42.3512383","-71.1683512","Restaurants",
"Vesuvius","2","2 Paradise Rd","Salem","MA","(978) 594-8886","42.486338","-70.90055","Restaurants",
"Unos","205","205 Hartford Ave","Bellingham","MA","(508) 966-5298","42.113669","-71.469128","Restaurants",
"Nonna S Bar Grill","469","469 Moody St","Waltham","MA","(602) 738-1157","42.368054","-71.238079","Restaurants",
"Papa Gino's","770","770 Washington St","Weymouth","MA","(781) 331-2660","42.201817","-70.945763","Pizza",
"Papa Gino's","15","15 Taunton St","Plainville","MA","(508) 695-0214","42.012695","-71.305634","Pizza",
"Papa Gino's","44","44 Nashua Rd Unit 1","Londonderry","NH","(603) 434-8555","42.8664969","-71.3492829","Pizza",
"Papa Gino's","438","438 W Grove St Ste C","Middleboro","MA","(508) 946-1066","41.8960588","-70.9511285","Pizza",
"Papa Gino's","319","319 Washington St","Stoughton","MA","(781) 344-1764","42.137212","-71.10252","Pizza",
"Pagliucas Restaurant Inc","14","14 Parmenter St","Boston","MA","(617) 367-1504","42.3636968","-71.0549868","Restaurants",
"Linguines Italian Eatery","350","350 Boston Post Rd W","Marlborough","MA","(508) 481-9747","42.33601","-71.596087","Restaurants",
"Tutto Italiano","570","570 Washington St","Wellesley","MA","(781) 431-2250","42.295891","-71.292823","Restaurants",
"Francos Pizzeria & Pub","714","714 Moody St","Waltham","MA","(781) 893-7775","42.363977","-71.238468","Restaurants",
"Gem","42","42 Province St","Boston","MA","(617) 482-1213","42.3569034","-71.0599403","Restaurants",
"Melissa's Main Street Bistro","407","407 Main St","Stoneham","MA","(781) 438-7243","42.4789414","-71.1005359","Restaurants",
"Papa Gino's","104","104 Boston Post Rd","Sudbury","MA","(978) 443-7136","42.363534","-71.393314","Pizza",
"Comella's","1844","1844 Centre St","West Roxbury","MA","(617) 327-8600","42.286324","-71.154133","Restaurants",
"Perfecto Pasta","153","153 Sandy Bottom Rd","Malden","MA","(781) 324-6500","42.42952","-71.05996","Restaurants",
"Landana","86","86 Cambridge St","Burlington","MA","(781) 270-0100","42.494644","-71.194407","Restaurants",
"Da Vinci","162","162 Columbus Ave Ste 1","Boston","MA","(617) 350-0007","42.349156","-71.07069","Restaurants",
"Topside Grill","50","50 Rogers St","Gloucester","MA","(978) 281-1399","42.6121741","-70.6630198","Restaurants",
"Hagans Grill","6","6 High St","Hampton","NH","(603) 926-5668","42.9418641","-70.8375982","Restaurants",
"Salvatore's","545","545 Washington St","Boston","MA","(617) 737-5454","42.353902","-71.062563","Restaurants",
"Cannolis","920","920 Washington St","East Weymouth","MA","(781) 331-3664","42.20017","-70.939171","Restaurants",
"Stashs Pizza of Norwood","254","254 Dean St","Norwood","MA","(781) 501-5700","42.1791844","-71.1889375","Restaurants",
"Nico Ristorante","417","417 Hanover St","Boston","MA","(617) 742-0404","42.365635","-71.052703","Restaurants",
"Tavolo","1918","1918 Dorchester Ave","Dorchester Center","MA","(617) 822-1918","42.283981","-71.064514","Restaurants",
"Marliave","10","10 Bosworth St","Boston","MA","(617) 422-0004","42.3569559","-71.0603469","Restaurants",
"Limoncello Ristorante","190","190 North St","Boston","MA","(617) 523-4480","42.3636140105152","-71.0530043681259","Restaurants",
"Tremonte","361","361 Middlesex Rd","Tyngsboro","MA","(978) 649-8312","42.689417","-71.432296","Restaurants",
"Olive Garden Italian Kitchen","401","401 Technology Center Dr","Stoughton","MA","(781) 297-5110","42.1554092","-71.0665868","Restaurants",
"Emilios Homemade Italian Subs & Dinners","6","6 Bigelow Ave","Watertown","MA","(617) 923-4647","42.371113","-71.157628","Restaurants",
"Fresco","35","35 Chapel St","Needham","MA","(781) 453-1975","42.282181","-71.236907","Restaurants",
"Foleys Backstreet Grille","531","531 Pearl St","Stoughton","MA","(781) 297-0100","42.138344","-71.113763","Restaurants",
"Cafe Vesuvius","18","18 Bessom St","Marblehead","MA","(781) 639-8120","42.500498","-70.8600686","Restaurants",
"Tresca","233","233 Hanover St","Boston","MA","(617) 742-8240","42.362986","-71.055106","Restaurants",
"Giannis Deli","853","853 Highland Ave","Needham Heights","MA","(781) 453-1164","42.2942034459039","-71.2354670286448","Restaurants",
"Erbaluce","69","69 Church St","Boston","MA","(617) 426-6969","42.3501566","-71.0684634","Restaurants",
"Prospect Cafe","137","137 Prospect St","Waltham","MA","(781) 899-2723","42.3711524","-71.2465899","Restaurants",
"Charlies of Rochester Pizza Pasta Subs","224","224 N Main St","Rochester","NH","(603) 332-4200","43.3078607","-70.9884797","Restaurants",
"Brickhouse Pizzaria & Grille","256","256 Washington St","Brighton","MA","(617) 789-5559","42.347889","-71.149727","Restaurants",
"Bin 26 Enoteca","26","26 Charles St","Boston","MA","(617) 723-5939","42.3567573","-71.0699912","Restaurants",
"Eastside Bar & Grill","561","561 Cambridge St","Cambridge","MA","(617) 661-3278","42.371888","-71.085548","Restaurants",
"La Galleria 33","125","125 Salem St Ste 1","Boston","MA","(617) 723-7233","42.364686","-71.055412","Restaurants",
"Ristorante Serena","18","18 Lebanon St","Malden","MA","(781) 324-3170","42.433933","-71.046272","Restaurants",
"Spiga Restaurant","18","18 Highland Cir","Needham Heights","MA","(781) 449-5600","42.306102","-71.218324","Restaurants",
"Nebo","520","520 Atlantic Ave","Boston","MA","(617) 723-6326","42.35364","-71.052984","Restaurants",
"Capones Pizzeria & Prohibtion Pub","1229","1229 Washington St","East Weymouth","MA","(781) 340-0033","42.1953929","-70.9266048","Restaurants",
"Cafe Porto Bello","672","672 E Broadway Ste 1","South Boston","MA","(617) 269-7680","42.335798","-71.037634","Restaurants",
"International Food Gourmet","57","57 Oak St Ext","Brockton","MA","(508) 586-9862","42.0993002","-71.0638664","Restaurants",
"Solstice","63","63 Summer St","Kingston","MA","(781) 585-2221","41.998326","-70.730128","Restaurants",
"Figs On Beacon Hill","42","42 Charles St","Boston","MA","(617) 742-3447","42.3572285","-71.0701811","Restaurants",
"Moe's Italian Sandwiches","779","779 Lafayette Rd","Seabrook","NH","(603) 474-7788","42.897916","-70.870809","Restaurants",
"Colombos Pizza & Cafe","2","2 Brande Ct","Reading","MA","(781) 944-1006","42.5226878","-71.1073118","Restaurants",
"Cucina Mia Cafe & Deli","94","94 Washington St","Quincy","MA","(617) 479-1945","42.2508114","-70.9995516","Restaurants",
"Filippo Ristorante & Cafe","283","283 Causeway St","Boston","MA","(617) 742-4142","42.3669806","-71.058182","Restaurants",
"Cafe Rosetti","115","115 Winthrop Shore Dr","Winthrop","MA","(617) 539-9990","42.375716","-70.971147","Restaurants",
"Rincon Macorisano","350","350 Washington St","Lynn","MA","(781) 592-5823","42.4650717","-70.9481206","Restaurants",
"Chianti Cafe","285","285 Cabot St","Beverly","MA","(978) 921-2233","42.5513097","-70.8782672","Restaurants",
"Luna Rossa","1699","1699 Shawsheen St","Tewksbury","MA","(978) 851-9282","42.621552","-71.183455","Restaurants",
"Olive Garden Italian Kitchen","422","422 Middlesex Rd","Tyngsboro","MA","(978) 649-6727","42.697084","-71.4393425","Restaurants",
"Gracies Kitchen","39","39 Emerson Rd Ste 108","Waltham","MA","(781) 899-3600","42.381741","-71.238314","Restaurants",
"Pomodoro","1019","1019 Great Plain Ave","Needham","MA","(781) 444-9200","42.2803726","-71.2372034","Restaurants",
"Pronto Pizza I","65","65 S Union St","Lawrence","MA","(978) 688-4433","42.700155","-71.153735","Restaurants",
"Maria's Pizza","35","35 Pearl St","Gloucester","MA","(978) 283-7373","42.6159533","-70.6664294","Restaurants",
"Victors Italian Restaurant","560","560 Lincoln Ave","Saugus","MA","(781) 231-0532","42.446656","-71.010817","Restaurants",
"Stellas","558","558 Adams St","Milton","MA","(317) 698-2740","42.2583113","-71.0397706","Restaurants",
"Marsala's Italian Kitchen","897","897 Main St","Waltham","MA","(781) 899-1111","42.3765317","-71.2469764","Restaurants",
"Mcgreevys","911","911 Boylston St","Boston","MA","(617) 262-0911","42.348434","-71.084405","Restaurants",
"Tavolino","274","274 Patriot Pl","Foxboro","MA","(508) 543-6543","42.0920886","-71.2680507","Restaurants",
"Grangusto at the Brickyard","90","90 Sherman St Ste A","Cambridge","MA","(617) 441-0400","42.388737","-71.132334","Restaurants",
"Olivias","142","142 Essex St","Haverhill","MA","(978) 372-0200","42.774731","-71.086059","Restaurants",
"Luigis Pizzaria","616","616 Winthrop Ave","Revere","MA","(781) 289-2003","42.3979659","-70.992471","Restaurants",
"Cantina Italiana","346","346 Hanover St","Boston","MA","(617) 723-4577","42.365024","-71.053467","Restaurants",
"Teatro","177","177 Tremont St Ste 1","Boston","MA","(617) 778-6841","42.3529618","-71.0640698","Restaurants",
"La Dolce Vita","221","221 Hanover St","Boston","MA","(617) 720-0422","42.362815","-71.055175","Restaurants",
"Lucia Ristorante","415","415 Hanover St","Boston","MA","(617) 367-2353","42.365584","-71.052719","Restaurants",
"Tuscany Tavern","294","294 Court St","Plymouth","MA","(508) 747-9291","41.9723589","-70.6831435","Restaurants",
"Moe's Italian Sandwiches","69","69 Route 27","Raymond","NH","(603) 895-6637","43.040524","-71.16749","Restaurants",
"Carmalenos Pushcart Rest","331","331 Main St","Saugus","MA","(781) 233-7200","42.4732202","-71.0355296","Restaurants",
"Coppa","253","253 Shawmut Ave","Boston","MA","(617) 391-0902","42.343474","-71.068749","Restaurants",
"Bella Fresca LLC","30","30 Cleo Cir","Rochester","NH","(603) 948-1020","43.3005048697977","-70.918991221396","Restaurants",
"Trattoria Pulcinella","147","147 Huron Ave","Cambridge","MA","(617) 491-6336","42.382855","-71.130713","Restaurants",
"Delfino Restaurant","754","754 South St","Roslindale","MA","(617) 327-8359","42.287015","-71.129476","Restaurants",
"Ella's","3136","3136 Cranberry Hwy","East Wareham","MA","(508) 759-3600","41.753727","-70.636332","Restaurants",
"Bella Famiglia Italian","59","59 Great Rd","Acton","MA","(978) 263-2222","42.4765988","-71.4097383","Restaurants",
"Windy City","516","516 Gallivan Blvd","Dorchester Center","MA","(617) 265-6666","42.282851","-71.055601","Restaurants",
"Sbarro","200","200 Terminal B","East Boston","MA","(617) 569-1890","42.3618984869258","-71.018498616472","Restaurants",
"Poseidon","99","99 Western Ave","Gloucester","MA","(978) 290-4313","42.6101884","-70.6729074","Restaurants",
"Sonny Noto Restaurant","49","49 Water St","Wakefield","MA","(781) 246-4800","42.502579","-71.067777","Restaurants",
"panza","326","326 Hanover St","Boston","MA","(617) 557-9248","42.364659","-71.053831","Restaurants",
"Aglia Ristorante","799","799 S Main St","Bellingham","MA","(508) 928-2933","42.051138","-71.484466","Restaurants",
"Dparma Restaurant","182","182 Sumner St","East Boston","MA","(617) 567-9671","42.369368","-71.04031","Restaurants",
"Villa Italian Kitchen","200","200 Terminal E","East Boston","MA","(617) 568-1900","42.3691960447401","-71.0192268843045","Restaurants",
"Comella's","43","43 Leonard St","Belmont","MA","(617) 489-7777","42.397206","-71.175361","Restaurants",
"Bocellis Restaurant & Pizzeria","374","374 Main St","Medford","MA","(781) 396-7070","42.405504","-71.10788","Restaurants",
"Ristorante Pavarotti","601","601 Main St","Reading","MA","(781) 670-9050","42.523698","-71.102656","Restaurants",
"Comella's","288","288 Washington St","Wellesley Hills","MA","(781) 235-7300","42.31227","-71.274272","Restaurants",
"Nick Bistro","169","169 Squire Rd","Revere","MA","(781) 284-9400","42.4242127","-71.0098756","Restaurants",
"Lillys Gourmet Pasta Express","1528","1528 Tremont St","Roxbury Crossing","MA","(617) 427-8080","42.332289","-71.099941","Restaurants",
"Salvatores","55","55 High St","Medford","MA","(781) 393-9333","42.418829","-71.11129","Restaurants",
"Buono Bistro","220","220 Sutton St Ste 3","North Andover","MA","(978) 208-0654","42.707701","-71.131304","Restaurants",
"Apriles European Restaurant","10","10 Pomeworth St Unit B","Stoneham","MA","(978) 677-7419","42.483194","-71.098139","Restaurants",
"Dorazios Italian Market Place","35","35 Depot St","Duxbury","MA","(781) 934-2512","42.0248988","-70.6830342","Restaurants",
"Puritan Pizza & Restaurant","735","735 William T Morrissey Blvd Ste 1","Dorchester","MA","(617) 825-6676","42.295424","-71.048886","Restaurants",
"Dumpling Cafe Inc","697","697 Washington St","Boston","MA","(617) 338-8858","42.3512299","-71.0630418","Restaurants",
"Artichokes","317","317 Main St Ste 1","Wakefield","MA","(781) 246-1422","42.505265","-71.0724","Restaurants",
"La Bella","2454","2454 Lafayette Rd Ste 5","Portsmouth","NH","(603) 319-8213","43.034125","-70.783115","Restaurants",
"Bina Osteria","581","581 Washington St","Boston","MA","(617) 956-0888","42.35353","-71.062735","Restaurants",
"Fiorellas Express","2","2 Tremont Pl","Brighton","MA","(617) 783-0999","42.350616","-71.172334","Restaurants",
"Beneventos","111","111 Salem St Ste 1","Boston","MA","(617) 523-4111","42.364266","-71.055356","Restaurants",
"Anthony's Restaurant","800","800 Cummings Ctr Ste 147r","Beverly","MA","(978) 921-9200","42.561088","-70.887496","Restaurants",
"Isabellas","288","288 N Broadway Ste D","Salem","NH","(603) 890-2345","42.798414","-71.237306","Restaurants",
"Pavia Restaurant","82","82 Water St","Boston","MA","(617) 720-3000","42.3577258","-71.0562821","Restaurants",
"City Streets Restaurant","411","411 Waverley Oaks Rd Ste 135","Waltham","MA","(781) 647-2489","42.3864779","-71.20378","Restaurants",
"Vitos","54","54 Salem St","Boston","MA","(857) 277-0229","42.3632139","-71.0562806","Restaurants",
"Domino's Place","637","637 Broadway","Malden","MA","(781) 399-4811","42.442047","-71.030526","Restaurants",
"Old Colonial Cafe","171","171 Nahatan St","Norwood","MA","(781) 769-0323","42.1944814","-71.1993716","Restaurants",
"Comella's","1095","1095 Great Plain Ave","Needham","MA","(781) 444-2600","42.2803571325916","-71.23909","Restaurants",
"Tony's Place","188","188 Baker St","West Roxbury","MA","(617) 323-3550","42.2760273","-71.1672512","Restaurants",
"IL Casale","50","50 Leonard St","Belmont","MA","(617) 209-4942","42.39746","-71.175717","Restaurants",
"The Talk Restaurant","116","116 Main St","Watertown","MA","(617) 600-3417","42.3669614","-71.1874367","Restaurants",
"Pizzings Pizza & Wings","1035","1035 Bedford St Ste 7","Abington","MA","(781) 792-0003","42.132471","-70.94963","Restaurants",
"Olive Garden Italian Kitchen","90","90 Pleasant Valley St","Methuen","MA","(978) 687-0205","42.7436254","-71.1583764","Restaurants",
"Sal's Pizza","1","1 Commerce Way","Woburn","MA","(339) 227-6885","42.504922","-71.130242","Restaurants",
"Villa Italian Kitchen","246","246 Main St Ste 2","Hudson","MA","(978) 562-4600","42.3922914","-71.5601763","Restaurants",
"Baccis Restaurant","316","316 Main St","Stoneham","MA","(781) 438-9200","42.481513","-71.1000059","Restaurants",
"Mama Mia Restaurant","301","301 Elm St","Everett","MA","(617) 389-2222","42.415203","-71.034367","Restaurants",
"Mikes Restaurant","9","9 Davis Sq","Somerville","MA","(617) 628-2379","42.3966275902272","-71.1222344622731","Restaurants",
"Pizza Time","121","121 Main St Unit 5","Foxboro","MA","(508) 698-0500","42.0742609","-71.258742","Restaurants",
"Andrina's Pizzaria of Arlington Inc","1060","1060 Massachusetts Ave","Arlington","MA","(781) 648-4800","42.4202823","-71.1701357","Restaurants",
"Grill Fifty Eight","284","284 Monponsett St","Halifax","MA","(781) 293-6665","41.9941453","-70.8439169","Restaurants",
"Bertucci's Brick Oven Pizza & Pasta","1257","1257 Highland Ave Ste 2","Needham","MA","(781) 449-3777","42.284778","-71.236326","Restaurants",
"3a Pizza & Grill","166","166 King St Ste 4","Cohasset","MA","(781) 383-0042","42.236257","-70.824542","Restaurants",
"Panini Pizza Co","5A","5a Dodge St","Beverly","MA","(978) 767-4044","42.5725815","-70.8927017","Restaurants",
"Giovannis Roast Beef Pizza","127","127 Merrimack St","Methuen","MA","(978) 557-5588","42.731353","-71.136372","Restaurants",
"Sportello","348","348 Congress St","Boston","MA","(617) 737-1234","42.350674","-71.048468","Restaurants",
"Savinos","449","449 Common St","Belmont","MA","(617) 484-3499","42.381381","-71.175147","Restaurants",
"Oregano's","16","16 Pleasant St","Newburyport","MA","(978) 462-5013","42.810526","-70.870819","Restaurants",
"Pizza Palace","711","711 Washington St","Norwood","MA","(781) 769-4445","42.192284","-71.2021649","Restaurants",
"Vincents A Touch of Italia","524","524 Washington St","Norwood","MA","(781) 762-4824","42.195815","-71.199626","Restaurants",
"Victorias Sub Shop","345","345 Rockland St","Hingham","MA","(781) 749-9684","42.2594912177257","-70.8452874076324","Restaurants",
"Mannes Bakery","910","910 Broadway","Revere","MA","(781) 286-7546","42.4198057","-71.0058394","Restaurants",
"Fulcinitis Market","121","121 Hammond St","Waltham","MA","(781) 893-2276","42.3805762","-71.2464057","Restaurants",
"Avellino's Restaurant","313","313 Mystic Ave","Medford","MA","(781) 395-1721","42.404076","-71.100486","Restaurants",
"Windham Restaurants","59","59 Range Rd","Windham","NH","(603) 870-9270","42.805863","-71.262219","Restaurants",
"Prezza Restaurant","24","24 Fleet St Ste 1","Boston","MA","(617) 227-1577","42.364667","-71.052758","Restaurants",
"Capri Seaside Italian Grille","3","3 Central Ave","Salisbury","MA","(978) 462-7543","42.8429871201512","-70.8174662011631","Restaurants",
"Good Cooking Inc","600","600 Green St","Cambridge","MA","(617) 492-0188","42.368347","-71.111322","Restaurants",
"Cafe Paolina Cucina Italiana","646","646 Humphrey St","Swampscott","MA","(781) 593-6455","42.4688413","-70.8995718","Restaurants",
"La Campania","504","504 Main St","Waltham","MA","(781) 894-4280","42.376807","-71.230771","Restaurants",
"Giulia","1682","1682 Massachusetts Ave","Cambridge","MA","(617) 441-2800","42.382502","-71.120104","Restaurants",
"Dreamy Flavor Brunch & Restaurant","129","129 Broadway","Reading","MA","(617) 764-0337","42.52484","-71.1091","Restaurants",
"Cinquecento","500","500 Harrison Ave Ste 1","Boston","MA","(617) 338-9500","42.341899","-71.065924","Restaurants",
"Trattoria Andiamo","104","104 South St","Boston","MA","(617) 695-3775","42.350972","-71.057203","Restaurants",
"Dinas Roast Beef & Seafood","135","135 Canal St Ste 1","Salem","MA","(978) 744-1229","42.508901","-70.895916","Restaurants",
"Sals Just Pizza","189","189 Ocean Blvd","Hampton","NH","(603) 926-1313","42.910541","-70.811457","Restaurants",
"Ralphies Cafe Italiano","91","91 S Broadway","Salem","NH","(603) 893-3777","42.773089","-71.222546","Restaurants",
"Bertucci's Brick Oven Pizza & Pasta","225","225 Water St Ste B126","Plymouth","MA","(508) 747-1057","41.9653609","-70.6701197","Restaurants",
"Rigoletto","115","115 Salem St","Boston","MA","(857) 233-2597","42.364428","-71.055373","Restaurants",
"Locale","352","352 Hanover St","Boston","MA","(857) 277-0466","42.365116","-71.053385","Restaurants",
"Theos Cozy Corner Restaurant","162","162 Salem St Ste 1","Boston","MA","(857) 277-1619","42.366083","-71.055108","Restaurants",
"Evviva Cucina LLC","7","7 Cornerstone Sq","Westford","MA","(978) 692-9050","42.5659265","-71.4273064","Restaurants",
"Wellington's Pizzeria","22","22 Riverside Ave","Medford","MA","(781) 391-0099","42.41806","-71.108559","Restaurants",
"La Befana Pizzeria","15","15 N Beacon St Ste Nr3e","Allston","MA","(617) 987-0086","42.354139","-71.137764","Restaurants",
"G Bar & Kitchen","256","256 Humphrey St","Swampscott","MA","(781) 596-2228","42.4673191","-70.9140078","Restaurants",
"Moe's Italian Sandwiches","49","49 Weare Rd","Hampton Falls","NH","(603) 912-5336","42.9070670797161","-70.9152648013879","Restaurants",
"Figs by Todd English","67","67 Main St","Charlestown","MA","(617) 242-2229","42.3736649","-71.0623913","Restaurants",
"La Famiglia Giorgios","112","112 Salem St","Boston","MA","(617) 367-6711","42.364554","-71.055713","Restaurants",
"Cafe Vittoria","296","296 Hanover St","Boston","MA","(617) 227-7606","42.3641573","-71.0543512","Restaurants",
"Bella Vista","288","288 Hanover St","Boston","MA","(617) 367-4999","42.364015","-71.054505","Restaurants",
"Al Dente Restaurant","109","109 Salem St Ste 1","Boston","MA","(617) 523-0990","42.364215","-71.055363","Restaurants",
"Bella Verona","107","107 Essex St","Salem","MA","(978) 825-9911","42.522424","-70.8899032","Restaurants",
"Lucias Tavola","31","31 Main St","Ayer","MA","(978) 391-4837","42.5597455","-71.5882697","Restaurants",
"Comella's in Natick","45","45 Main St","Natick","MA","(508) 651-1700","42.284939","-71.34778","Restaurants",
"Al Fresca Italian Ristorante","1768","1768 Main St Ste 3","Tewksbury","MA","(978) 851-3332","42.593275","-71.209489","Restaurants",
"Roland's Sub Shop","7","7 Central Ave","Dover","NH","(603) 742-6061","43.1803929","-70.877266","Restaurants",
"De Pasquale's Pasta","11","11 Board Aly","Boston","MA","(617) 248-9629","42.362917","-71.054954","Restaurants",
"Papa Razzi Trattoria","16","16 Washington St","Wellesley Hills","MA","(781) 235-4747","42.3248334","-71.2596593","Restaurants",
"Spinelli's Pasta & Pastry Shop","10","10 Newbury St","Peabody","MA","(781) 592-5552","42.52038","-70.9992064","Restaurants",
"Wayland Pizza House","336","336 Boston Post Rd","Wayland","MA","(508) 358-7316","42.3634879","-71.366417","Restaurants",
"Liberty Pizza of Natick","2","2 Mill St Ste 5","Natick","MA","(508) 653-9250","42.277873","-71.376938","Restaurants",
"Express Pizza","65","65 Loomis St","Bedford","MA","(781) 275-3858","42.486794","-71.276643","Restaurants",
"Famous Pizza","112","112 Main St","Medway","MA","(508) 533-2255","42.1511755","-71.4167194","Restaurants",
"Salvatore's Restaurant","34","34 Park St Ste 3","Andover","MA","(978) 409-2445","42.657263","-71.139187","Restaurants",
"Charcoal Guido's","482","482 Moody St","Waltham","MA","(781) 373-1292","42.3679094860304","-71.2372767016644","Restaurants",
"Ashland Ale House","23","23 Pond St","Ashland","MA","(508) 861-7780","42.258668","-71.427666","Restaurants",
"Sbarro","18","18 Logan Airport","East Boston","MA","(617) 569-5409","42.37753","-71.03189","Restaurants",
"Alfredo's Italian Kitchen","425","425 Lynnway","Lynn","MA","(781) 584-4954","42.456785","-70.953705","Restaurants",
"Seaside Pizzeria","9","9 Railroad Ave","Rockport","MA","(978) 309-8691","42.6552213","-70.6246482","Restaurants",
"Tuscan Kitchen Burlington LLC","2400","2400 District Ave Ste 110","Burlington","MA","(781) 229-0300","42.4854304","-71.2107601","Restaurants",
"Vico Ristorante Italiano","89","89 Central St","Norwood","MA","(781) 352-3324","42.1934414369775","-71.1999649061693","Restaurants",
"Conrad","120","120 Boston Post Rd","Sudbury","MA","(978) 579-9911","42.363471","-71.393971","Restaurants",
"Alfredo Italian Kitchen","136","136 Newbury St","Peabody","MA","(978) 536-3121","42.5364856","-70.9896355","Restaurants",
"Dparma Revere","288","288 Broadway","Revere","MA","(781) 286-2828","42.408401068636","-71.0135903009592","Restaurants",
"La Motta Restaurant","1357","1357 Washington St","Boston","MA","(617) 338-5300","42.3416673","-71.0692818","Restaurants",
"Novara Restaurants","556","556 Adams St","Milton","MA","(617) 696-8400","42.258347","-71.0397607","Restaurants",
"Sapore Vera","944","944 Main St","Walpole","MA","(508) 921-3291","42.1465193","-71.2520231","Restaurants",
"Moe's Italian Sandwiches","1980","1980 Woodbury Ave","Portsmouth","NH","(603) 436-6637","43.093822","-70.794305","Restaurants",
"Bravo Pizzeria","531","531 Washington St","Quincy","MA","(617) 471-3300","42.247173","-70.979888","Restaurants",
"Stavios","1","1 Patriot Pl","Foxboro","MA","(508) 772-7720","42.0909271","-71.2643658","Restaurants",
"Oath Craft Pizza","210","210 Boylston St Ste 7","Chestnut Hill","MA","(617) 467-4232","42.3192488","-71.1758567","Restaurants",
"Alfredo Italian Kitchen","691","691 Cambridge St","Cambridge","MA","(617) 491-8292","42.3722388","-71.0881591","Restaurants",
"Ciao Pizza & Pasta","59","59 Williams St","Chelsea","MA","(617) 286-9346","42.3890169691101","-71.0406686028342","Restaurants",
"Lunas Restaurant","945","945 Saratoga St","East Boston","MA","(617) 418-5321","42.38657","-71.009152","Restaurants",
"Andiamo Restaurant Bar","18","18 Boston Rd","Chelmsford","MA","(978) 710-7218","42.5947","-71.350389","Restaurants",
"Dante's Bistro Bar & Grill","567","567 Calef Hwy","Barrington","NH","(603) 664-4000","43.2086309410497","-70.9963500924134","Restaurants",
"Ciao Bella Italian Kitchen","384","384 Union St","Franklin","MA","(508) 520-7600","42.075593","-71.40339","Restaurants",
"Cafe Sicilia","1300","1300 Main St","Tewksbury","MA","(978) 735-4501","42.604613","-71.224511","Restaurants",
"Roccos Italian Pizzeria","1143","1143 Broadway","Hanover","MA","(781) 826-5637","42.09663","-70.850067","Restaurants",
"Alfredo's Italian Kitchen","284","284 Broadway","Somerville","MA","(617) 623-7746","42.3916923","-71.0922355","Restaurants",
"Viale","502","502 Massachusetts Ave","Cambridge","MA","(617) 576-1900","42.363948","-71.101815","Restaurants",
"Salvatores Theater District","545","545 Washington St","Boston","MA","(617) 542-5555","42.353902","-71.062563","Restaurants",
"Havard","52","52 Brattle St","Cambridge","MA","(617) 354-5250","42.374305","-71.122097","Restaurants",
"Richie's Italian Ice","3","3 Garvey St","Everett","MA","(617) 381-7023","42.401355","-71.054688","Restaurants",
"Old Town Cafe","222","222 North Ave","Abington","MA","(781) 878-8046","42.128097","-70.941671","Restaurants",
"Davio's Northern Italian Steakhouse","55","55 Boylston St Ste 9","Chestnut Hill","MA","(617) 738-4810","42.322694","-71.170167","Restaurants",
"Quatro","290","290 Hanover St","Boston","MA","(617) 720-0444","42.3640882027926","-71.0543722156618","Restaurants",
"Short and Main","36","36 Main St","Gloucester","MA","(978) 281-0044","42.6120224","-70.6655856","Restaurants",
"Fromage","401","401 W Broadway","South Boston","MA","(617) 464-4300","42.337003","-71.048431","Restaurants",
"Genki Ya","202","202 Legacy Pl","Dedham","MA","(617) 758-8224","42.2313037","-71.1764163","Restaurants",
"Tremezzo Pizza","296","296 Shawsheen Ave","Wilmington","MA","(978) 447-5461","42.561347","-71.202594","Restaurants",
"Osteria Nino","19","19 3rd Ave","Burlington","MA","(781) 203-8187","42.487211","-71.223996","Restaurants",
"Vetri Paul","35","35 Cushing Ave","Dorchester","MA","(617) 825-5388","42.315519","-71.064746","Restaurants",
"Comellas","745","745 High St","Westwood","MA","(781) 461-0800","42.223445","-71.223418","Restaurants",
"Bella Luna Restaurant","424","424 Washington St","Lynn","MA","(781) 581-2617","42.4644201","-70.9468678","Restaurants",
"Tutto Bene","1050","1050 Pearl St Ste 1","Brockton","MA","(508) 583-1515","42.052437","-71.06632","Restaurants",
"Serafina","10","10 High St","Boston","MA","(617) 426-1234","42.3535473","-71.0567312","Restaurants",
"Marina Restaurant & Bar at the Wharf","543","543 N Shore Rd","Revere","MA","(781) 629-3798","42.431718","-70.977942","Restaurants",
"Sofia Pizza House","45","45 Billings Rd","Quincy","MA","(617) 471-0004","42.2733904","-71.0250761","Restaurants",
"Tonno","2","2 Main St","Gloucester","MA","(978) 879-4795","42.611531","-70.666244","Restaurants",
"Giacomos Ristorante","454","454 Main St","Melrose","MA","(781) 620-1191","42.4543229","-71.0660916","Restaurants",
"Peel Pizza Company Cohasset","13","13 Depot Ct # 13","Cohasset","MA","(781) 383-0404","42.2412566172116","-70.8027338293809","Restaurants",
"Pastoral","345","345 Congress St","Boston","MA","(617) 345-0005","42.3506501","-71.0493848","Restaurants",
"Mast Restaurant and Drinkery","45","45 Province St","Boston","MA","(617) 936-3800","42.357247","-71.06","Restaurants",
"Davio's Northern Italian Steakhouse","1250","1250 Market St","Lynnfield","MA","(781) 944-4810","42.5146862","-71.0344211","Restaurants",
"Il Molo","100","100 N Beacon St","Allston","MA","(857) 277-1895","42.3543785","-71.1431516","Restaurants",
"Mehak Halal Pakistani & Indian Restaurant","329","329 Sumner St","East Boston","MA","(617) 567-1900","42.367107","-71.036068","Restaurants",
"Ceia Kitchen and Bar","38","38 State St","Newburyport","MA","(978) 358-8112","42.810304","-70.870231","Restaurants",
"Eddys Place","301","301 Salem St","Medford","MA","(781) 399-5620","42.4209727","-71.0981091","Restaurants",
"Northender Italian Kitchen","1345","1345 Massachusetts Ave","Arlington","MA","(781) 859-5353","42.4245407","-71.1834461","Restaurants",
"SORA","44","44 Middlesex Tpke","Bedford","MA","(781) 276-7565","42.5087172","-71.2360385","Restaurants",
"Rosetta's Italian Restaurant","521","521 Washington St","Canton","MA","(781) 821-2300","42.1520893","-71.1479216","Restaurants",
"Il Panino Express","172","172 South St","Jamaica Plain","MA","(617) 477-9442","42.3040329","-71.114525","Restaurants",
"Raffaele's Ristorante","469","469 Moody St","Waltham","MA","(781) 790-8902","42.368054","-71.238079","Restaurants",
"Eataly","101","101 Huntington Ave Ste 215","Boston","MA","(857) 233-4209","42.3468773","-71.0808911","Restaurants",
"Lucianos Restaurant","800","800 Washington St","Wrentham","MA","(508) 384-3050","42.0459424","-71.3034361","Restaurants",
"Ritas Italian Ice Inc","170","170 Everett Ave","Chelsea","MA","(617) 889-0300","42.396705","-71.040159","Restaurants",
"Hudson House","40","40 Washington St","Hudson","MA","(978) 310-7830","42.3899056","-71.5705022","Restaurants",
"Alma Nove","22","22 Shipyard Dr","Hingham","MA","(781) 749-3353","42.252412","-70.922053","Restaurants",
"Eataly","800","800 Boylston St Spc 35","Boston","MA","(857) 277-0471","42.3482963792101","-71.0834282775152","Restaurants",
"Capella","45","45 Chapel St","Needham","MA","(781) 400-5173","42.281974","-71.236938","Restaurants",
"Antique Table Restaurant","26","26 Congress St","Salem","MA","(978) 594-1538","42.519765","-70.890171","Restaurants",
"Salerno's Italian Bar and Eatery","73","73 Cabot St","Beverly","MA","(978) 927-1979","42.5439222","-70.8815209","Restaurants",
"529 Comellas LLC","529","529 Main St","Winchester","MA","(781) 756-6696","42.452139","-71.136349","Restaurants",
"MIDA","782","782 Tremont St","Boston","MA","(617) 936-3490","42.338992","-71.080509","Restaurants",
"Caff Tremezzo","566","566 High St","Dedham","MA","(781) 461-8485","42.247863","-71.172752","Restaurants",
"Cinderella's","187","187 Hampshire St","Cambridge","MA","(617) 576-0280","42.372838","-71.099245","Restaurants",
"Dolce Vita Ristorante","221","221 Hanover St","Boston","MA","(617) 720-0422","42.362815","-71.055175","Restaurants",
"Sabatino's North Italian Restaurant","1","1 E Broadway","Derry","NH","(603) 432-7999","42.880504","-71.326049","Restaurants",
"Rinato Bistro","145","145 Nantasket Ave","Hull","MA","N/A","42.267511","-70.851901","Restaurants",
"Bertucci's Brick Oven Pizza & Pasta","450","450 Paradise Rd","Swampscott","MA","(781) 581-6588","42.481811","-70.9037905","Restaurants",
"Giacomo's Ristorante","14","14 Elissa Ave","Wayland","MA","(508) 276-5150","42.3642343","-71.3688011","Restaurants",
"Piccolo Piatti","5","5 Crest Ave","Winthrop","MA","(617) 207-3521","42.3863007","-70.9758969","Restaurants",
"Monica's Pasta Shop","143","143 Richmond St","Boston","MA","(617) 227-0311","42.363523","-71.05431","Restaurants",
"A3 Pizza-Pasta-Parm","65","65 Summer St","Kingston","MA","(781) 585-6555","41.9984253651331","-70.7301389437045","Restaurants",
"Trattoria Nina","1510","1510 Massachusetts Ave","Arlington","MA","(781) 777-2861","42.4252698","-71.1907902","Restaurants",
"Giardino's Restaurant","497","497 Bedford St","Abington","MA","(781) 878-3888","42.1176839","-70.948658","Restaurants",
"Moe's Italian Sandwiches","81","81 Storey Ave","Newburyport","MA","(978) 255-2338","42.819115","-70.910307","Restaurants",
"Johnny Macaroni's","572","572 West St","East Bridgewater","MA","(508) 378-9335","42.019904","-70.980648","Restaurants",
"I Pazzi Restaurant","50","50 Maple St","Danvers","MA","(978) 777-1955","42.5664","-70.936831","Restaurants",
"Michael Schlow","401","401 Park Dr","Boston","MA","(978) 393-8088","42.3441964","-71.1025992","Restaurants",
"Time Out Market Boston","401","401 Park Dr Ste 105","Boston","MA","(978) 393-8088","42.3441964","-71.1025992","Restaurants",
"Alfredos Italian Kitchen","1117","1117 Main St","Wakefield","MA","(781) 587-3890","42.478075","-71.063109","Restaurants",
"Bacco Ristorante & Bar","109","109 Fairhaven Rd # E","Mattapoisett","MA","(617) 624-0454","41.6562403","-70.8417784","Restaurants",
"The Chateau Italian Family Dining","535","535 John Mahar Hwy","Braintree","MA","(781) 380-8770","42.1992148","-71.0001281","Restaurants",
"Fusilli's Cafe","107","107 Main St","Reading","MA","(781) 944-7267","42.5070268","-71.1033977","Restaurants",
"Sbarro","99","99 Rockingham Park Blvd","Salem","NH","(603) 276-3784","42.7672968","-71.2319237","Restaurants",
"Olivia's Bistro","136","136 Adams St","Newton","MA","(857) 404-0436","42.359903","-71.202012","Restaurants",
"Meadhan Inc","469","469 Moody St","Waltham","MA","(781) 472-2718","42.368054","-71.238079","Restaurants",
"Stoughton Chateau Restaurant","1165","1165 Park St # 27","Stoughton","MA","(781) 341-2503","42.105865","-71.069732","Restaurants",
"La Dolda","1736","1736 Massachusetts Ave","Lexington","MA","(781) 538-5836","42.4470609","-71.2271558","Restaurants",
"Fiorella's Express","575","575 Washington St","Wellesley","MA","(781) 694-8800","42.2952617","-71.2936309","Restaurants",
"Tonys Restaurant Inc","40","40 Broadway","Salisbury","MA","(978) 465-9758","42.8422108759934","-70.8171689235005","Restaurants",
"Fuse Westford","2","2 Powers Rd","Westford","MA","(978) 392-3636","42.556361","-71.437941","Restaurants",
"Papa Gino's","100","100 Granite St Ste 1","Quincy","MA","(617) 786-9088","42.246248","-71.004882","Pizza",
"Papa Gino's","197","197 Boston Post Rd W Ste G1","Marlborough","MA","(508) 480-8477","42.3391594","-71.5905116","Pizza",
"Manos Pizza","5","5 Haverhill St","Methuen","MA","(978) 975-3999","42.704706","-71.190555","Restaurants",
"Dirty Water Dough Co","222","222 Newbury St Ste 1","Boston","MA","(617) 262-0090","42.3497964","-71.0811465","Restaurants",
"Antonias at the Beach","492","492 Revere Beach Blvd","Revere","MA","(781) 284-1272","42.427665","-70.9806185","Restaurants",
"Bravo Restaurant","465","465 Huntington Ave","Boston","MA","(617) 369-3474","42.339408","-71.094214","Restaurants",
"Cafe Italia Trattoria","10","10 School St","Marblehead","MA","(781) 631-5700","42.501586","-70.856304","Restaurants",
"Broadway Pizza Subs & More","467","467 W Broadway","South Boston","MA","(617) 268-1228","42.335685","-71.04638","Restaurants",
"Cafe Venice","1088","1088 Washington St","Norwood","MA","(781) 255-7447","42.179358","-71.2049898","Restaurants",
"Serinos Italian Food Manufacturing Co","931","931 Hyde Park Ave","Hyde Park","MA","(617) 361-5000","42.267977","-71.1214095","Restaurants",
"Pace J & Son Inc","75","75 Blossom Ct Ste 1","Boston","MA","(617) 227-6141","42.364972","-71.067055","Restaurants",
"Ecco Trattoria","1167","1167 Main St","South Weymouth","MA","(781) 335-5600","42.1642252","-70.9556582","Restaurants",
"Good Thymes Restaurant","1278","1278 Gorham St Ste 3","Lowell","MA","(978) 441-2799","42.6211367","-71.3050049","Restaurants",
"Monte Restaurant & Bar","397","397 Main St Ste 5","Woburn","MA","(781) 938-4020","42.4800932","-71.1513092","Restaurants",
"Granite Grill at 703 FX","703","703 Granite St Ste 2","Braintree","MA","(781) 848-4500","42.206817","-71.024284","Restaurants",
"Sabatinos Restaurant","330","330 Main St","Wakefield","MA","(781) 246-4444","42.505002","-71.071","Restaurants",
"Boncaldo Resturant & Bar","1381","1381 Boston Providence Tpke # Rt","Norwood","MA","(781) 255-5800","42.1660916","-71.1989563","Restaurants",
"Nickys Pizza Time","361","361 Lincoln Ave","Saugus","MA","(781) 233-3350","42.450099","-71.003325","Restaurants",
"Pasta Beach","30","30 Rowes Wharf Ste 130","Boston","MA","(617) 439-6900","42.3565973","-71.0503811","Restaurants",
"Isabellas Restaurant","566","566 High St","Dedham","MA","(781) 461-8485","42.247863","-71.172752","Restaurants",
"Granite St Cafe Inc","378","378 Granite St","Quincy","MA","(617) 328-7774","42.242088","-71.014977","Restaurants",
"Marias Restaurant","240","240 Quincy Ave","Braintree","MA","(781) 843-3730","42.229494","-70.971676","Restaurants",
"Chiara Bistro","569","569 High St","Westwood","MA","(781) 461-8118","42.229095","-71.221635","Restaurants",
"Leo's House of Pizza","192","192 Route 1","Newburyport","MA","(978) 462-1221","42.8005377774634","-70.8785480749988","Restaurants",
"Bottega Dicapri","41","41 Harvard St","Brookline","MA","(617) 738-5333","42.3346816","-71.1188936","Restaurants",
"Bistro 5","5","5 Playstead Rd","Medford","MA","(781) 395-7464","42.421374","-71.1323649","Restaurants",
"Papa Gino's","182","182 Summer St Ste 8","Kingston","MA","(781) 585-6568","42.0113066","-70.7354374","Pizza",
"Papa Gino's","748","748 Gallivan Blvd","Dorchester","MA","(617) 282-2404","42.284701","-71.04532","Pizza",
"Papa Gino's","532","532 Pond St","South Weymouth","MA","(781) 331-2266","42.152202","-70.953899","Pizza",
"Papa Gino's","600","600 Providence Hwy","Dedham","MA","(781) 329-1946","42.243171","-71.173053","Pizza",
"Newton Center Town Pizza","845","845 Beacon St","Newton Center","MA","(617) 928-0801","42.330316","-71.195752","Restaurants",
"Modern Pastry Inc","257","257 Hanover St","Boston","MA","(617) 523-3783","42.363249","-71.054753","Restaurants",
"Bertucci's Brick Oven Pizza & Pasta","45","45 Walkers Brook Dr","Reading","MA","(781) 942-2001","42.518851","-71.094325","Restaurants",
"Alexander's Italian Restaurant","489","489 Portland Ave","Rollinsford","NH","(603) 742-2650","43.2090935203976","-70.8528909548119","Restaurants",
"Mamma Mia's Pizza","93","93 Careswell St","Marshfield","MA","(781) 834-3050","42.081943","-70.6525221","Restaurants",
"Gregs Restaurant","821","821 Mount Auburn St","Watertown","MA","(617) 491-0122","42.374285","-71.150545","Restaurants",
"Spinelli's Pasta & Pastry Shop","282","282 Bennington St","East Boston","MA","(617) 567-1992","42.378952","-71.028849","Restaurants",
"Ponte Vecchio Restaurant & Lounge","435","435 Newbury St Ste 101","Danvers","MA","(978) 777-9188","42.599932","-70.959022","Restaurants",
"Sal's Pizza","150","150 Tremont St","Boston","MA","(617) 227-1010","42.354864","-71.063067","Restaurants",
"Same Old Place","662","662 Centre St","Jamaica Plain","MA","(617) 524-9461","42.3126","-71.1139375","Restaurants",
"Rogers Pizza House","869","869 Central Ave","Dover","NH","(603) 742-9870","43.217815","-70.882014","Restaurants",
"Mother Anna's","211","211 Hanover St","Boston","MA","(617) 523-8496","42.362755","-71.055314","Restaurants",
"Viga","304","304 Stuart St","Boston","MA","(617) 917-5193","42.349788","-71.070737","Restaurants",
"Mia Regazza","268","268 Washington St","Abington","MA","(781) 871-5800","42.1005806","-70.9502282","Restaurants",
"Roccos Restaurant & Bar","193","193 Main St","Wilmington","MA","(978) 657-7361","42.558726","-71.182277","Restaurants",
"Atlantic Sea Grill","77","77 Great Rd","Acton","MA","(978) 263-3162","42.477901","-71.411234","Restaurants",
"Anchovies","433","433 Columbus Ave","Boston","MA","(617) 266-5088","42.344035","-71.077859","Restaurants",
"Bacco Ristorante & Bar","107","107 Salem St","Boston","MA","(617) 624-0454","42.364165","-71.055382","Restaurants",
"Viga","291","291 Devonshire St","Boston","MA","(617) 482-1113","42.354089","-71.058031","Restaurants",
"Antonias Italian Cuisine","369","369 Central St","Foxboro","MA","(508) 543-0995","42.0376997","-71.2332431","Restaurants",
"Toscana Bar Italiano","90","90 Rantoul St","Beverly","MA","(978) 969-0165","42.5450696","-70.8850071","Restaurants",
"Florian Hall","55","55 Hallet St","Dorchester Center","MA","(617) 288-6666","42.281802","-71.04778","Restaurants",
"Papa Gino's","1270","1270 River St","Hyde Park","MA","(617) 364-4300","42.255708","-71.12392","Pizza",
"Papa Gino's","10","10 Lilac Mall","Rochester","NH","(603) 332-9843","43.319023","-70.972921","Pizza",
"Papa Gino's","74","74 Main St Ste 19","Medway","MA","(508) 533-4301","42.1515252","-71.412044","Pizza",
"Papa Gino's","265","265 E Central St","Franklin","MA","(508) 541-3149","42.0817044","-71.3851091","Pizza",
"Papa Gino's","885","885 Belmont St","Brockton","MA","(508) 588-1911","42.066388","-71.053292","Pizza",
"Papa Gino's","245","245 Franklin Village Dr","Franklin","MA","(508) 520-3533","42.0880618","-71.422676","Pizza",
"Papa Gino's","674","674 Bedford St","Whitman","MA","(781) 447-0052","42.079033","-70.947644","Pizza",
"Mirisolas","200","200 L St","South Boston","MA","(617) 269-9701","42.331381","-71.035031","Convenience Stores",
"Bertucci's Brick Oven Pizza & Pasta","6","6 Plaza Way","Plymouth","MA","(508) 747-1187","41.948903","-70.7158327","Restaurants",
"Courtside Restaurant","291","291 Cambridge St","Cambridge","MA","(617) 547-4374","42.37132","-71.080902","Restaurants",
"Christina's","466","466 Washington St","Pembroke","MA","(781) 829-9001","42.0843477901459","-70.7860780517377","Restaurants",
"Venetian Moon","680","680 Main St","Reading","MA","(781) 944-3633","42.5247787","-71.1032099","Restaurants",
"Lantana Cafe","417","417 Salem St","Medford","MA","(781) 393-1930","42.422378","-71.092284","Restaurants",
"Mario's Restaurant","136","136 Newbury St","Peabody","MA","(978) 535-8339","42.5364856","-70.9896355","Restaurants",
"Victor's Italian Cuisine","1539","1539 Broadway","Saugus","MA","(781) 558-5210","42.45451","-71.023878","Restaurants",
"Ajs Kitchen","162","162 Lowell St","Wilmington","MA","(978) 657-0037","42.540312","-71.153366","Restaurants",
"Comella's","33","33 Main St","Concord","MA","(978) 369-9555","42.45983","-71.3497656","Restaurants",
"Za Pizza","138","138 Massachusetts Ave","Arlington","MA","(781) 316-2334","42.404135","-71.140485","Restaurants",
"Scoozi Kenmore","580","580 Commonwealth Ave Unit 1","Boston","MA","(617) 536-7777","42.348792","-71.099423","Restaurants",
"Santarpios Pizza","71","71 Newbury St","Peabody","MA","(978) 535-1811","42.5284234025262","-70.99326733396","Restaurants",
"Wellys Restaurant","153","153 Main St Ste A","Marlborough","MA","(508) 281-2091","42.346956","-71.548369","Restaurants",
"Sofia Italian Steakhouse","1430","1430 Vfw Pkwy","West Roxbury","MA","(617) 469-2600","42.270911","-71.171805","Restaurants",
"Maria's Catering","104","104 School St","Watertown","MA","(617) 926-5144","42.366008","-71.166044","Restaurants",
"Aragosta Bar & Bistro","3","3 Battery Wharf","Boston","MA","(617) 994-9001","42.366863","-71.051341","Restaurants",
"Bobby C's Ristorante","20","20 Main St","Melrose","MA","(781) 662-5472","42.440899","-71.0684964","Restaurants",
"Moe's Italian Sandwiches","196","196 Tri City Rd","Somersworth","NH","(603) 343-4240","43.2280958565538","-70.8786968965206","Restaurants",
"Rufinas","170","170 Concord Rd","Chelmsford","MA","(978) 256-1250","42.568389","-71.350608","Restaurants",
"Mondo Pizzeria II","182","182 Massachusetts Ave","Boston","MA","(617) 262-1700","42.345656","-71.086643","Restaurants",
"Lanzillo Anthonys Italian Cuisine","188","188 Lafayette Rd","Salisbury","MA","(978) 358-7405","42.864822","-70.871669","Restaurants",
"Da Vinci Bistro","457","457 Boston Post Rd","Sudbury","MA","(978) 261-5330","42.360075","-71.424132","Restaurants",
"Mr Mike's Family Italian Restaurant","1149","1149 Main St","Haverhill","MA","(978) 373-5712","42.8088542","-71.1018795","Restaurants",
"Massimo's Ristorante","19","19 Centre St","Wakefield","MA","(781) 587-0915","42.504577","-71.069738","Restaurants",
"Sals House of Calzones","1151","1151 N Main St","Randolph","MA","(781) 963-9789","42.19509","-71.060409","Restaurants",
"Sabatinos Italian Kitchen","242","242 Massachusetts Ave","Arlington","MA","(781) 646-4448","42.406782","-71.143934","Restaurants",
"Broadway's Best Pizza","483","483 E Broadway Ste 1","South Boston","MA","(617) 268-1228","42.3352873","-71.0455912","Restaurants",
"Gerardos Italian Bakery","115","115 Apex Dr","Marlborough","MA","(508) 251-0495","42.3397","-71.58601","Restaurants",
"Antonio Bacaro Restaurant","5","5 Fairmount Ave","Hyde Park","MA","(617) 272-3028","42.2555473","-71.1211126","Restaurants",
"Evviva Cucina","142","142 Apex Dr","Marlborough","MA","(774) 843-2599","42.3397","-71.58601","Restaurants",
"California Pizza Kitchen","1150","1150 Market St","Lynnfield","MA","(781) 406-4015","42.5151364901618","-71.0340025440154","Pizza",
"Papa Gino's","235","235 Franklin Village Dr","Franklin","MA","(508) 520-3534","42.0901328674084","-71.4225412157652","Pizza",
"Papa Gino's","2889","2889 Cranberry Hwy","Wareham","MA","(508) 829-8137","41.75329","-70.71419","Pizza",
"Papa Gino's","665","665 Cochituate Rd","Framingham","MA","(508) 620-5436","42.307561","-71.385052","Pizza",
"Boston House of Pizza","115","115 Galen St","Watertown","MA","(617) 924-2467","42.361004","-71.185753","Restaurants",
"Roma Pizza","638","638 Rogers St Ste 1","Lowell","MA","(978) 937-5343","42.6313204","-71.2818617","Restaurants",
"Ducali Pizzeria & Bar","289","289 Causeway St","Boston","MA","(617) 742-4144","42.367068","-71.058082","Restaurants",
"Themis Pizza & Subs","488","488 Market St","Rockland","MA","(781) 878-7066","42.124349","-70.902921","Restaurants",
"Papa Gino's","3","3 Ferry St Ste 1","Haverhill","MA","(978) 372-5400","42.770598","-71.075071","Pizza",
"Basta Pasta","319","319 Western Ave","Cambridge","MA","(617) 576-6672","42.364689","-71.1132347","Restaurants",
"Orzo Trattoria","1085","1085 Osgood St","North Andover","MA","(978) 686-6921","42.7156631","-71.1133589","Restaurants",
"Johnnys Famous Roast Beef & Pizza","125","125 Main St Ste 1","Stoneham","MA","(781) 438-8899","42.493436","-71.101114","Restaurants",
"Sal's Pizza","296","296 Chelmsford St Ste 5","Chelmsford","MA","(978) 256-7997","42.6130092","-71.3313096","Restaurants",
"Crispis Italian Cuisine & Catering","136","136 Broad St","Bridgewater","MA","(508) 697-6733","41.9938","-70.974349","Restaurants",
"Loconte's Italian Cuisine","116","116 Salem St","Boston","MA","(617) 720-3550","42.364631","-71.055685","Restaurants",
"Chatel","535","535 John Mahar Hwy","Braintree","MA","(781) 380-8770","42.1992148","-71.0001281","Restaurants",
"Paulies","65","65 Salem St","Boston","MA","(857) 284-7064","42.363264","-71.055907","Restaurants",
"Trattoia II Panino","175","175 Berkeley St","Boston","MA","(617) 720-1336","42.3500454","-71.0720733","Restaurants",
"Ricardos Cafe Trattoria","58","58 Prescott St Unit 5","Lowell","MA","(978) 453-1777","42.6445871","-71.3078273","Restaurants",
"Florentine Cafe","294","294 Hanover St Unit A","Boston","MA","(617) 227-1777","42.3641373","-71.0543812","Restaurants",
"Alba Restaurant","1486","1486 Hancock St","Quincy","MA","(617) 376-2522","42.248493","-71.001528","Restaurants",
"Jimmys Roast Beef","435","435 Boston St","Lynn","MA","(781) 592-8242","42.466396","-70.968109","Restaurants",
"Papa Gino's","300","300 Mishawum Rd Ste 9","Woburn","MA","(781) 938-8899","42.505525","-71.13321","Pizza",
"Giuseppe's Fresh Pasta & Fine","257","257 Low St","Newburyport","MA","(978) 465-2225","42.818796","-70.908554","Restaurants",
"Pleasant Pizza & Deli","166","166 Pleasant St","Marlborough","MA","(508) 480-9090","42.348719","-71.562347","Restaurants",
"Prides Pizza","644","644 Hale St","Beverly","MA","(978) 921-1109","42.5607736","-70.8219218","Restaurants",
"Rossos Italian Style Pizza","1275","1275 Pawtucket Blvd","Lowell","MA","(978) 453-6000","42.645733","-71.376621","Restaurants",
"Upham House Pizzeria Trattoria","566","566 Columbia Rd","Dorchester","MA","(617) 282-7141","42.316565","-71.066098","Restaurants",
"Beacon Street Pizza","147","147 Beacon St","Somerville","MA","(617) 868-6100","42.378856","-71.106672","Restaurants",
"Neapoli Cafe & Pizzeria","299","299 Rantoul St","Beverly","MA","(978) 927-6117","42.5510716115693","-70.8829041468124","Restaurants",
"Pinocchios Pizza & Subs","74","74 Winthrop St","Cambridge","MA","(617) 876-4897","42.371996","-71.1203419","Restaurants",
"Norfolk Town Pizza","158","158 Main St Ste 2","Norfolk","MA","(508) 528-5355","42.1195379","-71.3272499","Restaurants",
"Deliworks & Pizzeria","62","62 Montvale Ave Ste F","Stoneham","MA","(781) 438-7955","42.4807353","-71.1078307","Restaurants",
"Mona Lisa Restaurant & Pizzeria","1621","1621 Cambridge St","Cambridge","MA","(617) 491-1888","42.374972","-71.1091642","Restaurants",
"Letteries Italian Market","67","67 Woodside Ave","Winthrop","MA","(617) 846-0351","42.3742086","-70.986533","Restaurants",
"Star Pizza","43","43 N Main St","West Bridgewater","MA","(508) 588-5706","42.0205","-71.008176","Restaurants",
"New York Pizza","421","421 Main St","Malden","MA","(781) 322-3424","42.426619","-71.066917","Restaurants",
"Acton New London Style Pizza","555","555 Massachusetts Ave","Acton","MA","(978) 263-3033","42.476383","-71.473102","Restaurants",
"Mama Ginas Pizza","19","19 Union Sq","Somerville","MA","(617) 625-0116","42.37948","-71.096177","Restaurants",
"J P House of Pizza","775","775 Centre St","Jamaica Plain","MA","(617) 522-4154","42.310063","-71.115478","Restaurants",
"Main Street House of Pizza","130","130 Main St","Everett","MA","(617) 387-3388","42.4053449","-71.061809","Restaurants",
"Frenchs Restaurant","825","825 Main St","Tewksbury","MA","(978) 851-2111","42.614854","-71.241923","Restaurants",
"Highlands Pizza & Seafood Restaurant","1290","1290 Westford St","Lowell","MA","(978) 453-5100","42.626029","-71.358973","Restaurants",
"Pomodoro","24","24 Harvard St","Brookline","MA","(617) 566-4455","42.333747","-71.119066","Restaurants",
"Petes Pizza & Seafood","267","267 Bowdoin St","Dorchester","MA","(617) 825-7116","42.306539","-71.0664819","Restaurants",
"Losteria","104","104 Salem St Ste 3","Boston","MA","(617) 723-7847","42.3643079","-71.0556508","Restaurants",
"Pizzatalia","618","618 Shawmut Ave","Boston","MA","(617) 541-4040","42.335365","-71.080587","Restaurants",
"Ninos Pizza","79","79 Charles St","Boston","MA","(617) 523-3974","42.358382","-71.070423","Restaurants",
"Cappys Pizza","672","672 Truman Hwy","Hyde Park","MA","(617) 364-0111","42.252244","-71.118233","Restaurants",
"Alfredo-Melrose","126","126 W Emerson St","Melrose","MA","(781) 665-3008","42.458931","-71.0689079","Restaurants",
"Adriatic Restaurant","155","155 Washington St Ste 1","Salem","MA","(978) 594-1832","42.520121","-70.895126","Restaurants",
"Town House Pizza","300","300 Eliot St Ste 2","Ashland","MA","(508) 881-3010","42.24235","-71.431728","Restaurants",
"Giovannis Roast Beef & Pizza","207","207 Rockingham Rd","Londonderry","NH","(603) 434-9021","42.914676","-71.387074","Restaurants",
"Portofinos Italian Kitchen Inc","396","396 Brockton Ave","Abington","MA","(781) 681-6601","42.1009155","-70.9587026","Restaurants",
"Tonys","1","1 School St","Marblehead","MA","(781) 639-8669","42.5016275902272","-70.8556643019914","Restaurants",
"Morena Cucina Rustica","23","23 Broadway St","Wakefield","MA","(781) 246-2919","42.4975219","-71.070846","Restaurants",
"Amicis","451","451 High St","Medford","MA","(781) 395-5444","42.4212118733264","-71.1316265751007","Restaurants",
"Vinnies Pizza","198","198 Salem St","Malden","MA","(781) 321-4445","42.4299419","-71.060498","Restaurants",
"Baccis North End Pizzeria","4","4 Howard St","Saugus","MA","(781) 231-9464","42.472293","-71.036573","Restaurants",
"Casa-Bella Pizza","454","454 Main St","Medfield","MA","(508) 359-4040","42.186782","-71.304432","Restaurants",
"Filhos Cucina","235","235 Main St","Groton","MA","(978) 448-5664","42.610502","-71.574499","Restaurants",
"Sals Just Pizza","2","2 Lenox Rd","Derry","NH","(603) 425-2626","42.885372","-71.325305","Restaurants",
"Friendly Pizza","125","125 Waverley St","Framingham","MA","(508) 872-9400","42.279705","-71.403896","Restaurants",
"Bazels Pizza & Sub Shop","1568","1568 Washington St","Holliston","MA","(508) 429-5995","42.179403","-71.448912","Restaurants",
"Kostas Pizza & Seafood","315","315 Chestnut St","Needham","MA","(781) 449-2255","42.274733","-71.238081","Restaurants",
"Family Style Pizza","41","41 Waverley St","Framingham","MA","(508) 370-7275","42.280446","-71.401048","Restaurants",
"Sun Pizza","46","46 Washington St","Dorchester","MA","(617) 541-1991","42.307086","-71.082046","Restaurants",
"Pizza Market","376","376 S Main St","Sharon","MA","(781) 784-2229","42.1076674","-71.1983779","Restaurants",
"Millis House of Pizza","915","915 Main St","Millis","MA","(508) 376-8500","42.166754","-71.360135","Restaurants",
"Medway Village House of Pizza","135","135 Village St","Medway","MA","(508) 533-8582","42.139969","-71.396657","Restaurants",
"Abington House of Pizza","198","198 North Ave","Abington","MA","(781) 982-9336","42.128191","-70.94257","Restaurants",
"Hideaway Restaurant","9","9 Station St","Middleboro","MA","(508) 947-5188","41.892868","-70.917406","Restaurants",
"Italian Kitchen of Brockton","1071","1071 Main St","Brockton","MA","(508) 586-2100","42.0641762","-71.0159216","Restaurants",
"Gusto Pizza","1305","1305 Pleasant St","East Weymouth","MA","(781) 335-0295","42.211548","-70.924107","Restaurants",
"Big A Sub Shop","282","282 Highland Ave","Malden","MA","(781) 321-9365","42.422753","-71.080595","Restaurants",
"Stefani Pizzeria","263","263 Brookline St","Cambridge","MA","(617) 547-4588","42.357725","-71.107992","Restaurants",
"La Mamma Pizza & More","190","190 Brighton Ave Ste A","Allston","MA","(617) 783-1661","42.353029","-71.133899","Restaurants",
"Sal's & Mal's Pizzaria","8","8 Wall St Ste 1","Foxboro","MA","(508) 543-0336","42.0634439","-71.248378","Restaurants",
"Hudson House of Pizza","121","121 Main St","Hudson","MA","(978) 562-9595","42.3908667","-71.5666632","Restaurants",
"Pizzeria 260","260","260 W Broadway","South Boston","MA","(617) 268-9600","42.339407","-71.051422","Restaurants",
"Angelina's","1866","1866 Main St Ste 4","Tewksbury","MA","(978) 319-9573","42.5919453","-71.2067591","Restaurants",
"Comella's","1","1 Boylston St","Chestnut Hill","MA","(617) 278-2400","42.3237741","-71.1663273","Restaurants",
"Olympic House of Pizza","2605","2605 Cranberry Hwy","Wareham","MA","(508) 273-7536","41.768866","-70.7173832","Restaurants",
"Taste of Italy Pizzeria Inc","136","136 Newbury St","Peabody","MA","(978) 587-3828","42.5364856","-70.9896355","Restaurants",
"Sorelle","1400","1400 Bedford St","Abington","MA","(781) 421-6156","42.1399704","-70.9520906","Restaurants",
"Papa Gino's","55","55 Crystal Ave Unit 14","Derry","NH","(603) 432-4223","42.892457","-71.323592","Pizza",
"Papa Gino's","341","341 Cochituate Rd","Ashland","MA","(508) 283-3796","42.25913","-71.46364","Pizza",
"Papa Gino's","553","553 Main St Ste 3","Tewksbury","MA","(978) 851-6221","42.6185391","-71.2547825","Pizza",
"Papa Gino's","10","10 Washington St Ste 3","Norwell","MA","(781) 878-8417","42.173865","-70.88281","Pizza",
"Papa Gino's","5","5 Milton Rd","Rochester","NH","(603) 332-2639","43.3192","-70.97277","Pizza",
"California Pizza Kitchen","183","183 Linden St","Wellesley","MA","(781) 416-3690","42.2999498","-71.2913956","Pizza",
"California Pizza Kitchen","100","100 Cambridgeside Pl Spc W102","Cambridge","MA","(617) 225-2772","42.3684293","-71.0764537","Pizza",
"Papa Gino's","829","829 Central Ave","Dover","NH","(603) 742-4242","43.216278","-70.879731","Pizza",
"California Pizza Kitchen","250","250 Granite St Ste 198","Braintree","MA","(781) 348-4970","42.2220443","-71.0227762","Pizza",
"Papa Gino's","765","765 Bridge St Ste 4","North Weymouth","MA","(781) 340-3385","42.2458596","-70.9343891","Pizza",
"Papa Gino's","385","385 Broadway","Saugus","MA","(781) 233-4419","42.486934","-71.018657","Pizza",
"Papa Gino's","2899","2899 Cranberry Hwy","East Wareham","MA","(508) 295-7474","41.759467","-70.666081","Pizza",
"Marco's Pizza","47","47 Newbury St","Peabody","MA","(978) 854-6906","42.5248982","-70.9950236","Pizza",
"Romanos Pizza of Dracut","1794","1794 Bridge St Ste 10","Dracut","MA","(978) 970-2889","42.6844366","-71.310869","Restaurants",
"Cambridge One","27","27 Church St","Cambridge","MA","(617) 576-1111","42.374491","-71.119993","Restaurants",
"Rigatony's","38","38 W Broadway","Derry","NH","(603) 425-6116","42.879588","-71.328145","Restaurants",
"Demainos Restaurant","14","14 Malden St","Revere","MA","(781) 284-8110","42.416453","-71.008885","Restaurants",
"Amici's East Coast Pizzeria","127","127 Waverley Rd","North Andover","MA","(978) 725-9339","42.700654","-71.135034","Restaurants",
"A-1 Deli Inc","92","92 Merrimack St","Haverhill","MA","(978) 372-7951","42.7744237","-71.0787913","Restaurants",
"Lilly's Fresh Pasta","208","208 Main St","Everett","MA","(617) 651-0411","42.4080412","-71.0624845","Restaurants",
"Papa Gino's","117","117 Great Rd Ste 1","Stow","MA","(978) 897-9101","42.434679","-71.485855","Pizza",
"Papa Gino's","156","156 Andover St Unit 6","Danvers","MA","(978) 777-5550","42.557276","-70.970377","Pizza",
"Toss N Sauce Italian Pizzeria","10","10 Main St","Hampstead","NH","(603) 329-6002","42.875097","-71.181981","Restaurants",
"Agostinos Restaurant","23","23 Washington St","Natick","MA","(508) 655-6643","42.285085","-71.346128","Restaurants",
"Sorellina","1","1 Huntington Ave","Boston","MA","(617) 412-4600","42.3486384","-71.0782954","Restaurants",
"Anthony T Pizzeria & Restaurant","1016","1016 Commonwealth Ave","Boston","MA","(617) 734-7708","42.351465","-71.12149","Restaurants",
"Cafe Strega","16","16 Main Street Ext","Plymouth","MA","(508) 732-9996","41.955433","-70.6632894","Restaurants",
"Capri","6","6 Driftway","Salisbury","MA","(978) 462-7543","42.8428342336698","-70.8179092915288","Restaurants",
"Armandos Pizza","163","163 Huron Ave","Cambridge","MA","(617) 354-8275","42.3824127","-71.1314043","Restaurants",
"Paolos Trattoria","251","251 Main St","Charlestown","MA","(617) 242-6047","42.3768945","-71.065956","Restaurants",
"Sal's Just Pizza","328","328 Boston Rd","North Billerica","MA","(978) 671-9393","42.569409","-71.275317","Restaurants",
"Spazio","200","200 Quincy Ave","Braintree","MA","(781) 849-1577","42.2283479","-70.970753","Restaurants",
"Papa Gino's","240","240 Grove St","Braintree","MA","(781) 380-7744","42.191317","-70.988772","Pizza",
"Buono Panini","418","418 Island Pond Rd Unit 1","Derry","NH","(603) 952-4636","42.851626","-71.214961","Restaurants",
"Cucchiellos Bakery","304","304 Lincoln Ave Ste 3","Saugus","MA","(617) 561-1075","42.449642","-70.997162","Restaurants",
"Nicks Homemade Pizza House","27","27 County Rd","Mattapoisett","MA","(508) 758-2277","41.663414","-70.815027","Restaurants",
"Massiminos Cucina Italiana Restaurant","207","207 Endicott St","Boston","MA","(617) 523-5959","42.36658","-71.057957","Restaurants",
"Ristorante Massimo","59","59 Penhallow St","Portsmouth","NH","(603) 436-4000","43.077306","-70.756131","Restaurants",
"Four 66 Pub & Grill","466","466 Newbury St","Danvers","MA","(978) 774-9662","42.60063","-70.959937","Restaurants",
"Bocca Bella Cafe & Bistro","442","442 Lexington St","Auburndale","MA","(617) 928-1200","42.3472115","-71.2468017","Restaurants",
"Cafe Assisi","667","667 South St Ste 5","Wrentham","MA","(508) 384-9400","42.050053","-71.345669","Restaurants",
"Harvard House of Pizza","1706","1706 Massachusetts Ave","Cambridge","MA","(617) 864-8090","42.383201","-71.119839","Restaurants",
"Centre Street Cafe","669","669 Centre St Ste A","Jamaica Plain","MA","(617) 524-9217","42.3125204","-71.1143718","Restaurants",
"A & L Bakery","330","330 Sumner St","East Boston","MA","(617) 569-7597","42.367415","-71.03583","Restaurants",
"University House of Pizza","452","452 Huntington Ave","Boston","MA","(617) 442-9280","42.338542","-71.092821","Restaurants",
"Pizzeria Grande","1185","1185 Washington St","Walpole","MA","(508) 660-0004","42.131268","-71.2422239","Restaurants",
"Pasquale's","87","87 Nashua Rd","Londonderry","NH","(603) 434-3093","42.854566","-71.355883","Restaurants",
"Wicked Cheesy Pizza Inc","1079","1079 Main St","Tewksbury","MA","(978) 863-1901","42.6103352","-71.2317443","Restaurants",
"Biagio Ristorante & Bar","123","123 Moody St","Waltham","MA","(781) 891-0100","42.373987","-71.236762","Restaurants",
"Aria Trattoria","253","253 Hanover St Apt 2","Boston","MA","(617) 742-1276","42.363233","-71.054817","Restaurants",
"Trattoria Amalfi","385","385 S Broadway Ste A","Salem","NH","(603) 893-5773","42.750946","-71.204503","Restaurants",
"Cafe Eilat","406","406 Harvard St","Brookline","MA","(617) 277-7770","42.3450261","-71.1269382","Restaurants",
"Olive Garden Italian Kitchen","728","728 Donald Lynch Blvd","Marlborough","MA","(508) 303-6558","42.352512","-71.615896","Restaurants",
"Olive Garden Italian Kitchen","392","392 Patriot Pl","Foxboro","MA","(508) 543-3967","42.0860466","-71.2712278","Restaurants",
"Francos Trattoria","365","365 Boston Post Rd Ste 102","Sudbury","MA","(978) 443-3494","42.361644","-71.416746","Restaurants",
"Borrellis Italian Deli","322","322 Merrimack St","Methuen","MA","(978) 687-2306","42.74312","-71.131474","Restaurants",
"La Pastaria","1","1 Faneuil Hall Market Pl","Boston","MA","(617) 523-3858","42.359767226036","-71.053461385707","Restaurants",
"Noel's Water Hole","274","274 South St","Hingham","MA","(781) 749-1720","42.2365172","-70.900521","Restaurants",
"Toscanas Ristorante & Cafe","3","3 Bourbon St","Peabody","MA","(978) 535-0731","42.5456723","-70.9796244","Restaurants",
"La Vita Mia","38","38 Hamilton St","Saugus","MA","(781) 233-7227","42.465669","-71.006568","Restaurants",
"Sabatino S North","14","14 E Broadway","Derry","NH","(603) 432-7999","42.881391","-71.325942","Restaurants",
"Daily Catch","21","21 Drydock Ave","Boston","MA","(617) 772-4400","42.3442717","-71.0309395","Restaurants",
"Mamma Mias Pizza","333","333 Columbia Rd Ste 2","Hanover","MA","(781) 826-1600","42.110151","-70.8139939","Restaurants",
"Angelos Pizzaria & Restaurant","239","239 Main St","Stoneham","MA","(781) 438-8598","42.485692","-71.1005069","Restaurants",
"Angelos Restaurant","237","237 Main St","Stoneham","MA","(781) 279-9035","42.4858866","-71.1005262","Restaurants",
"Taranta Cucina Meridionale","210","210 Hanover St","Boston","MA","(617) 720-0052","42.362941","-71.055579","Restaurants",
"Bell In Hand Tavern","45","45 Union St","Boston","MA","(617) 227-2098","42.3615167","-71.0570482","Restaurants",
"J & R Indian Head Pub","278","278 Main St","Hanson","MA","(781) 294-8592","42.0428371","-70.8523749","Restaurants",
"8 10 Bar & Grille","8","8 Norwood St","Everett","MA","(617) 387-9810","42.4071116","-71.0561931","Restaurants",
"Leos Pizzaria","1363","1363 Main St","Walpole","MA","(508) 660-0141","42.1335303","-71.2622555","Restaurants",
"Colonial House Restaurant","33","33 Savin Ave","Norwood","MA","(781) 762-3000","42.1810716","-71.2065101","Restaurants",
"Lucia Ristorante","11","11 Mount Vernon St","Winchester","MA","(781) 729-0515","42.4525912","-71.1364284","Restaurants",
"Giacomos Restaurant","398","398 Columbus Ave","Boston","MA","(617) 536-5723","42.344473","-71.076363","Restaurants",
"Costellos Tavern","723","723 Centre St","Jamaica Plain","MA","(617) 522-9263","42.3112573","-71.1147312","Restaurants",
"Josephs Bakery","258","258 K St","South Boston","MA","(617) 269-2186","42.334543","-71.037183","Restaurants",
"Fast Eddies Pizza","1696","1696 Commonwealth Ave","Brighton","MA","(617) 277-0324","42.341242","-71.146507","Restaurants",
"Conrads Restaurant","728","728 Washington St","Norwood","MA","(781) 769-3883","42.1918223","-71.2016706","Restaurants",
"Torrettas Bakery & Ice Cream","652","652 Winthrop Ave","Revere","MA","(781) 289-8608","42.397429","-70.991623","Restaurants",
"Tonys Clam Shop","861","861 Quincy Shore Dr","Quincy","MA","(617) 773-5090","42.275204","-71.005945","Restaurants",
"Sal's Pizza","490","490 Main St","North Andover","MA","(978) 689-7374","42.6935277493461","-71.120618798402","Restaurants",
"Pasquales Ristorante","145","145 Raymond Rd","Candia","NH","(603) 483-5005","43.0597819664958","-71.2774318041459","Restaurants",
"Cinderellas Restaurant Italian Cuisine","901","901 Main St","Cambridge","MA","(617) 576-0280","42.363599","-71.0994995","Restaurants",
"Amici Trattoria","7","7 Summer St","Chelmsford","MA","(978) 244-9154","42.593962","-71.349044","Restaurants",
"Rodey Pizzeria and Pasta","55","55 Causeway St","Boston","MA","(617) 523-3000","42.364309","-71.062943","Restaurants",
"Noble Romans Pizza","249","249 Ruggles St","Boston","MA","(617) 375-1069","42.3359115902272","-71.0905945545648","Restaurants",
"Quarry Restaurant and Lounge","415","415 Whiting St","Hingham","MA","(781) 340-7300","42.192726","-70.917057","Restaurants",
"Giovannis Roast Beef and Pizza","1148","1148 Bridge St","Lowell","MA","(978) 455-0221","42.663168","-71.303872","Restaurants",
"Limoncello 2","76","76 Salem St","Boston","MA","(857) 233-4653","42.3636256","-71.0564172","Restaurants",
"Euno Restaurante","119","119 Salem St","Boston","MA","(617) 573-9406","42.364538","-71.055365","Restaurants",
"Cafe Italia","21","21 Water St","Wakefield","MA","(781) 245-2245","42.502368","-71.0687189","Restaurants",
"Comella's","1302","1302 Washington St","West Newton","MA","(617) 928-1001","42.349136","-71.2266626","Restaurants",
"Sophias Grotto","22","22 Birch St","Roslindale","MA","(617) 323-4595","42.2867073","-71.1300412","Restaurants",
"Restaurante Cesaria","266","266 Bowdoin St","Dorchester","MA","(617) 282-1998","42.3069101","-71.0666588","Restaurants",
"Angelos House of Pizza","579","579 Moody St","Waltham","MA","(781) 893-1208","42.366351","-71.238137","Restaurants",
"Piattini","226","226 Newbury St","Boston","MA","(617) 262-8988","42.349713","-71.081236","Restaurants",
"Monte Christo's Restaurant","745","745 State Rd","Manomet","MA","(508) 224-7000","41.91573","-70.55487","Restaurants",
"Sbarro","1245","1245 Worcester St Ste 2000","Natick","MA","(508) 650-5714","42.3004711","-71.3857931","Restaurants",
"Vinnys at Night","76","76 Broadway","Somerville","MA","(617) 628-1921","42.3868269","-71.08166","Restaurants",
"Village Pizza & Grill","56","56 L St","South Boston","MA","(617) 269-9421","42.336371","-71.035267","Restaurants",
"Piccolinos Restaurant","4","4 Mill St","Shirley","MA","(978) 425-9000","42.5439977","-71.6518988","Restaurants",
"Amelias Trattoria","111","111 Harvard St","Cambridge","MA","(617) 868-7600","42.36506","-71.092688","Restaurants",
"Off The Vine","150","150 Newburyport Tpke Ste C1","Rowley","MA","(978) 948-8788","42.7028275","-70.9110411","Restaurants",
"Capri Pizza","355","355 Main St","Reading","MA","(781) 944-9898","42.5184237","-71.1028914","Restaurants",
"Isabella's Italian Deli","20","20 Exchange St","Millis","MA","(508) 376-5430","42.166588","-71.361283","Restaurants",
"Atavola","34","34 Church St","Winchester","MA","(781) 729-1040","42.451395","-71.138736","Restaurants",
"Viga Italian Eatery Corporation Office","289","289 Devonshire St Fl 2","Boston","MA","(617) 542-8442","42.354156","-71.057944","Restaurants",
"Antonios","286","286 Cambridge St","Boston","MA","(617) 367-3310","42.360935","-71.068182","Restaurants",
"Daves Fresh Pasta","81","81 Holland St","Somerville","MA","(617) 623-0867","42.3988042","-71.1241508","Restaurants",
"Trattoria San Pietro","376","376 Washington St Ste 1","Norwell","MA","(781) 659-2009","42.160494","-70.860248","Restaurants",
"Marios Ristorante","20","20 Main St","North Reading","MA","(978) 664-8533","42.566113","-71.109135","Restaurants",
"River Street Grill II","1263","1263 River St","Hyde Park","MA","(617) 364-6600","42.256025","-71.123712","Restaurants",
"La Frontera Restaurant","290","290 Bennington St Ste 1","East Boston","MA","(617) 569-8600","42.3789957","-71.0285918","Restaurants",
"Super Seven","889","889 Western Ave","Lynn","MA","(781) 581-2153","42.4583134810109","-70.970731967075","Restaurants",
"Carlos Cucina Italiana","131","131 Brighton Ave","Allston","MA","(617) 254-9759","42.353108","-71.131193","Restaurants",
"Lolas Groceria & Deli","9","9 Main St","Natick","MA","(508) 651-0524","42.2842034","-71.347723","Convenience Stores",
"Farfalle Italian Market","26","26 Concord Xing","Concord","MA","(978) 369-2900","42.4558613","-71.3576079","Convenience Stores",
"Lucciano's Cafe","52","52 Gilcreast Rd","Londonderry","NH","(603) 432-2442","42.864087","-71.343703","Restaurants",
"Piccolo Nido","257","257 North St","Boston","MA","(617) 742-4272","42.3636909","-71.0518999","Restaurants",
"Tartufo Restaurant","22","22 Union St","Newton Center","MA","(617) 244-8833","42.330347","-71.190977","Restaurants",
"Moe's Italian Sandwiches","100","100 Calef Hwy","Lee","NH","(603) 868-6637","43.1482827","-71.0074901","Restaurants",
"Giacomos Restaurant","355","355 Hanover St","Boston","MA","(617) 523-9026","42.364592","-71.053428","Restaurants",
"Sabatino's Italian Kitchen","1443","1443 Commonwealth Ave","Brighton","MA","(617) 787-9393","42.348935","-71.140288","Restaurants",
"Hungry Tiger","700","700 Boston Rd Ste 18","Billerica","MA","(978) 663-2535","42.539614","-71.244088","Restaurants",
"Theos Restaurant","122","122 W Main St Apt 9","Georgetown","MA","(978) 352-6171","42.729586","-70.99737","Restaurants",
"J & M Italian Specialty","340","340 Central St","Saugus","MA","(781) 231-1600","42.462538","-71.009305","Restaurants",
"Dparma Restaurant","467","467 Shirley St","Winthrop","MA","(617) 846-5867","42.372907","-70.971537","Restaurants",
"Brothers Roast Beef","986","986 Eastern Ave","Malden","MA","(781) 321-0144","42.4306141","-71.0416047","Restaurants",
"Moe's Italian Sandwiches","262","262 Central Ave","Dover","NH","(603) 749-4514","43.193005","-70.873881","Restaurants",
"Tremonte Pizzaria and Pub","44","44 Palmer St","Lowell","MA","(978) 453-1110","42.645015","-71.310558","Restaurants",
"Moe's Italian Sandwiches","63","63 Portsmouth Ave","Exeter","NH","(603) 772-6637","42.9847354208473","-70.9378954996438","Restaurants",
"Walden Italian Kitchen","92","92 Commonwealth Ave","Concord","MA","(978) 369-6655","42.4573904","-71.3952704","Restaurants",
"Bella Costa Ristorante","147","147 Cochituate Rd","Framingham","MA","(508) 626-1726","42.3005093","-71.4077684","Restaurants",
"Umberto Galleria","289","289 Hanover St","Boston","MA","(617) 227-5709","42.3637609","-71.054258","Restaurants",
"Pomodori Georgetown","42","42 Central St","Georgetown","MA","(978) 769-5623","42.721871","-70.992241","Restaurants",
"Oyes Restaurant and Bar","26","26 Walkers Brook Dr","Reading","MA","(781) 944-6800","42.519958","-71.093767","Restaurants",
"Mother Anna's Restaurant & Bar","46","46 Columbia Rd","Pembroke","MA","(781) 924-1955","42.105873","-70.8055736","Restaurants",
"Antonella's","580","580 Chelsea St","East Boston","MA","(781) 629-3320","42.3845073","-71.0230311","Restaurants",
"Michael's Restaurant","208","208 Fitchburg Tpke","Concord","MA","(978) 371-1114","42.4217748","-71.3722896","Restaurants",
"Out of The Blue Restaurant","215","215 Elm St","Somerville","MA","(617) 776-5020","42.394495","-71.121006","Restaurants",
"Alia Ristorante","495","495 Shirley St","Winthrop","MA","(617) 539-1600","42.372184","-70.970918","Restaurants",
"Storage Ristorante","379","379 Hanover St","Boston","MA","(617) 523-8481","42.365025","-71.053042","Restaurants",
"Boston House of Pizza","305","305 Huntington Ave","Boston","MA","(617) 266-4605","42.341306","-71.087321","Restaurants",
"Caesars Pizza & Subs","401","401 Somerville Ave","Somerville","MA","(617) 776-9942","42.38186","-71.100833","Restaurants",
"Rinos Place","258","258 Saratoga St","East Boston","MA","(617) 567-7412","42.378289","-71.032186","Restaurants",
"Moe's Italian Sandwiches","7","7 Mill Rd","Durham","NH","(603) 868-2337","43.1335402939267","-70.9268572515481","Restaurants",
"Nicks Pizza & Seafood","87","87 Main St","Ashland","MA","(508) 881-2431","42.261451","-71.466247","Restaurants",
"Off The Boat Seafood","306","306 Revere St","Revere","MA","(617) 561-8800","42.4183635","-70.9990198","Restaurants",
"Emmas Downtown","128","128 Broad St","Bridgewater","MA","(508) 697-6674","41.993396","-70.974548","Restaurants",
"Buccieris Pizzeria","106","106 4th St","Chelsea","MA","(617) 889-0001","42.393866","-71.0384245","Restaurants",
"Moe's Italian Sandwiches","22","22 Daniel St","Portsmouth","NH","(603) 436-2327","43.077349","-70.756978","Restaurants",
"Moe's Italian Sandwiches","43","43 N Main St","Rochester","NH","(603) 335-2735","43.3046100239897","-70.9771921769467","Restaurants",
"Anthony's East Side Deli","159","159 Massachusetts Ave","Arlington","MA","(781) 777-2033","42.4051403","-71.1411117","Restaurants",
"Terramia Ristorante","98","98 Salem St","Boston","MA","(617) 523-3112","42.3640218","-71.0556839","Restaurants",
"Casa Razdora","115","115 Water St","Boston","MA","(617) 338-6700","42.35805","-71.054608","Restaurants",
"Salem House of Pizza","115","115 Main St Ste A","Salem","NH","(603) 893-5250","42.782396","-71.228044","Restaurants",
"Haverhill House of Pizza","249","249 Lincoln Ave","Haverhill","MA","(978) 373-6300","42.7627377","-71.0380697","Restaurants",
"Little Lola's","57","57 Eliot St","Natick","MA","(508) 647-1789","42.2721203","-71.3168029","Restaurants",
"Rocco's Pizza House","26","26 Maple St","Danvers","MA","(978) 777-1877","42.565963","-70.936423","Restaurants",
"Cafe Mediterraneo","119","119 Congress St","Portsmouth","NH","(603) 427-5563","43.0762337","-70.7598976","Restaurants",
"Gallo Nero","89","89 Main St","Peabody","MA","(978) 531-9833","42.5239621","-70.9238393","Restaurants",
"Ricardos Ristorante","175","175 North St","Boston","MA","(617) 720-3994","42.363184","-71.053764","Restaurants",
"Cafe Sorelli","130","130 New Boston St Ste 105","Woburn","MA","(781) 937-9494","42.506337","-71.145672","Restaurants",
"Milan Family Restaurant & Pizzeria","688","688 Rogers St","Lowell","MA","(978) 453-8596","42.630799","-71.280505","Restaurants",
"Prattville Metro Pizza & Restaurant","357","357 Washington Ave","Chelsea","MA","(617) 884-0133","42.40485","-71.0353933","Restaurants",
"Bravo Pizza","1233","1233 Massachusetts Ave Unit 2","Boxborough","MA","(978) 635-0637","42.485366","-71.53287","Restaurants",
"Dipietros Pizzeria","285","285 Highland Ave","Malden","MA","(781) 321-1783","42.422975","-71.0802269","Restaurants",
"Alfredo Aiello Italian Foods","72","72 Washington St","Norwell","MA","(781) 878-2500","42.172758","-70.880022","Restaurants",
"Uncle Nino","313","313 Park Ave","Revere","MA","(781) 284-0075","42.4124751","-71.020629","Restaurants",
"Theos Pizzeria & Grille","456","456 Boston Post Rd","Weston","MA","(781) 893-1377","42.3669561329385","-71.3018047367893","Restaurants",
"Rome Restaurant","4","4 E Central St","Franklin","MA","(508) 528-4740","42.0823231","-71.3970055","Restaurants",
"Blue Moon Pizzeria","707","707 Main St Ste 3","Norwell","MA","(781) 659-2999","42.161671","-70.7911625","Restaurants",
"Santoros Sicilian","211","211 Bridge St","Dedham","MA","(781) 329-3354","42.264306","-71.177879","Restaurants",
"Moe's Italian Sandwiches","2975","2975 Lafayette Rd","Portsmouth","NH","(603) 431-6637","43.026745","-70.791209","Restaurants",
"Jackson Square Tavern","1530","1530 Commercial St Frnt","East Weymouth","MA","(781) 337-0100","42.216527","-70.921953","Restaurants",
"Cafe Roma Pizzeria & Grill Restaurant","706","706 Salem St","Malden","MA","(781) 480-4571","42.4338819","-71.045462","Restaurants",
"Ath's Pizza & Roast Beef","10","10 Sylvan St Ste 2","Peabody","MA","(978) 536-9915","42.5468722","-70.9457817","Restaurants",
"Pizza Express Inc","62","62 Main St","Maynard","MA","(978) 897-9575","42.432153","-71.453068","Restaurants",
"Maynard Pizza House","149B","149b Main St","Maynard","MA","(978) 897-4212","42.4313507075618","-71.4573580601843","Restaurants",
"Fiorellas","187","187 North St","Newtonville","MA","(617) 969-9990","42.365247","-71.218192","Restaurants",
"Pizza Place","210","210 Boston Rd","Chelmsford","MA","(978) 256-2721","42.579253","-71.339956","Restaurants",
"Villa Italian Kitchen","72","72 Market St","Somersworth","NH","(603) 692-4607","43.263921","-70.863761","Restaurants",
"Sals Ristorante & Pizza","205","205 L St","South Boston","MA","(617) 268-5800","42.331404","-71.035398","Restaurants",
"Mamma Mia Pizza","134","134 Main St","Kingston","MA","(781) 585-9847","41.987628","-70.716002","Restaurants",
"Milano House of Pizza","175","175 Boston Rd","North Billerica","MA","(978) 663-4339","42.583048","-71.290957","Restaurants",
"Mikes House of Pizza","309","309 Main St","Hanson","MA","(781) 293-3591","42.0424357","-70.8532926","Restaurants",
"Figaro's Pizza","105","105 Beach St Ste 1","Boston","MA","(617) 426-2121","42.35068","-71.058343","Restaurants",
"Nicholas Pizzeria","33","33 Chapel St","Needham","MA","(781) 449-6303","42.282248","-71.236885","Restaurants",
"P J Pizza Place","33","33 Broadway","Methuen","MA","(978) 686-0372","42.718509","-71.179038","Restaurants",
"ABC Pizza","744","744 Massachusetts Ave","Cambridge","MA","(617) 876-4607","42.366124","-71.10547","Restaurants",
"Pizza Stop","851","851 Harrison Ave","Boston","MA","(617) 427-4054","42.3347353","-71.0757087","Restaurants",
"Assaggio","29","29 Prince St","Boston","MA","(617) 227-7380","42.364636","-71.054286","Restaurants",
"Captain Hooks","406","406 Washington St","Gloucester","MA","(978) 282-4665","42.6330133","-70.6768099","Restaurants",
"Depot House of Pizza","53","53 Essex St","Andover","MA","(978) 475-0055","42.657029","-71.144634","Restaurants",
"Blackjack Pasta Bar","1401","1401 Washington St","Boston","MA","(617) 266-1313","42.3413143","-71.0702718","Restaurants",
"Ninos Ristorante Italiano","7","7 Everett St","Revere","MA","(781) 629-3494","42.4103103","-71.0005538","Restaurants",
"Shandong Dumpling House","950","950 Massachusetts Ave Ste 3","Cambridge","MA","(617) 661-8066","42.3685001","-71.1101382","Restaurants",
"Newton Pizza House","57","57 Lincoln St","Newton Highlands","MA","(617) 333-8195","42.321558","-71.208391","Restaurants",
"Billy's Texas BBQ","530","530 Washington St","Dorchester Center","MA","(617) 288-6161","42.292983","-71.07162","Restaurants",
"Ristorante Damiano","307","307 Hanover St","Boston","MA","(617) 742-0020","42.363883","-71.054158","Restaurants",
"All Star Pizza & Grill","499","499 S Broadway","Lawrence","MA","(978) 686-1500","42.6833979","-71.154804","Restaurants",
"Tony Lenas Sandwich Shop","88","88 Cherry St","Swampscott","MA","(781) 593-0440","42.4758844","-70.9233676","Restaurants",
"Daily Catch","441","441 Harvard St","Brookline","MA","(617) 734-2700","42.346136","-71.1277099","Restaurants",
"Lena's Original Pizza & Sub Shop","889","889 Main St","Waltham","MA","(781) 891-1270","42.376465","-71.246666","Restaurants",
"Rossinis Pizzeria","418","418 Boston Post Rd","Sudbury","MA","(978) 579-0580","42.361499","-71.42134","Restaurants",
"Newtonville Pizza","322","322 Walnut St","Newtonville","MA","(617) 969-9842","42.350119","-71.206705","Restaurants",
"Egleston House of Pizza","3080","3080 Washington St","Roxbury","MA","(617) 522-5767","42.3153962","-71.0985266","Restaurants",
"Ristorante Fiore","250","250 Hanover St","Boston","MA","(617) 371-1176","42.363567","-71.0549939","Restaurants",
"Theos Pizzaria & Grill","389","389 Trapelo Rd","Belmont","MA","(617) 484-7070","42.385981","-71.184551","Restaurants",
"Five Star Pizza & More","148","148 Granite St Ste 2","Quincy","MA","(617) 471-5555","42.245205","-71.006147","Restaurants",
"Sebastians Pizza","56","56 Washington St","Gloucester","MA","(978) 283-4407","42.6137563","-70.6682477","Restaurants",
"Alfredo Aiello Italian Food","2182","2182 Washington St","Canton","MA","(617) 479-6360","42.191594","-71.118189","Restaurants",
"Marios Restaurant","347","347 Chelsea St","East Boston","MA","(617) 567-8608","42.378168","-71.028868","Restaurants",
"Sal's Pizza","51","51 Brookline Ave","Boston","MA","(617) 536-4444","42.347327","-71.098676","Restaurants",
"Lucianas Pizzeria","400","400 Highland Ave Ste 16","Salem","MA","(978) 594-5887","42.495598","-70.933267","Restaurants",
"Angelina's Pizza & Subs","230","230 Holland St","Somerville","MA","(617) 776-1240","42.402467","-71.126946","Restaurants",
"Magnolia House of Pizza","35","35 Fuller St Unit 4","Gloucester","MA","(978) 525-3030","42.5769974","-70.7144968","Restaurants",
"Vinoteca Di Monica Restaurant","143","143 Richmond St","Boston","MA","(617) 227-0311","42.363523","-71.05431","Restaurants",
"Vincenzos Inc","29","29 Bryant St","Dedham","MA","(781) 493-6156","42.246783","-71.173579","Restaurants",
"Front Row Pizzeria","137","137 Epping Rd Ste A","Exeter","NH","(603) 773-0047","42.991183","-70.969307","Restaurants",
"Classic Pizza","72","72 Hosmer St Ste 2","Marlborough","MA","(508) 485-6999","42.35403","-71.533308","Restaurants",
"Little Italy","294","294 Cabot St","Beverly","MA","(978) 922-4704","42.551906","-70.8790841","Restaurants",
"Johns Pizza & Subs","8","8 Central Ave","Chelsea","MA","(617) 884-2617","42.390437","-71.035017","Restaurants",
"Veneto Ristorante","17","17 Vinal Sq","North Chelmsford","MA","(978) 251-7771","42.639468","-71.383655","Restaurants",
"Wakefield House of Pizza","43","43 Tuttle St","Wakefield","MA","(781) 245-5580","42.502767","-71.076265","Restaurants",
"Brothers Pizza","7","7 Summer St Ste 39","Chelmsford","MA","(978) 256-2552","42.593962","-71.349044","Restaurants",
"Grotto","37","37 Bowdoin St","Boston","MA","(617) 227-3434","42.3599018","-71.0631247","Restaurants",
"Alfredos Restaurant","229","229 Brighton Ave","Allston","MA","(617) 562-8222","42.353627","-71.135654","Restaurants",
"Gerrys Italian Kitchen","1074","1074 Belmont St","Watertown","MA","(617) 484-0606","42.382306","-71.197854","Restaurants",
"Painting Place","99","99 Bishop Richard Allen Dr Ste 3","Cambridge","MA","(610) 433-8190","42.3658369","-71.1019966","Restaurants",
"Annas Pizza House","873","873 Main St","Waltham","MA","(781) 899-7810","42.376424","-71.246056","Restaurants",
"Dinos Pizzeria","62","62 Lambert St","Medford","MA","(781) 391-1520","42.423434","-71.091174","Restaurants",
"Bills Pizzeria","753","753 Beacon St","Newton Center","MA","(617) 964-1116","42.3306759","-71.191838","Restaurants",
"Pasta Market Cafe","245","245 Ferry St","Malden","MA","(781) 397-0555","42.422958","-71.062416","Restaurants",
"Strafford House of Pizza","116","116 Central Ave","Dover","NH","(603) 749-9422","43.185532","-70.87513","Restaurants",
"Riva Restaurant","116","116 Front St","Scituate","MA","(781) 545-5881","42.195112","-70.724842","Restaurants",
"Chicago Pizza","239","239 Massachusetts Ave","Cambridge","MA","(617) 497-5555","42.3617126","-71.0971053","Restaurants",
"Rome Pizza","416","416 Tremont St","Boston","MA","(617) 695-1640","42.346906","-71.068662","Restaurants",
"Ristorante Saraceno","286","286 Hanover St","Boston","MA","(617) 227-5888","42.363994","-71.054573","Restaurants",
"Pomodoro","319","319 Hanover St","Boston","MA","(617) 367-4348","42.36411","-71.053949","Restaurants",
"Antico Forno","93","93 Salem St","Boston","MA","(617) 723-6733","42.3637749","-71.055556","Restaurants",
"Engine House Restaurant & Pizza","71","71 Lafayette St","Salem","MA","(978) 745-1744","42.519756","-70.89322","Restaurants",
"Rockport House of Pizza","19","19 Broadway","Rockport","MA","(978) 546-6066","42.657088","-70.617885","Restaurants",
"New Danvers House of Pizza","67","67 High St","Danvers","MA","(978) 774-7500","42.561883","-70.933444","Restaurants",
"Saugus Italian American Club","1","1 Beachview Ave","Saugus","MA","(781) 233-8669","42.4452865","-70.9896893","Restaurants",
"Thats Italian Too","957","957 Washington St","East Weymouth","MA","(781) 337-5414","42.199439","-70.93772","Restaurants",
"Tutto Italiano","1889","1889 River St","Hyde Park","MA","(617) 361-4700","42.2434212","-71.1426719","Restaurants",
"West Napoli Cafe","1946","1946 Centre St","West Roxbury","MA","(617) 325-7909","42.283578","-71.156764","Restaurants",
"Sandwich Exchange","16","16 Upton Dr Unit 7","Wilmington","MA","(978) 657-0457","42.592154","-71.150565","Restaurants",
"Mangia Mangia Italian Kitchen","430","430 Boston Rd","Billerica","MA","(978) 667-2697","42.559105","-71.268648","Restaurants",
"Family House of Pizza","329","329 Maple St","Marlborough","MA","(508) 481-1322","42.335808","-71.542196","Restaurants",
"Clockwork Pizza","19","19 Maple St","Marlborough","MA","(508) 624-6555","42.346446","-71.543599","Restaurants",
"Expresso Pizza","131","131 Boston Rd Ste 1","North Billerica","MA","(978) 663-8099","42.5873289","-71.295322","Restaurants",
"Pizzeria Bruno","56","56 Broadway","Norwood","MA","(781) 769-1454","42.191942","-71.1989229","Restaurants",
"Dimitrios House of Pizza","1750","1750 Dorchester Ave","Dorchester Center","MA","(617) 825-3340","42.290227","-71.062879","Restaurants",
"Shoreline Grill","163","163 Lewis St","Lynn","MA","(781) 477-0377","42.465755","-70.932136","Restaurants",
"Pinis Pizzeria","511","511 Broadway","Somerville","MA","(617) 628-8668","42.398053","-71.105195","Restaurants",
"Bottega Fiorentina","313","313 Harvard St","Brookline","MA","(617) 232-2661","42.3434518","-71.1230213","Restaurants",
"Di Napoli Pizzaria","439","439 Littleton Rd","Westford","MA","(978) 486-8050","42.550612","-71.465832","Restaurants",
"Village Kitchen","359","359 Huron Ave","Cambridge","MA","(617) 491-3133","42.381473","-71.138442","Restaurants",
"Green Tomato","42","42 High St","Reading","MA","(781) 942-0540","42.522271","-71.107551","Restaurants",
"Center Street Pizza","110","110 Newbury St Ste 8","Danvers","MA","(978) 777-2953","42.568299","-70.974826","Restaurants",
"Petrillos Italian Kitchen","6","6 Foster St","Peabody","MA","(978) 977-5330","42.5253734","-70.9273253","Restaurants",
"Sofia Ristorante","158","158 Main St","Hudson","MA","(978) 562-1221","42.391418","-71.565154","Restaurants",
"Mikes Place","8","8 Railroad Ave","Gloucester","MA","(978) 282-0777","42.6156525","-70.6651527","Restaurants",
"Raviolis Brick Oven Pizzeria","1134","1134 Beacon St","Newton Highlands","MA","(617) 558-1600","42.330601","-71.209453","Restaurants",
"O'Leary's Irish Pub and Restaurant","1010","1010 Beacon St","Brookline","MA","(617) 734-0049","42.346362","-71.107478","Restaurants",
"Marias Pastry Shop","46","46 Cross St","Boston","MA","(617) 523-1196","42.363275","-71.056477","Restaurants",
"Olympic Pizza","187","187 Wolcott Sq","Hyde Park","MA","(617) 361-7070","42.237138","-71.132221","Restaurants",
"Nicks House of Pizza & Seafood","467","467 W Broadway","South Boston","MA","(617) 269-1161","42.335685","-71.04638","Restaurants",
"Dinos Cafe","141","141 Salem St","Boston","MA","(617) 227-1991","42.3650423","-71.0553871","Restaurants",
"Mezzo Mare","245","245 Nantasket Ave","Hull","MA","(781) 925-0584","42.2721314","-70.8590126","Restaurants",
"Buccini's Mister Sub","64","64 Billings Rd","Quincy","MA","(617) 328-9764","42.274101","-71.024572","Restaurants",
"New Market Grill & Pizza","850","850 Massachusetts Ave","Boston","MA","(617) 427-1444","42.3320881","-71.0710225","Restaurants",
"Romanos Pizza","35","35 Manchester Rd Ste 10","Derry","NH","(603) 434-6500","42.900371","-71.33503","Restaurants",
"Juniors Pizza","481","481 Great Rd Ste 2","Acton","MA","(978) 263-0267","42.51484","-71.426698","Restaurants",
"Cafe Toscana","4110","4110 Mystic Valley Pkwy","Medford","MA","(781) 219-3135","42.4057699","-71.083823","Restaurants",
"Spinners Pizza Parlor","195","195 Andover St Ste 1","Andover","MA","(978) 474-4400","42.626582","-71.160098","Restaurants",
"Mamas Place","764","764 Huntington Ave","Boston","MA","(617) 566-1300","42.333328","-71.105974","Restaurants",
"Main Street Grille","1400","1400 Main St","South Weymouth","MA","(781) 337-0801","42.156484","-70.954717","Restaurants",
"Rossinis Co","206","206 Fitchburg Tpke","Concord","MA","(978) 371-2482","42.421852","-71.372329","Restaurants",
"Italian Express Pizzeria","336","336 Sumner St","East Boston","MA","(617) 561-0038","42.3673038","-71.0357403","Restaurants",
"Olympica House of Pizza","655","655 E Broadway","South Boston","MA","(617) 269-2144","42.335401","-71.038389","Restaurants",
"Vikos Pizza & Ribs","855","855 River St","Hyde Park","MA","(617) 361-8456","42.262872","-71.108426","Restaurants",
"Mr B's","142","142 Cross St","Somerville","MA","(617) 718-0777","42.382538","-71.090061","Restaurants",
"Capresse Pizza & Grill","516","516 Medford St","Somerville","MA","(617) 628-5555","42.396545","-71.10396","Restaurants",
"Amore Pizza Restaurant","314","314 S Broadway Unit E","Salem","NH","(603) 894-4344","42.755475","-71.209966","Restaurants",
"Windham House of Pizza","58","58 Range Rd Ste 7","Windham","NH","(603) 893-8832","42.805485","-71.263429","Restaurants",
"Moe's Italian Sandwiches","160","160 Plaistow Rd Ste 4","Plaistow","NH","(603) 819-4133","42.849469","-71.104816","Restaurants",
"Olympic Pizza","15","15 Union St","South Weymouth","MA","(781) 335-5990","42.173929","-70.950875","Restaurants",
"Pizzeria Dante","415","415 Harvard St","Brookline","MA","(617) 232-5353","42.3454884","-71.1268319","Restaurants",
"Gennaros Eatery","12","12 Blanchard Rd","Quincy","MA","(617) 773-1500","42.242467","-70.995994","Restaurants",
"Theos Pizzeria","55","55 W Wyoming Ave","Melrose","MA","(781) 662-6755","42.452386","-71.070092","Restaurants",
"Marcos Italian Coldcuts","389","389 Main St","Woburn","MA","(781) 933-9544","42.480007","-71.151463","Restaurants",
"Lupos Italian Kitchen & Pizzeria","647","647 Lowell St","Peabody","MA","(978) 535-0411","42.5506648","-71.0018917","Restaurants",
"Classic Pizza","199","199 Ferry St","Malden","MA","(781) 324-9414","42.423329","-71.0634479","Restaurants",
"Arlington House of Pizza","797","797 Massachusetts Ave","Arlington","MA","(781) 646-5016","42.416748","-71.158928","Restaurants",
"Natalies Italian Kitchen","319","319 N Main St Ste 2","Natick","MA","(508) 653-8603","42.313271","-71.359914","Restaurants",
"Pleasant Pizza & Subs","467","467 Pleasant St","Watertown","MA","(617) 924-8626","42.3665902","-71.2059818","Restaurants",
"Plainville House of Pizza","107","107 South St","Plainville","MA","(508) 699-4479","42.003909","-71.335389","Restaurants",
"Town House Pizza","892","892 Highland Ave","Needham Heights","MA","(781) 444-4333","42.293513","-71.235121","Restaurants",
"Cafe Bella Vita","30","30 Charles St","Boston","MA","(617) 720-4505","42.356839","-71.070049","Restaurants",
"Daily Catch","323","323 Hanover St","Boston","MA","(617) 523-8567","42.364076","-71.053962","Restaurants",
"Haymarket Pizza","106","106 Blackstone St","Boston","MA","(617) 723-8585","42.3616113944751","-71.0564789462478","Restaurants",
"Stella Pizzeria","463","463 Essex St","Saugus","MA","(781) 231-1611","42.461073","-71.03683","Restaurants",
"Nappi Meats & Groceries","370","370 Salem St","Medford","MA","(781) 391-7900","42.4221455","-71.0949431","Restaurants",
"Revere House of Pizza","354","354 Broadway","Revere","MA","(781) 289-1805","42.4095902","-71.0129481","Restaurants",
"Abbondanza Italian Seafood Restaurant","195","195 Main St","Everett","MA","(617) 387-8422","42.407438","-71.061944","Restaurants",
"Meats Pizza & Roast Beef","331","331 Main St","Wilmington","MA","(978) 988-0848","42.5502309","-71.177018","Restaurants",
"Belvidere House of Pizza","249","249 High St","Lowell","MA","(978) 454-9310","42.642126","-71.300762","Restaurants",
"Main Street Pizza","43","43 Broad St","Hudson","MA","(978) 562-0777","42.388754","-71.5643937","Restaurants",
"Ava Cucina","107","107 Ripley Rd","Cohasset","MA","(781) 383-8300","42.241038","-70.80449","Restaurants",
"Leenas Kitchen","63","63 Long Pond Rd","Plymouth","MA","(774) 404-7470","41.929952","-70.659197","Restaurants",
"Pizzeria","927","927 Main St","Wakefield","MA","(781) 587-1604","42.4825919","-71.066622","Restaurants",
"Kashmir Indian Cuisine","396","396 S Broadway","Salem","NH","(603) 898-3455","42.749962","-71.205224","Restaurants",
"Pizza Market","69","69 River St","West Newton","MA","(617) 332-3388","42.352402","-71.229258","Restaurants",
"Pizza Joe","274","274 Elm St","Everett","MA","(617) 387-3636","42.414892","-71.035702","Restaurants",
"Anthonys Italian Specialties","408","408 Main St","Stoneham","MA","(781) 438-9840","42.478695","-71.099989","Restaurants",
"Causeway Restaurant","78","78 Essex Ave","Gloucester","MA","(978) 281-5256","42.612434","-70.683312","Restaurants",
"Mangia Mangia North End","147","147 Endicott St","Boston","MA","(617) 377-4875","42.365039","-71.057258","Restaurants",
"Quincy Sons of Italy","120","120 Quarry St","Quincy","MA","(617) 472-5900","42.2454899","-71.015876","Restaurants",
"Sons of Italy Winchester","117","117 Swanton St","Winchester","MA","(781) 729-9787","42.460642","-71.134545","Restaurants",
