Business Name,Physical Address Number,Physical Address,Physical City,Physical State,Phone,Latitude,Longitude,Primary SIC Description,
"Myers & Chang","1145","1145 Washington St Ste 1","Boston","MA","(617) 542-5200","42.343871","-71.066367","Restaurants",
"Sian Ginger","22","22 Bow St Ste 1","Somerville","MA","(617) 625-5015","42.380836","-71.097376","Restaurants",
"Dagostinos Delicatessen","11","11 Waterfield Rd","Winchester","MA","(781) 729-7984","42.451519","-71.1384521","Restaurants",
"Patou Thai","69","69 Leonard St","Belmont","MA","(617) 489-6999","42.397736","-71.174893","Restaurants",
"Lims Sports Bar","7","7 Veterans Memorial Pkwy","Salem","NH","(603) 893-9124","42.769961","-71.218608","Restaurants",
"Cha Yen Thai Cookery","613","613 Mount Auburn St","Watertown","MA","(617) 393-0031","42.3706896","-71.1584113","Restaurants",
"Chili Thai Bistro","1799","1799 Commonwealth Ave","Brighton","MA","(617) 254-2254","42.3406908","-71.1517317","Restaurants",
"Lanxang Star","1734","1734 Lakeview Ave","Dracut","MA","(978) 677-6126","42.678376","-71.342202","Restaurants",
"Chiang Mai Thai Cambridge Inc","100","100 Cambridgeside Pl","Cambridge","MA","(617) 577-0250","42.3684293","-71.0764537","Restaurants",
"Pranom Saard Thai Corporation","1699","1699 Shawsheen St","Tewksbury","MA","(978) 455-8088","42.621552","-71.183455","Restaurants",
"Tiger Mama","1363","1363 Boylston St","Boston","MA","(617) 425-6262","42.3445864","-71.100657","Restaurants",
"Thana Thai Kitchen","882","882 Massachusetts Ave","Arlington","MA","(781) 648-8888","42.417276","-71.163884","Restaurants",
"Green Basil Restaurant","383","383 Main St","Woburn","MA","(781) 933-9888","42.47991","-71.1516597","Restaurants",
"Thai Hut","93","93 Beacon St","Somerville","MA","(617) 492-8377","42.377303","-71.104908","Restaurants",
"Siam First Inc","1616","1616 Main St","South Weymouth","MA","(781) 340-3899","42.148976","-70.9545909","Restaurants",
"S & I To Go","168","168 Brighton Ave Ste A","Allston","MA","(617) 254-8488","42.3529194","-71.1329305","Restaurants",
"Sei Bar","916","916 Broadway","Everett","MA","(617) 381-1880","42.420921","-71.043885","Restaurants",
"Spice Thai Kitchen","15","15 Depot Sq","Ipswich","MA","(978) 356-1828","42.679086","-70.840435","Restaurants",
"Amarin of Thai","287","287 Centre St","Newton","MA","(617) 527-5255","42.3581457","-71.1851466","Restaurants",
"Rice Cube Thai Kitchen","397","397 Lowell St","Lexington","MA","(781) 860-9088","42.44893","-71.198568","Restaurants",
"Hang Tai Too","75","75 Main St","Medway","MA","(508) 533-8828","42.151665","-71.409456","Restaurants",
"Vohns Restaurant","633","633 Pulaski Blvd","Bellingham","MA","(508) 883-4934","42.032745","-71.484156","Restaurants",
"Wild Ginger Thai Cuisine","124","124 Washington St","Norwell","MA","(781) 347-4687","42.17017","-70.877101","Restaurants",
"House of Siam on Tremont","592","592 Tremont St Ste 1","Boston","MA","(617) 267-7426","42.342936","-71.07302","Restaurants",
"Pho & Thai","63","63 White St","Belmont","MA","(617) 484-1118","42.386965","-71.189104","Restaurants",
"9 Tastes Thai Cuisine","50","50 Jfk St Ste 1","Cambridge","MA","(617) 547-6666","42.371961","-71.120355","Restaurants",
"Pepper Skys Thai Sensation","20","20 Pearl St","Cambridge","MA","(617) 492-2541","42.3642154","-71.1029157","Restaurants",
"Mapow","147","147 Bridge Rd Ste 1","Salisbury","MA","(978) 499-7795","42.8205641","-70.8665873","Restaurants",
"Maung Thai Restaurant","74","74 North St","Hingham","MA","(781) 740-1218","42.242931","-70.887107","Restaurants",
"Ruby Thai","250","250 Granite St Ste 89","Braintree","MA","(781) 356-7888","42.2220443","-71.0227762","Restaurants",
"Newrod-Dee Thai Cuisine","1680A","1680a Beacon St","Brookline","MA","(617) 738-1455","42.33861","-71.1368959","Restaurants",
"Nisas Thai","622","622 Washington St","Canton","MA","(781) 821-6986","42.154195","-71.146055","Restaurants",
"Wok & Talk","23","23 S Huntington Ave","Jamaica Plain","MA","(617) 487-8262","42.331341","-71.112063","Restaurants",
"Tungs Taste","242","242 S Main St","Middleton","MA","(978) 777-8298","42.576988","-70.9967209","Restaurants",
"Zuzu's Cafe & Catering","316","316 Main St","Wakefield","MA","(781) 245-3035","42.505294","-71.071203","Restaurants",
"UND Kitchen","184","184 High St Lbby 1","Boston","MA","(617) 338-8999","42.356676","-71.052569","Restaurants",
"Red Sugar","24","24 Vernon St","Wakefield","MA","(781) 587-0346","42.503556","-71.067217","Restaurants",
"Thelonious Monkfish","524","524 Massachusetts Ave","Cambridge","MA","(617) 441-2116","42.364167","-71.10212","Restaurants",
"Putachard Thai Restaurant","594","594 Route 288","Lynnfield","MA","(508) 790-1957","42.52567","-71.02692","Restaurants",
"Thai Chili Basil","454","454 Franklin St","Melrose","MA","(781) 662-9888","42.4685945","-71.0682696","Restaurants",
"Phon Rice Restaurant","289","289 Beacon St","Somerville","MA","(617) 864-8888","42.3836316","-71.1127122","Restaurants",
"Tree Top Thai Cuisine","53","53 Prospect St","Waltham","MA","(781) 894-3444","42.374058","-71.246703","Restaurants",
"Viet-Thai Restaurant","368","368 Merrimack St","Lowell","MA","(978) 446-0977","42.645907","-71.314217","Restaurants",
"Sugar & Spice Restaurant","1933","1933 Massachusetts Ave","Cambridge","MA","(617) 868-4200","42.3896609","-71.119914","Restaurants",
"Sei Bar","182","182 Main St","Medford","MA","(781) 391-4363","42.41298","-71.1105442596294","Restaurants",
"Tom Yum Koong Restaurant","11","11 Forest St","Medford","MA","(781) 393-0888","42.41874","-71.109065","Restaurants",
"Pacific St Cafe","70","70 Pacific St","Cambridge","MA","(617) 494-1414","42.3598721","-71.1026478","Restaurants",
"3 Little Figs","278","278 Highland Ave","Somerville","MA","(617) 623-3447","42.391764","-71.111904","Restaurants",
"Pita Thyme","102","102 Water St","Boston","MA","(617) 742-7482","42.357926","-71.05486","Restaurants",
"Bankok Bistro","433","433 Washington St","Brighton","MA","(617) 903-4085","42.3493542","-71.1567527","Restaurants",
"Little Thai Cafe","51","51 Main St","Watertown","MA","(617) 926-3323","42.3662679","-71.1854456","Restaurants",
"Krua Thai","231","231 N Main St Ste 2","Natick","MA","(508) 975-4337","42.303499","-71.36106","Restaurants",
"Dim Sum Cafe","679","679 Fellsway W","Medford","MA","(781) 396-2888","42.432931","-71.100912","Restaurants",
"Thai All Seasons","11","11 South Ave","Whitman","MA","(781) 523-1694","42.080365","-70.936622","Restaurants",
"Lao Thai Restaurant","140","140 High St","Newburyport","MA","(978) 358-7437","42.80876","-70.874138","Restaurants",
"Coconut Cafe","759","759 Beacon St","Newton Center","MA","(617) 244-7050","42.3307223","-71.1916944","Restaurants",
"Montien Thai Restaurant","63","63 Stuart St","Boston","MA","(617) 338-5600","42.3512805","-71.0643404","Restaurants",
"Green Papaya","475","475 Winter St Ste 1","Waltham","MA","(781) 487-9988","42.398211","-71.263994","Restaurants",
"Dokya Thai Restaurant","411","411 Harvard St","Brookline","MA","(617) 277-7087","42.345431","-71.126852","Restaurants",
"Sun Kong Restaurant","275","275 Eastern Ave","Malden","MA","(781) 388-9900","42.426083","-71.06082","Restaurants",
"Thai Star Corporation","396","396 Old Farm Rd","Franklin","MA","(508) 520-7570","42.100599","-71.384825","Restaurants",
"Rice Barn","1037","1037 Great Plain Ave","Needham","MA","(781) 449-8300","42.28038","-71.237654","Restaurants",
"Rod-Dee Thai Cuisine II","94","94 Peterborough St","Boston","MA","(617) 859-0969","42.34303","-71.099219","Restaurants",
"Good Taste Asian Cuisine","42","42 Central St","Ipswich","MA","(978) 356-8881","42.680763","-70.839208","Restaurants",
"Beantown Pho and Grill","272","272 Newbury St","Boston","MA","(857) 239-9436","42.349122","-71.083425","Restaurants",
"Ruk Mae Thai Cusine","1778","1778 Washington St","Stoughton","MA","(781) 297-5626","42.096965","-71.095648","Restaurants",
"Thai Reflexology and Spa","220","220 W Squantum St","Quincy","MA","(617) 405-4013","42.2697709355677","-71.0340680566228","Restaurants",
"Manow Thai Kitchen","1138","1138 Beacon St","Newton Highlands","MA","(617) 244-2858","42.330741","-71.209549","Restaurants",
"Pan Thai Restaurant","15","15 Main St","Hopkinton","MA","(508) 497-9919","42.228756","-71.520081","Restaurants",
"Payao's Thai Cookin'","635","635 1st Nh Tpke","Northwood","NH","(603) 942-6040","43.208443","-71.188346","Restaurants",
"Krua Thai II","3043","3043 Cranberry Hwy","East Wareham","MA","(508) 295-8488","41.756892","-70.655533","Restaurants",
"Lots of Eats","1211","1211 Osgood St Ste 5","North Andover","MA","(978) 682-8888","42.719627","-71.111215","Restaurants",
"Thai Food Theory","104","104 Torrey St","Brockton","MA","(508) 232-3229","42.0732197","-71.046107","Restaurants",
"Cilantro Thai & Vietnamese Cuisine","383","383 Main St","Woburn","MA","(781) 933-9888","42.47991","-71.1516597","Restaurants",
"Little Bangkok Thai Restaurant","100","100 Market St","Rockland","MA","(781) 878-9992","42.1217485","-70.9163144","Restaurants",
"Thai E-Sarn Cuisine","1377","1377 Massachusetts Ave","Arlington","MA","(781) 648-2223","42.4246078598185","-71.1843289561285","Restaurants",
"3 Country Bistro","379","379 Main St","Woburn","MA","(781) 376-8030","42.479874","-71.1517","Restaurants",
"Charm Thai Bistro","412","412 Main St","Wakefield","MA","(781) 224-1178","42.503115","-71.069968","Restaurants",
"Thai Noodle Bar","501","501 Washington St","Quincy","MA","(617) 689-8847","42.247423","-70.981149","Restaurants",
"Basil Rice","479","479 Harvard St","Brookline","MA","(617) 608-3563","42.347142","-71.128456","Restaurants",
"Noodle Barn","707","707 Centre St","Jamaica Plain","MA","(617) 522-2299","42.31143","-71.114661","Restaurants",
"No 1 Food","49","49 Warren St","Roxbury","MA","(617) 442-8958","42.328874","-71.083146","Restaurants",
"Pineapple Thai Kitchen","17","17 Boylston St","Chestnut Hill","MA","(617) 277-3000","42.3235386","-71.1667949","Restaurants",
"China Thai Restaurant","442","442 Lafayette Rd","Hampton","NH","(603) 929-1110","42.9409007","-70.8382327","Restaurants",
"Thai To Go","191","191 Main St","Wareham","MA","(508) 273-7168","41.7579005","-70.7146066","Restaurants",
"Mandarin Malden","74","74 Pleasant St","Malden","MA","(781) 324-1148","42.4266715","-71.0693551","Restaurants",
"Ruby Thai Kitchen","1201","1201 Broadway","Saugus","MA","(781) 233-3888","42.4612977","-71.0278527","Restaurants",
"Pon Thai Bistro","213","213 Washington St","Brookline","MA","(617) 608-3593","42.3324907","-71.1181433","Restaurants",
"Giggling Rice Thai To Go","1009","1009 Beacon St","Brookline","MA","(617) 232-9888","42.3457663","-71.1069081","Restaurants",
"Andaman Thai Restaurants","75","75 Water St Ste 1","Newburyport","MA","(978) 499-8424","42.81094","-70.865677","Restaurants",
"Chang Thai Inc","168","168 Brighton Ave","Allston","MA","(215) 632-9015","42.3529194","-71.1329305","Restaurants",
"Maekha Thai","163","163 Squire Rd","Revere","MA","(781) 629-6981","42.4239744","-71.0095275","Restaurants",
"Wheelhouse","63","63 Broad St","Boston","MA","(617) 422-0082","42.3577511239338","-71.053899853854","Restaurants",
"Thai Palace","184","184 Brighton Ave","Allston","MA","(617) 782-5732","42.353004","-71.133724","Restaurants",
"Kapow Thai Cuisine","2257","2257 Dorchester Ave","Dorchester Center","MA","(617) 296-7505","42.273417","-71.0680409","Restaurants",
"Papaya Thai","101","101 N Main St","Rochester","NH","(603) 332-0111","43.3054131","-70.9789979","Restaurants",
"Siam Sunshine","7","7 Collins St Apt 1","Salem","MA","(978) 455-0035","42.532054","-70.886282","Restaurants",
"Red Sugar","100","100 Cummings Ctr Ste 105k","Beverly","MA","(978) 998-4503","42.559427","-70.885899","Restaurants",
"Siam Bistro","151","151 Pearl St","Boston","MA","(617) 210-7953","42.3545473","-71.0536312","Restaurants",
"Lenas Bangkok Cuisine","44","44 Nashua Rd Unit 10","Londonderry","NH","(603) 426-5162","42.8664969","-71.3492829","Restaurants",
"Kong Thai","781","781 Lafayette Rd","Seabrook","NH","(603) 814-1761","42.897052","-70.871063","Restaurants",
"Bangkok","57","57 W Wyoming Ave","Melrose","MA","(781) 662-0888","42.4524404","-71.0700839","Restaurants",
"Pineapple Thai Cuisine Llc","17","17 Boylston St","Chestnut Hill","MA","(617) 487-5268","42.3235386","-71.1667949","Restaurants",
"Laughing Monk Cafe","737","737 Huntington Ave","Boston","MA","(617) 232-8000","42.334006","-71.105644","Restaurants",
"Bamee Restaurant","12","12 Jenkins Ct","Durham","NH","(603) 397-5378","43.1349248","-70.9260225","Restaurants",
"Eastwest Trading Corporation","9","9 Merrill Industrial Dr","Hampton","NH","(603) 926-5001","42.942378","-70.843977","Restaurants",
"Kala Thai Cookery","151","151 Hanover St","Boston","MA","(857) 350-4378","42.3616173","-71.0570611","Restaurants",
"Pad Thai Cafe","6","6 Hemenway St","Boston","MA","(617) 267-2828","42.346749","-71.088942","Restaurants",
"Khao Hom Thai & Pho","258","258 Salem Rd Ste 5","Billerica","MA","(978) 362-1296","42.57414","-71.230371","Restaurants",
"Somtum Modern Thai Cuisine","1894","1894 Centre St","West Roxbury","MA","(617) 477-3348","42.285403","-71.155843","Restaurants",
"Thai Boo Cuisine","712","712 Washington St","Norwood","MA","(781) 255-9400","42.1921752601922","-71.2017976616095","Restaurants",
"Thai Village Inc","418","418 Main St","Stoneham","MA","(781) 435-2473","42.478688","-71.100046","Restaurants",
"Is Original Thai Cuisine","1671","1671 Beacon St","Brookline","MA","(617) 879-0544","42.338502","-71.137477","Restaurants",
"Tasty Thai","153","153 Belgrade Ave","Roslindale","MA","(617) 327-2378","42.2864473","-71.1369712","Restaurants",
"Bangkok Thai Kitchen","321","321 W Grove St","Middleboro","MA","(774) 419-3025","41.894277","-70.941902","Restaurants",
"Tom Yum Thai Cuisine","1","1 Portsmouth Ave","Exeter","NH","(603) 778-1234","42.980997","-70.941158","Restaurants",
"Y&K Noodles Inc","1312","1312 Massachusetts Ave","Arlington","MA","(781) 646-8080","42.424127","-71.182546","Restaurants",
"King & I","145","145 Charles St Ste 1","Boston","MA","(617) 227-3320","42.360362","-71.070564","Restaurants",
"Hei-La Moon","88","88 Beach St","Boston","MA","(617) 338-8813","42.3513456","-71.0598228","Restaurants",
"Spice Thai Cuisine","24","24 Holyoke St","Cambridge","MA","(617) 868-9560","42.372059","-71.118294","Restaurants",
"Royal East Restaurant","792","792 Main St","Cambridge","MA","(617) 661-1660","42.363076","-71.096908","Restaurants",
"Similans","145","145 1st St","Cambridge","MA","(617) 491-6999","42.366344","-71.0781389","Restaurants",
"Thai Smile","13","13 Jenkins Ct Ste 243","Durham","NH","(603) 868-2772","43.1351119","-70.9264586","Restaurants",
"Taste of Siam","499","499 Main St","Stoneham","MA","(781) 438-4001","42.474322","-71.1010066","Restaurants",
"Rostip Thai","7","7 Broadway Rd","Dracut","MA","(978) 275-9902","42.670687","-71.295831","Restaurants",
"Shun Kitchen","520","520 Columbus Ave Ste 1","Boston","MA","(617) 421-9405","42.341889","-71.079777","Restaurants",
"My Thai Cafe","3","3 Beach St Fl 2","Boston","MA","(617) 451-2395","42.3514555","-71.0625451","Restaurants",
"Thi Day Cusine","68","68 Billings","Quincy","MA","(617) 328-4188","42.2742075902272","-71.0243753519338","Restaurants",
"Lime Leaf Thai Cuisine","435","435 Columbian St","South Weymouth","MA","(339) 499-5350","42.180567","-70.969273","Restaurants",
"A at Time","433","433 Cambridge St","Allston","MA","(617) 202-5840","42.354996","-71.134357","Restaurants",
"Siam Village","98","98 Main St","Maynard","MA","(978) 897-0211","42.43176","-71.455858","Restaurants",
"Domo Japanese Cuisine","96","96 State St","Portsmouth","NH","(603) 501-0132","43.076951","-70.7544209","Restaurants",
"Andaman Thai Cuisine","963","963 Worcester Rd","Framingham","MA","(508) 879-9696","42.3008742","-71.4354403","Restaurants",
"Sweet Rice JP Thai Sushi","697","697 Centre St","Jamaica Plain","MA","(617) 942-2324","42.3118173","-71.1145312","Restaurants",
"Love At First Bite","1710","1710 Massachusetts Ave","Lexington","MA","(781) 862-5888","42.4469116861938","-71.2265757251702","Restaurants",
"White Coconut Thai Restaurant","211","211 Middlesex Tpke","Burlington","MA","(781) 365-1436","42.496494","-71.22653","Restaurants",
"Thailand Cafe","161","161 Massachusetts Ave","Arlington","MA","(781) 643-0296","42.4051403","-71.1411117","Restaurants",
"Brown Sugar Cafe","1033","1033 Commonwealth Ave","Boston","MA","(617) 787-4242","42.3521402","-71.1219046","Restaurants",
"Uncle Charlies","1496","1496 Main St","South Weymouth","MA","(781) 337-3889","42.153063","-70.954787","Restaurants",
"Siam Lotus","1331","1331 Boston Providence Tpke","Norwood","MA","(781) 762-9695","42.16793","-71.198528","Restaurants",
"Mango That Cuisine","115","115 Elm St","West Newton","MA","(617) 630-8101","42.34878","-71.229403","Restaurants",
"Paulies","65","65 Salem St","Boston","MA","(857) 284-7064","42.363264","-71.055907","Restaurants",
"Olympos Bakery","216","216 Broadway St","Lowell","MA","(978) 452-3366","42.6441135","-71.3185274","Restaurants",
"Bangna Garden Restaurant","77","77 Summer St","Kingston","MA","(781) 585-4503","41.998496","-70.730183","Restaurants",
"House of Siam","542","542 Columbus Ave Ste 1","Boston","MA","(617) 267-1755","42.341405","-71.080349","Restaurants",
"Basil Leaf Thai Cuisine","80","80 Main St","Newmarket","NH","(603) 292-5304","43.07987","-70.935914","Restaurants",
"Prime Deli Inc","580","580 South St","Waltham","MA","(781) 893-4344","42.3606459","-71.2613811","Restaurants",
"Lemon Thai Cuisine","215","215 Highland Ave","Somerville","MA","(617) 591-1772","42.390243","-71.107685","Restaurants",
"Pho & I Restaurant","267","267 Huntington Ave","Boston","MA","(617) 262-0011","42.342149","-71.086238","Restaurants",
"Thai Sweet Basil","209","209 N Main St Ste 8","Andover","MA","(978) 470-8098","42.665481","-71.144194","Restaurants",
"Malai Thai Restaurant","266","266 N Main St","Randolph","MA","(781) 963-0012","42.166896","-71.044331","Restaurants",
"Mary Chung Restaurant","26","26 Landsdowne St Ste 175","Cambridge","MA","(617) 864-1991","42.3608102","-71.0987805","Restaurants",
"Amarin of Thailand","27","27 Grove St","Wellesley","MA","(781) 239-1350","42.295848","-71.2928","Restaurants",
"Crystal's Kitchen","4","4 S Main St Ste 5","West Bridgewater","MA","(508) 510-5670","42.0189112","-71.0061226","Restaurants",
"Sweet Lemons 1","828","828 Washington St","East Weymouth","MA","(781) 340-5551","42.2012349","-70.943136","Restaurants",
"Thorntons Restaurant","150","150 Huntington Ave","Boston","MA","(617) 267-6336","42.3449273","-71.0817911","Restaurants",
"Sawasdee Restaurant Inc","49","49 Maple St Ste 1a","Danvers","MA","(978) 774-8424","42.566924","-70.936385","Restaurants",
"Nud Pob Thai Cuisine","738","738 Commonwealth Ave","Boston","MA","(617) 232-9992","42.3498267","-71.1072401","Restaurants",
"Taiwan Cafe","34","34 Oxford St","Boston","MA","(617) 426-8181","42.3514843","-71.0602103","Restaurants",
"Gusto Cafe","280","280 Cabot St","Beverly","MA","(978) 524-9900","42.551082","-70.878644","Restaurants",
"Hokkaido Restaurant","1250","1250 Osgood St","North Andover","MA","(978) 687-9888","42.718343","-71.113133","Restaurants",
"Bamboo Thai Restaurant","1616","1616 Commonwealth Ave","Brighton","MA","(617) 734-8192","42.343282","-71.1426649","Restaurants",
"Pho 1","908","908 Main St","Woburn","MA","(781) 932-4780","42.508876","-71.161132","Restaurants",
"Thai Thani Restaurant","408","408 Humphrey St","Swampscott","MA","(781) 596-1820","42.467913","-70.909986","Restaurants",
"Pho 1 Waltham","374","374 Moody St","Waltham","MA","(781) 891-6977","42.369788","-71.237015","Restaurants",
"Blue Taleh","15","15 Kearney Sq","Lowell","MA","(978) 453-1112","42.6451769","-71.3072","Restaurants",
"Chatta Box","755","755 Bedford St Ste 1","Bridgewater","MA","(508) 697-8898","41.967623","-70.973496","Restaurants",
"Chacarero","101","101 Arch St Ste 130","Boston","MA","(617) 542-0392","42.354954","-71.059085","Restaurants",
"Lemon Thai Cuisine","555","555 Washington St","Wellesley","MA","(781) 237-6996","42.296833","-71.292675","Restaurants",
"Bangkok Spice","76","76 Haven St","Reading","MA","(781) 942-4595","42.522768","-71.105896","Restaurants",
"Lao Thai Cafe","52","52 Pulaski Blvd","Bellingham","MA","(508) 883-9999","42.0184041723023","-71.4968655785236","Restaurants",
"Brown Sugar By The Sea","75","75 Water St","Newburyport","MA","(978) 499-8424","42.81094","-70.865677","Restaurants",
"Fen Yang House","40","40 Atlantic Ave Ste 4","Marblehead","MA","(781) 639-8386","42.498753","-70.855855","Restaurants",
"Thai Basil Restaurant","132","132 Newbury St Ste B","Boston","MA","(617) 578-0089","42.350966","-71.0767058","Restaurants",
"Thai Accent Downtown Crossing","417","417 Washington St","Boston","MA","(617) 482-1728","42.355816","-71.060373","Restaurants",
"Cafe Asiana","25","25 Pearl St","Braintree","MA","(781) 843-0883","42.202181","-71.004282","Restaurants",
"Thai Place Restaurant","2","2 E India Square Mall","Salem","MA","(978) 741-8008","42.521827","-70.89282","Restaurants",
"Thai Choice Restaurant","272","272 Main St","Gloucester","MA","(978) 281-8118","42.6152621","-70.6587332","Restaurants",
"Siam Cuisine","370","370 Columbia Rd","Hanover","MA","(781) 826-1115","42.110212","-70.812256","Restaurants",
"Pho & Spice Inc","457","457 Moody St","Waltham","MA","(781) 788-8899","42.368322","-71.237796","Restaurants",
"Krua Khun Yah Thai Restaurant","325","325 Pond St","Ashland","MA","(508) 881-4200","42.2402919","-71.433222","Restaurants",
"Mango II Thai Cuisine","2171","2171 Main St","Tewksbury","MA","(978) 988-9779","42.584018","-71.197507","Restaurants",
"Benjarong Restaurant","214","214 Main St","Acton","MA","(978) 635-9580","42.4688965","-71.4568211","Restaurants",
"Phuket Thai Restaurant","1856","1856 Centre St","West Roxbury","MA","(617) 469-5200","42.286085","-71.1545014","Restaurants",
"Golden China Restaurant","599","599 Washington St","Canton","MA","(781) 828-3236","42.1534502","-71.1454232","Restaurants",
"Express Gourmet","11","11 River St Lowr","Wellesley Hills","MA","(781) 235-3613","42.3247292","-71.2590132","Restaurants",
"Khaophums Fine Thai Restaurant","555","555 Central Ave","Dover","NH","(603) 749-9300","43.2007976","-70.8754142","Restaurants",
"Siam Delight Thai Cuisine","128","128 Cabot St","Beverly","MA","(978) 922-8514","42.546418","-70.8800664","Restaurants",
"Royal Orchid","303","303 Haverhill St","Rowley","MA","(978) 948-3676","42.70731","-70.907539","Restaurants",
"Pho Basil","177","177 Massachusetts Ave # A","Boston","MA","(617) 262-5377","42.345771","-71.087345","Restaurants",
"Chili Basil","385","385 Boston Post Rd","Sudbury","MA","(978) 443-0988","42.3615729174364","-71.4178240638907","Restaurants",
"Spice & Pepper","236","236 Boston Post Rd","Wayland","MA","(508) 358-5300","42.363233","-71.361856","Restaurants",
"Thai Chili","40","40 Main St","Maynard","MA","(978) 897-2984","42.432335","-71.452058","Restaurants",
"Ruby Thai","1245","1245 Worcester St Ste 2018","Natick","MA","(508) 545-1989","42.3004711","-71.3857931","Restaurants",
"Mali's Thai Zap","50","50 Elm St Ste 1","Salisbury","MA","(978) 255-1660","42.841709","-70.86813","Restaurants",
"Thai Orchid Spa","544","544 Cambridge St","Cambridge","MA","(617) 945-7230","42.371547","-71.085356","Restaurants",
"Phuket","21","21 Princess St","Wakefield","MA","(781) 246-9888","42.503827","-71.069865","Restaurants",
"Wee Thai Food","249","249 Chelmsford St","Lowell","MA","(978) 319-9172","42.6325972","-71.3192375","Restaurants",
"Rice Passions","163","163 Squire Rd","Revere","MA","(781) 629-4342","42.4239744","-71.0095275","Restaurants",
"Ruby Thai Kitchen","75","75 Middlesex Tpke Ste 2108","Burlington","MA","(781) 272-0910","42.482397","-71.2137453","Restaurants",
"Thai Jasmine","313","313 Littleton Rd Ste 2","Chelmsford","MA","(978) 250-9509","42.581499","-71.39078","Restaurants",
"Sara Thai Restaurant","92","92 New Rochester Rd","Dover","NH","(603) 742-1611","43.2310978827945","-70.8972185375877","Restaurants",
"Yoong Tong II Thai Restaurant","61","61 Central Sq Ste 6","Chelmsford","MA","(978) 244-2442","42.5972938","-71.3517349","Restaurants",
"Bangkok Thai Cuisine","10","10 Court St","Plymouth","MA","(508) 746-3299","41.9572706","-70.6657596","Restaurants",
"Baan Thai","659","659 Main St","Waltham","MA","(781) 893-7700","42.376436","-71.236611","Restaurants",
"Tai Pei Tokyo Cafe","411","411 Main St Apt 302","Stoneham","MA","(617) 625-6666","42.4788493","-71.1007526","Restaurants",
"Thai North","433","433 Faneuil St","Brighton","MA","(617) 254-2025","42.3512436","-71.1684625","Restaurants",
"Pad Thai","1","1 Portsmouth Ave","Exeter","NH","(603) 658-0130","42.980997","-70.941158","Restaurants",
"Thai Cafe","114","114 Broad St","Lynn","MA","(781) 598-0522","42.4630408828849","-70.9409312911562","Restaurants",
"Main House","495","495 Main St Ste C","Groton","MA","(978) 448-6088","42.6202048","-71.5866722","Restaurants",
"Equator","1721","1721 Washington St","Boston","MA","(617) 536-6386","42.337059","-71.076611","Restaurants",
"Chow Thai Cafe","45","45 Sprague St","Malden","MA","(617) 242-5232","42.429311","-71.064494","Restaurants",
"Bangkok Cafe","10","10 Foxboro Blvd Ste 210","Foxboro","MA","(508) 543-8424","42.0368769673855","-71.234819441824","Restaurants",
"Homestead Bakery and Cafe LLC","1448","1448 Dorchester Ave","Dorchester","MA","(617) 533-7585","42.301191","-71.059741","Restaurants",
"Asia Thai Eatery II","35","35 Lowell St","Wilmington","MA","(978) 658-8880","42.541707","-71.165211","Restaurants",
"Thai Chili","473","473 S Broadway","Salem","NH","(603) 898-3222","42.7453044786023","-71.200982907087","Restaurants",
"Next Door Cafe","110","110 Brighton Ave","Allston","MA","(617) 254-1122","42.352582","-71.1304093","Restaurants",
"Thai Little Duck","57","57 Granite St","Quincy","MA","(617) 479-3157","42.248088","-71.004512","Restaurants",
"Sugarcane Thai Korean & Chinese Cuisine","180","180 Winter St Unit A","Bridgewater","MA","(508) 697-2266","41.967881","-70.975016","Restaurants",
"Dahra Thai Cuisine","1","1 Man Mar Dr Unit 7","Plainville","MA","(508) 643-9300","42.008396","-71.30506","Restaurants",
"Rod Dee Thai Cuisine","1430","1430 Beacon St","Brookline","MA","(617) 738-4977","42.3410623","-71.126526","Restaurants",
"Coconut Thai Cafe","257","257 Washington St","Wellesley Hills","MA","(781) 235-8255","42.3134744","-71.273928","Restaurants",
"Thai Spice","1745","1745 Centre St","West Roxbury","MA","(617) 469-0002","42.287429","-71.150248","Restaurants",
"Thai Moon","663","663 Massachusetts Ave","Arlington","MA","(781) 646-3334","42.416084","-71.154211","Restaurants",
"Lanna Thai Diner","901","901 Main St","Woburn","MA","(781) 932-0394","42.508534","-71.160404","Restaurants",
"Shangri-Ia","149","149 Belmont St","Belmont","MA","(617) 489-1488","42.375672","-71.156307","Restaurants",
"Thai Thani Restaurant","481 1/2","481 1/2 Washington St","Norwood","MA","(781) 255-7333","42.1969353","-71.1993658","Restaurants",
"Pepper Terrace Thai Cuisine","400","400 Franklin Village Dr","Franklin","MA","(508) 528-1216","42.0896535","-71.4249002","Restaurants",
"Pad Thai Restaurant","671","671 Hancock St","Quincy","MA","(617) 302-4223","42.2675539","-71.016173","Restaurants",
"The Boss Thai Restaurant","101","101 Pulaski Blvd","Bellingham","MA","(508) 928-1747","42.019276","-71.495366","Restaurants",
"Jasmine Cuisine","35","35 Lowell St Ste 1","Wilmington","MA","(978) 658-8880","42.541707","-71.165211","Restaurants",
"Tara Thai Health","464","464 Granite Ave Ste 26","Milton","MA","(857) 267-4439","42.2558668","-71.0393334","Restaurants",
"Check In Thai Cuisine","321","321 W Grove St","Middleboro","MA","(774) 419-4968","41.894277","-70.941902","Restaurants",
"Spice of Melrose","4517","4517 Scotts Mill Ct","Saugus","MA","(781) 662-5588","42.4645418","-71.0326461","Restaurants",
"Asian Essence Restaurant","2291","2291 State Rd Ste 9","Plymouth","MA","(508) 888-2212","41.818496","-70.552854","Restaurants",
