Business Name,Physical Address Number,Physical Address,Physical City,Physical State,Phone,Latitude,Longitude,Primary SIC Description,
"West On Centre","1732","1732 Centre St","West Roxbury","MA","(617) 323-4199","42.2870973","-71.1497712","Restaurants",
"IHOP","115","115 Parkingway","Quincy","MA","(617) 770-9414","42.246459","-71.003211","Restaurants",
"IHOP","105","105 Squire Rd","Revere","MA","(781) 289-6012","42.4230202","-71.0079839","Restaurants",
"IHOP","95","95 Main St","Tewksbury","MA","(978) 640-8950","42.62547","-71.268588","Restaurants",
"Donut Management","527","527 Lowell St","Peabody","MA","(978) 535-9350","42.5456877","-70.9808736","Restaurant Management",
"IHOP","114","114 Broadway Ste 3","Saugus","MA","(781) 233-4097","42.494404","-71.01578","Restaurants",
"Strawberry Fair Restaurant","14","14 Pond St","Norwell","MA","(781) 878-7878","42.173906","-70.884925","Restaurants",
"Jitter's Cafe","12","12 Main St","Melrose","MA","(781) 605-2578","42.4411068119181","-71.0681172101457","Restaurants",
"Brothers Restaurant","404","404 Harvard St","Brookline","MA","(617) 383-6268","42.345036","-71.126841","Restaurants",
"Crossroads Cafe","405","405 Nagog Park","Acton","MA","(978) 263-9733","42.5229857","-71.4321318","Restaurants",
"Nathaniel's Restaurant","18","18 Washington Sq","Salem","MA","(978) 825-4311","42.5227841","-70.8897486","Restaurants",
"Newcomb Farms Family Restaurant","1139","1139 Randolph Ave","Milton","MA","(617) 698-9547","42.229172","-71.071979","Restaurants",
"Village Inn","544","544 Broadway Rd","Dracut","MA","(978) 459-4114","42.683569","-71.282216","Restaurants",
"Johnnys Luncheonette","30","30 Langley Rd","Newton Center","MA","(617) 527-3223","42.330995","-71.193009","Restaurants",
"MaryAnn's Diner","29","29 E Broadway","Derry","NH","(603) 434-5785","42.8814274805512","-71.3248707149277","Restaurants",
"Venetian Inc","909","909 Broad St","East Weymouth","MA","(781) 337-4363","42.215334","-70.923505","Restaurants",
"Olympia Restaurant","453","453 Market St","Lowell","MA","(978) 452-8092","42.646366","-71.316209","Restaurants",
"Winsor House Inn","390","390 Washington St","Duxbury","MA","(781) 934-0991","42.0357894","-70.6730028","Restaurants",
"Haley House Bakery Cafe","12","12 Dade St","Roxbury","MA","(617) 445-0900","42.332034","-71.082518","Restaurants",
"Devlins Restaurant","332","332 Washington St","Brighton","MA","(617) 779-8822","42.348877","-71.1523454","Restaurants",
"Early Bird Cafe","160","160 Plaistow Rd Ste 20","Plaistow","NH","(603) 382-2223","42.849469","-71.104816","Restaurants",
"Stephen Anthonys Seafood & Steakhouse","999","999 Boston Post Rd E","Marlborough","MA","(508) 460-9618","42.350921","-71.488438","Restaurants",
"Josephs Two","805","805 Main St","Waltham","MA","(781) 899-4754","42.376497","-71.242562","Restaurants",
"Deluxe Town Diner","627","627 Mount Auburn St","Watertown","MA","(617) 926-8400","42.370935","-71.158005","Restaurants",
"Zastigs Delicatessen","1298","1298 Worcester St","Natick","MA","(508) 653-1080","42.298482","-71.385426","Restaurants",
"Ugly Mug Diner","122","122 Washington St","Salem","MA","(978) 745-6844","42.5210647664537","-70.8958427468164","Restaurants",
"Mary Anne's Diner","4","4 Cobbetts Pond Rd","Windham","NH","(603) 965-3066","42.792701","-71.305105","Restaurants",
"IHOP","1378","1378 Boston Providence Tpke","Norwood","MA","(781) 769-6442","42.1664267","-71.1977464","Restaurants",
"Santoros Sub Villa","259","259 Essex St","Saugus","MA","(781) 233-0226","42.45797","-71.02296","Restaurants",
"IHOP","264B","264b N Broadway Ste 206","Salem","NH","(603) 870-9081","42.7943706800128","-71.2362863496595","Restaurants",
"IHOP","1850","1850 Soldiers Field Rd","Brighton","MA","(617) 787-0533","42.3586332","-71.1572974","Restaurants",
"Medway Cafe","74","74 Main St Unit 13","Medway","MA","(508) 533-6633","42.1515252","-71.412044","Restaurants",
"Stonebridge Cafe","1285","1285 Belmont St Ste 9","Brockton","MA","(508) 584-5200","42.059042","-71.068281","Restaurants",
"Square Cafe","150","150 North St","Hingham","MA","(781) 740-4060","42.2422601","-70.8898377","Restaurants",
"Miracle of Science Bar & Grill","321","321 Massachusetts Ave","Cambridge","MA","(617) 868-2866","42.3625797","-71.0985688","Restaurants",
"Narrow's Crossing Restaurant & Lounge","1","1 Narrows Rd","Wareham","MA","(508) 295-9345","41.756385","-70.711363","Restaurants",
"Sunnyside Cafe & Catering Co","24","24 Front St","Ashland","MA","(508) 881-9895","42.260712","-71.464181","Restaurants",
"Janie's Cafe","123","123 Nashua Rd Unit 23","Londonderry","NH","(603) 432-3100","42.8465909","-71.3602779","Restaurants",
"ML Shaw Country Kitchen","14","14 Loon Hill Rd Ste A","Dracut","MA","(978) 454-0800","42.672249","-71.294565","Restaurants",
"Village Pancake House","26","26 Main St","Rowley","MA","(978) 948-2211","42.707548","-70.881822","Restaurants",
"Butterfields Restaurant","372","372 Market St","Rockland","MA","(781) 871-2464","42.124271","-70.907279","Restaurants",
"Lendys Inc","653","653 Broadway","Saugus","MA","(781) 231-3180","42.4790415","-71.023128","Restaurants",
"Periwinkle Food Shoppe","540","540 Loring Ave","Salem","MA","(781) 599-5990","42.486415","-70.901139","Restaurants",
"Pret A Manger","101","101 Arch St Ste 105","Boston","MA","(617) 204-1085","42.354954","-71.059085","Restaurants",
"Cafe Luna","612","612 Main St","Cambridge","MA","(617) 576-3400","42.3627331519161","-71.09243194882","Restaurants",
"Port City Sandwich Co","40R","40r Merrimac St","Newburyport","MA","(978) 358-8628","42.8126199","-70.8720753","Restaurants",
"Black Sheep Pub & Grill","5","5 Central St","Peabody","MA","(978) 854-6780","42.5273296","-70.9268987","Restaurants",
"Man's Cafe","118","118 Park St","North Reading","MA","(978) 207-0322","42.5744319631816","-71.0728416846592","Restaurants",
"Bruegger's Bagels","41","41 Leonard St","Belmont","MA","(617) 484-4655","42.3971287","-71.1753004","Bagels Stores",
"Mad Marthas Cafe","51","51 Northern Blvd Ste 2","Newbury","MA","(978) 462-7707","42.802516","-70.809347","Restaurants",
"Mughals Indian Cuisine","184","184 Cambridge St","Burlington","MA","(781) 273-0111","42.511686","-71.200783","Restaurants",
"Salty Pig","130","130 Dartmouth St Ste 2","Boston","MA","(617) 536-6200","42.346393","-71.075844","Restaurants",
"Plate","27","27 Central Ave","Milton","MA","(617) 698-8900","42.2693892","-71.0734596","Restaurants",
"Bruegger's Bagels","253","253 Harvard St","Brookline","MA","(617) 566-3983","42.3411693","-71.1207686","Bagels Stores",
"Oak Street Cafe","300","300 Old Oak St","Pembroke","MA","(781) 829-0100","42.1088068939139","-70.7632812569119","Restaurants",
"Friendly Toast","121","121 Congress St","Portsmouth","NH","(603) 430-2154","43.076282","-70.759879","Restaurants",
"Blue Moon Grill","955","955 Main St","Wakefield","MA","(781) 245-4470","42.48202","-71.066127","Restaurants",
"Rosies Diner","27","27 Vinal Sq","North Chelmsford","MA","(978) 251-0520","42.639335","-71.383536","Restaurants",
"As Good As It Gets","35","35 Lowell St Ste 8","Wilmington","MA","(978) 988-3888","42.541707","-71.165211","Restaurants",
"Howard Street Diner","142","142 Howard St","Brockton","MA","(508) 586-5799","42.109375","-71.023068","Restaurants",
"Doo Wop Diner","269","269 Main St","Malden","MA","(781) 324-9441","42.423812","-71.067187","Restaurants",
"Anshur Restaurant","291","291 Roxbury St","Roxbury","MA","(617) 427-0599","42.330399","-71.094309","Restaurants",
"Sunnyside Cafe","150","150 W Center St","West Bridgewater","MA","(508) 584-8800","42.0173824","-71.0166551","Restaurants",
"Ferry Street Grille","108","108 Ferry St","Everett","MA","(617) 389-3900","42.40776","-71.046739","Restaurants",
"Kendall Kitchen","201","201 Broadway Ste 25","Cambridge","MA","(617) 225-7704","42.3663065","-71.0923815","Restaurants",
"Daily Harvest Cafe","103","103 High St","Danvers","MA","(978) 777-4123","42.55914","-70.930966","Restaurants",
"Omelette Factory","131","131 Rantoul St Ste 1","Beverly","MA","(978) 922-0494","42.5463875","-70.883878","Restaurants",
"Christophers Cafe & Catering Inc","2","2 Lewis St","Lynn","MA","(781) 596-2200","42.466775","-70.925441","Restaurants",
"Cafe Porto Bello","672","672 E Broadway Ste 1","South Boston","MA","(617) 269-7680","42.335798","-71.037634","Restaurants",
"Crossroads Cafe & Deli","216","216 Rockland St","Hanover","MA","(781) 826-9921","42.114636","-70.8204151","Restaurants",
"Montecristo Restaurant","146","146 Broadway","Somerville","MA","(617) 628-8458","42.388064","-71.084987","Restaurants",
"Cucina Mia Cafe & Deli","94","94 Washington St","Quincy","MA","(617) 479-1945","42.2508114","-70.9995516","Restaurants",
"Pho Da Lat Restaurant","1575","1575 Middlesex St","Lowell","MA","(978) 275-0022","42.6367059","-71.348347","Restaurants",
"The Nook Breakfast & Lunch","2","2 Locust St","Dover","NH","(603) 749-4673","43.1949471201512","-70.8751427284395","Restaurants",
"Monevasia Donuts Inc","312","312 Maple St","Marlborough","MA","(508) 460-6281","42.336445","-71.541293","Restaurants",
"Roasted Peppers","65","65 Main St","Maynard","MA","(978) 461-9932","42.4324018","-71.4530025","Restaurants",
"Tastefully Done Restaurant & Catering","1","1 University Ave Ste B","Westwood","MA","(781) 329-4155","42.2115326801282","-71.1498720042033","Restaurants",
"Grill Next Door","653","653 Broadway","Haverhill","MA","(978) 241-7337","42.784988","-71.127523","Restaurants",
"Kellys Restaurant","110","110 Washington St","Canton","MA","(781) 821-0099","42.141294","-71.148984","Restaurants",
"Cityside Diner","275","275 Cabot St","Beverly","MA","(978) 922-9080","42.5510481","-70.8781106","Restaurants",
"Stellas","558","558 Adams St","Milton","MA","(317) 698-2740","42.2583113","-71.0397706","Restaurants",
"Sandwich Works","827","827 Beacon St","Newton Center","MA","(617) 332-6777","42.3301660736369","-71.1948230079018","Restaurants",
"Dot 2 Dot Cafe","1739","1739 Dorchester Ave","Dorchester Center","MA","(617) 436-2368","42.2910673","-71.0630212","Restaurants",
"Blue Blinds Bakery","7","7 North St","Plymouth","MA","(508) 747-0462","41.9572156","-70.6645382","Restaurants",
"Creations Cafe","400","400 Main St","Wakefield","MA","(781) 246-2550","42.5034777","-71.0700517","Restaurants",
"Briannas Breakfast","100","100 Spring St Ste 3","Bridgewater","MA","(508) 279-6502","41.992819","-70.970718","Restaurants",
"Charlies Place","83","83 Bass Ave","Gloucester","MA","(978) 281-5002","42.6173832","-70.64131","Restaurants",
"Waffle House","283","283 Old Main St","Tewksbury","MA","(978) 640-9610","42.622943","-71.263874","Restaurants",
"Laudis Breakfast House","34","34 Broadway Rd","Dracut","MA","(978) 452-8767","42.6726182","-71.2958527","Restaurants",
"The Breakfast Club","270","270 Western Ave","Allston","MA","(617) 783-1212","42.3632499","-71.1335552","Restaurants",
"Grasshopper Cafe","229","229 Bunker Hill St","Charlestown","MA","(617) 242-0000","42.379473","-71.063295","Restaurants",
"Out of Asia Cafe & Grille","1268","1268 Broadway","Saugus","MA","(781) 231-3883","42.455061","-71.023344","Restaurants",
"IHOP","260","260 Providence Hwy","Dedham","MA","(781) 326-0719","42.2550605952397","-71.1707925391473","Restaurants",
"Seaglass Restaurant & Lounge","4","4 Ocean Front N","Salisbury","MA","(978) 462-5800","42.843468","-70.816143","Restaurants",
"Montecristo","116","116 Central Ave","Lynn","MA","(781) 593-1548","42.464245","-70.950176","Restaurants",
"Farmers Kitchen","444","444 Route 11","Farmington","NH","(603) 755-9900","43.3698561329385","-71.0452109227686","Restaurants",
"Tonia's Deli & General Store","246","246 E Water St","Rockland","MA","(781) 982-5671","42.1312153","-70.9071094","Restaurants",
"Wellesley North End Pizza","7","7 Washington St","Wellesley Hills","MA","(781) 237-3388","42.3253692","-71.259582","Restaurants",
"Sams Restaurant","146","146 Front St Ste 106","Scituate","MA","(781) 545-0050","42.195538","-70.724746","Restaurants",
"Maharajah","57","57 Jfk St","Cambridge","MA","(617) 547-2757","42.37212","-71.120892","Restaurants",
"Roselynn Ice Care LLC","153","153 Exeter Rd","Epping","NH","(603) 734-4199","43.030672","-71.048813","Restaurants",
"Anthony's Restaurant","800","800 Cummings Ctr Ste 147r","Beverly","MA","(978) 921-9200","42.561088","-70.887496","Restaurants",
"Station Diner","70","70 Union St","Newton Center","MA","(617) 244-2550","42.329504","-71.192599","Restaurants",
"Brant Rock Hop","269","269 Ocean St","Marshfield","MA","(781) 536-8483","42.0909966607776","-70.6445979245381","Restaurants",
"Gunther Tooties","1253","1253 Hancock St","Quincy","MA","(617) 471-1866","42.2520086","-71.004409","Restaurants",
"Sunnyside Cafe","866","866 N Main St","Randolph","MA","(781) 961-1700","42.1851743","-71.0553036","Restaurants",
"50's Diner","47","47 Legacy Blvd","Dedham","MA","(781) 326-1955","42.2338444","-71.1784575","Restaurants",
"View Restaurant & Tavern","357","357 W Squantum St","Quincy","MA","(617) 770-2500","42.2712989","-71.0401935","Restaurants",
"South End Pita","473","473 Albany St","Boston","MA","(617) 556-2600","42.3397706","-71.0649991","Restaurants",
"O BS Cafe","74","74 Billings Rd","Quincy","MA","(617) 472-2777","42.2743379","-71.0242349","Restaurants",
"Restaurant Bar & Grille","489","489 Main St","Woburn","MA","(781) 935-2511","42.4826152","-71.1506022","Restaurants",
"Grill Fifty Eight","284","284 Monponsett St","Halifax","MA","(781) 293-6665","41.9941453","-70.8439169","Restaurants",
"Regal Beagle","308","308 Harvard St","Brookline","MA","(617) 739-5151","42.343058","-71.123306","Restaurants",
"Millie's Lunch","535","535 Washington St","Whitman","MA","(781) 447-3344","42.0795567","-70.9367184","Restaurants",
"Bob's Muffin Shop","17","17 Union St","South Weymouth","MA","(781) 337-5028","42.1739277","-70.9510161","Restaurants",
"Swanton Street Diner","72","72 Swanton St","Winchester","MA","(781) 721-9666","42.4594911","-71.1323936","Restaurants",
"Corner Cafe","2000","2000 Ocean St","Marshfield","MA","(781) 837-8150","42.092148","-70.71031","Restaurants",
"Sunny Side Cafe","2","2 Jefferson Rd","Wilmington","MA","(978) 658-6779","42.5695977546364","-71.1588677813198","Restaurants",
"Guanachapis Restaurant","273","273 Moody St","Waltham","MA","(781) 788-8590","42.3715905","-71.2372063","Restaurants",
"Ernies Lunch LLC","458","458 Franklin St","Melrose","MA","(781) 662-5222","42.468614","-71.068313","Restaurants",
"Frannys","36","36 Lebanon St","Melrose","MA","(781) 388-9559","42.442552","-71.05165","Restaurants",
"Dempseys Muffins & Bagels II","438","438 Broadway","Everett","MA","(617) 389-4340","42.4072872","-71.0556412","Restaurants",
"Nikos Restaurant","948","948 Broad St","East Weymouth","MA","(781) 335-4423","42.21561","-70.922509","Restaurants",
"Mug-N-Muffin Breakfast","716","716 Washington St","Norwood","MA","(781) 762-8927","42.192102","-71.2018949","Restaurants",
"IHOP","200","200 Lynnway","Revere","MA","(781) 289-2425","42.4411522868484","-70.9670556947397","Restaurants",
"IHOP","540","540 Westgate Dr","Brockton","MA","(508) 521-6050","42.0914071325916","-71.05152","Restaurants",
"Cafe 26","26","26 Temple Pl","Boston","MA","(617) 292-2626","42.355401","-71.062047","Restaurants",
"Main Street Cafe","182","182 Main St","Marlborough","MA","(508) 485-7664","42.3465454315408","-71.5493957843872","Restaurants",
"Cafe Paolina Cucina Italiana","646","646 Humphrey St","Swampscott","MA","(781) 593-6455","42.4688413","-70.8995718","Restaurants",
"Sweetlife Bakery & Cafe","2243","2243 Dorchester Ave","Dorchester Center","MA","(617) 696-6510","42.273776","-71.067854","Restaurants",
"Dreamy Flavor Brunch & Restaurant","129","129 Broadway","Reading","MA","(617) 764-0337","42.52484","-71.1091","Restaurants",
"T S Cafe","228","228 Union St","Holbrook","MA","(781) 767-1579","42.1553488","-71.0189595","Restaurants",
"3 Little Figs","278","278 Highland Ave","Somerville","MA","(617) 623-3447","42.391764","-71.111904","Restaurants",
"Victoria Cafe Inc","23","23 Messenger St Ste 1","Plainville","MA","(508) 643-2220","42.008268","-71.30947","Restaurants",
"Pret A Manger USA Ltd","50","50 Post Office Sq Ste 102","Boston","MA","(617) 204-9587","42.3576305012812","-71.0562287128861","Restaurants",
"Simard's Place","501","501 Newburyport Tpke","Rowley","MA","(978) 948-7006","42.728319","-70.901879","Restaurants",
"Bw's Grill","843","843 Broadway","Revere","MA","(781) 629-3778","42.4182218917232","-71.0066122438677","Restaurants",
"Veggie Galaxy","450","450 Massachusetts Ave Ste 2","Cambridge","MA","(617) 497-1513","42.3635189","-71.101074","Restaurants",
"Twist Bakery & Cafe","30","30 Milliston Rd","Millis","MA","(508) 376-1163","42.1669513","-71.3541052","Restaurants",
"Cottage","47","47 Boylston St","Chestnut Hill","MA","(617) 916-5413","42.3225967","-71.1699838","Restaurants",
"Theos Cozy Corner Restaurant","162","162 Salem St Ste 1","Boston","MA","(857) 277-1619","42.366083","-71.055108","Restaurants",
"Chelmsford Diner","7","7 Summer St","Chelmsford","MA","(978) 455-0648","42.593962","-71.349044","Restaurants",
"Peabody Diner","10","10 Margin St","Peabody","MA","(978) 854-5800","42.5327126","-70.9138901","Restaurants",
"D & D Breakfast & Luncheon Shoppe","2","2 Man Mar Dr Unit 4","Plainville","MA","(508) 695-7865","42.009029","-71.305707","Restaurants",
"Paramount","44","44 Charles St","Boston","MA","(617) 720-1152","42.3572593","-71.0702076","Restaurants",
"Breakfast Nook","770","770 S Main St","Bellingham","MA","(508) 883-2442","42.049246","-71.486089","Restaurants",
"Sweet Spot Bakery","163","163 W Emerson St","Melrose","MA","(781) 665-3290","42.459426","-71.070617","Restaurants",
"Souper Roll Up Cafe","726","726 Cambridge St","Cambridge","MA","(617) 354-5810","42.3720475","-71.0888724","Restaurants",
"Sorella's","386","386 Centre St","Jamaica Plain","MA","(617) 524-2016","42.321764","-71.109597","Restaurants",
"Tournament Wharf Restaurant","1","1 Tournament Wharf","Newburyport","MA","(978) 462-7785","42.813875","-70.873676","Restaurants",
"17 State Street Cafe","17","17 State St","Newburyport","MA","(978) 948-3456","42.81056","-70.869785","Restaurants",
"Al Fresca Italian Ristorante","1768","1768 Main St Ste 3","Tewksbury","MA","(978) 851-3332","42.593275","-71.209489","Restaurants",
"Stowe Cafe","118","118 Great Rd","Stow","MA","(978) 897-9330","42.432846","-71.486315","Restaurants",
"Sunny's Restaurant","250","250 Calef Hwy","Lee","NH","(603) 292-6607","43.1305546","-71.0219065","Restaurants",
"Brothers Deli Restaurant","404","404 Main St","Wakefield","MA","(781) 245-5511","42.503305","-71.070032","Restaurants",
"Shawsheen Luncheonette","3","3 Lowell St","Andover","MA","(978) 475-9750","42.672125","-71.15123","Restaurants",
"America Baker's","22","22 College Ave","Somerville","MA","(617) 764-3262","42.3973368764968","-71.1219887215228","Restaurants",
"Leos Place Diner LLC","655","655 Main St","Waltham","MA","(781) 790-1307","42.3765032","-71.2365258","Restaurants",
"Donut Management Monevasia Donuts","312","312 Maple St","Marlborough","MA","(508) 460-9368","42.336445","-71.541293","Restaurants",
"Code Ten","1638","1638 Washington St","Boston","MA","(617) 375-6333","42.3379296","-71.0747036","Restaurants",
"Buds Taste Breakfast Luncheon","5","5 Rama Ln","Holbrook","MA","(781) 986-0257","42.1303633","-71.0062045","Restaurants",
"Zarape Restaurant","33","33 Maple St","Marlborough","MA","(508) 485-5502","42.345985","-71.543451","Restaurants",
"Friendesha Cafe","34","34 Rogers Rd","Haverhill","MA","(978) 241-4196","42.761001","-71.112277","Restaurants",
"Cork N Keg","4","4 Essex Dr","Raymond","NH","(603) 244-1573","43.035382","-71.161324","Restaurants",
"Urban Farmhouse Eatery","184","184 Lafayette Rd","North Hampton","NH","(603) 379-9965","42.9939846263366","-70.8172372941703","Restaurants",
"Bickford's","6","6 Cambridge St","Burlington","MA","(781) 272-2262","42.481553","-71.186534","Restaurants",
"Victoria's Kitchen Cafe","725","725 Lafayette Rd","Hampton","NH","(603) 926-2076","42.9479","-70.832121","Restaurants",
"Great Hill Maples","22","22 Hersey Ln","Newmarket","NH","(603) 659-3736","43.063918","-70.943369","Restaurants",
"Works Bakery Cafe","9","9 Congress St","Portsmouth","NH","(603) 431-4434","43.0768983415878","-70.7583171814908","Restaurants",
"East Side Restaurant","39","39 Main St","Millis","MA","(508) 376-2843","42.1802926","-71.3247595","Restaurants",
"Somebody's Place","38","38 Andover St","Andover","MA","(978) 475-2626","42.643777","-71.15415","Restaurants",
"Sailor Stan's","1","1 Wonson St","Gloucester","MA","(978) 281-4470","42.6048541","-70.6570843","Restaurants",
"5 South Main","5","5 S Main St","Cohasset","MA","(781) 383-3555","42.241052","-70.802673","Restaurants",
"Jimmy K's","101","101 Plaistow Rd","Haverhill","MA","(978) 377-0003","42.8146793934771","-71.1025649365786","Restaurants",
"IHOP","160","160 Washington St","Rochester","NH","(603) 948-1238","43.291301","-70.996251","Restaurants",
"Jimmy K's Restaurant","176","176 Old Ferry Rd","Methuen","MA","(978) 725-2535","42.75579","-71.149782","Restaurants",
"Evolutions Cafe","26","26 Forest St","Marlborough","MA","(508) 460-8915","42.331312","-71.571411","Restaurants",
"Mikos Cafe","912","912 Crescent St","Brockton","MA","(508) 588-7038","42.0806625","-70.9812383","Restaurants",
"Mindy's Breakfast","207","207 Belmont St","Brockton","MA","(508) 857-4425","42.0788739648312","-71.0283194824833","Restaurants",
"Maddies Bar and Grille","216","216 Rangeway Rd","North Billerica","MA","(978) 670-7777","42.568697","-71.3105623","Restaurants",
"Java Grind and Grill","125","125 Main St","Stoneham","MA","(781) 572-3078","42.493436","-71.101114","Restaurants",
"Maekha Thai","163","163 Squire Rd","Revere","MA","(781) 629-6981","42.4239744","-71.0095275","Restaurants",
"Iron-Town Diner","325","325 Main St","Saugus","MA","(781) 558-2070","42.4732202","-71.0355296","Restaurants",
"Wheelhouse","63","63 Broad St","Boston","MA","(617) 422-0082","42.3577511239338","-71.053899853854","Restaurants",
"Muffin House Cafe Inc","116","116 Main St Ste 203","Medway","MA","(508) 533-6655","42.1507497","-71.4173589","Restaurants",
"IHOP","570","570 Lafayette Rd Unit 301","Seabrook","NH","(603) 474-0512","42.891533","-70.871415","Restaurants",
"Little Commons","43","43 Washington St","Norwell","MA","(339) 469-1265","42.17407","-70.882171","Restaurants",
"Early Bird 2","287","287 Main St","Kingston","MA","(781) 585-5171","41.995166","-70.7412724","Restaurants",
"Christines Cafe","618","618 Salem St","Lynnfield","MA","(781) 596-2259","42.514812","-71.011416","Restaurants",
"Sweetgreen","800","800 Boylston St Spc 17","Boston","MA","(857) 753-4982","42.3482963792101","-71.0834282775152","Restaurants",
"Perkins Restaurant & Bakery","39","39 Perkins St","Lowell","MA","(855) 642-7427","42.6515437","-71.3149637","Restaurants",
"Mo's Place","1357","1357 Main St","Hanson","MA","(781) 293-2667","42.041312","-70.8894796","Restaurants",
"Paramount","667","667 E Broadway","South Boston","MA","(617) 269-9999","42.3354066","-71.037871","Restaurants",
"Bread Dreams","66","66 Market Sq","Lynn","MA","(781) 598-7132","42.4621925","-70.9653855","Restaurants",
"Tastefully Done","100","100 River Ridge Dr","Norwood","MA","(781) 762-1399","42.1767013","-71.1903003","Restaurants",
"Jahs See To Sea Breakfast","945","945 Concord St","Framingham","MA","(413) 353-1119","42.303475","-71.404407","Restaurants",
"Eli's Breakfast","12","12 Washington St","Natick","MA","(508) 545-0669","42.284774","-71.346597","Restaurants",
"IHOP","10","10 Shops At 5 Way","Plymouth","MA","(774) 773-7193","41.9305629","-70.6577261","Restaurants",
"Evergreen Eatery","154","154 Green St","Jamaica Plain","MA","(617) 477-9573","42.3104982","-71.1066402","Restaurants",
"Exodus Bagels","3346","3346 Washington St","Jamaica Plain","MA","(617) 323-3354","42.3094306","-71.104161","Restaurants",
"Fat Dog Kitchen","20","20 3rd St","Dover","NH","(603) 516-0106","43.1983601651335","-70.8752828279572","Restaurants",
"King Street Cafe on the Charles","39","39 Main St","Millis","MA","(508) 376-2843","42.1802926","-71.3247595","Restaurants",
"Zia Gianna - Italian Bakery & Caff","1739","1739 Dorchester Ave","Dorchester Center","MA","(617) 436-2368","42.2910673","-71.0630212","Restaurants",
"Perry's Plate","89","89 Main St","Andover","MA","(978) 409-1814","42.653899","-71.138997","Restaurants",
"Nick & Andy's Breakfast & Lunch","110","110 Newbury St Ste 13","Danvers","MA","(978) 304-1017","42.568299","-70.974826","Restaurants",
"Cyds Creative Kitchen","3","3 Tremont Rd","Wareham","MA","(508) 322-9924","41.7679968","-70.7315383","Restaurants",
"Blueberry Muffin","164","164 Summer St Ste G","Kingston","MA","(781) 936-8848","42.0085059","-70.732391","Restaurants",
"Mom's Kitchen","46","46 Commercial St","Gloucester","MA","(978) 282-4444","42.6103918","-70.6652528","Restaurants",
"Ball Square Laser","697","697 Broadway","Somerville","MA","(866) 625-2737","42.4000484","-71.112027","Restaurants",
"Dirty Water Dough Co","222","222 Newbury St Ste 1","Boston","MA","(617) 262-0090","42.3497964","-71.0811465","Restaurants",
"Peter's Sunrise Restaurant","320","320 Main St","Everett","MA","(617) 389-0833","42.411652","-71.063224","Restaurants",
"Poor Boys","136","136 Rockingham Rd","Londonderry","NH","(603) 432-8990","42.916603","-71.368545","Restaurants",
"Raffs Cafe","620","620 Primrose St Ste 5","Haverhill","MA","(978) 373-4376","42.7944184","-71.0897222","Restaurants",
"Granite St Cafe Inc","378","378 Granite St","Quincy","MA","(617) 328-7774","42.242088","-71.014977","Restaurants",
"Johnsons Drive-In","164","164 Boston Rd","Groton","MA","(978) 448-6840","42.5962006229185","-71.5563265641845","Restaurants",
"Red Wing Diner Inc","2235","2235 Providence Hwy","Walpole","MA","(508) 668-0453","42.1079017","-71.2502507","Restaurants",
"Bruegger's Bagels","2050","2050 Commonwealth Ave","Auburndale","MA","(617) 964-9508","42.3469751","-71.2450332","Bagels Stores",
"Lighthouse Cafe","20","20 High St","Medford","MA","(781) 391-0009","42.4181511","-71.1104646","Restaurants",
"Maxie's Delicatessen","117","117 Sharon St","Stoughton","MA","(781) 341-1662","42.1378812372544","-71.1479207210596","Restaurants",
"Tinys Restaurant","2","2 Groton School Rd","Ayer","MA","(978) 772-2917","42.569335","-71.592961","Restaurants",
"Bruegger's Bagels","360","360 Granite Ave","Milton","MA","(617) 698-6159","42.2589217","-71.0413368","Bagels Stores",
"Bruegger's Bagels","644","644 Beacon St","Boston","MA","(617) 262-7939","42.3494737","-71.0955719","Bagels Stores",
"Depot Diner","23","23 Enon St Ste 2","Beverly","MA","(978) 922-6200","42.5853157","-70.8841978","Restaurants",
"Reids Ultimate Breakfast","2021","2021 Main St","Brockton","MA","(508) 588-4960","42.0449598","-71.0109352","Restaurants",
"Villa House of Pizza","1367","1367 Massachusetts Ave","Arlington","MA","(781) 646-0202","42.424752","-71.184099","Restaurants",
"Tu Y Yo Mexican Restaurant","858","858 Broadway","Somerville","MA","(617) 623-5411","42.400696","-71.117613","Restaurants",
"James Breakfast More Inc","850","850 Franklin St Ste 3","Wrentham","MA","(508) 384-0017","42.074253","-71.359498","Restaurants",
"Portsmouth Book & Bar","40","40 Pleasant St","Portsmouth","NH","(603) 427-9197","43.07611","-70.757435","Restaurants",
"Bickford's","20","20 Nagog Park","Acton","MA","(978) 263-0442","42.5225363","-71.4336854","Restaurants",
"O'Malleys","201","201 Harvard St","Brookline","MA","(617) 232-8787","42.339669","-71.120765","Restaurants",
"Nate's at Front Beach","18","18 Beach St","Rockport","MA","(978) 546-0055","42.6592069","-70.6221437","Restaurants",
"Corner Office Gourmet","600","600 W Cummings Park Ste 1950","Woburn","MA","(781) 281-2662","42.495742","-71.127461","Restaurants",
"Finch","107","107 Merrimac St","Boston","MA","(617) 624-0202","42.3638983","-71.0624061","Restaurants",
"Haute Coffee","12","12 Walden St","Concord","MA","(978) 369-9900","42.4595255","-71.3504124","Restaurants",
"Winthrop Center Cafe","36","36 Woodside Ave","Winthrop","MA","(617) 846-6411","42.375076","-70.98678","Restaurants",
"Central Street Cafe","186","186 E Central St","Natick","MA","(508) 647-0200","42.290062","-71.3294","Restaurants",
"Mitty's Big Beef & Breakfast","9","9 W Main St","Newton Junction","NH","(603) 974-1629","42.86355","-71.06185","Restaurants",
"Watermark Doughnut Co","370","370 Dorchester Ave","South Boston","MA","(617) 464-3880","42.3358041","-71.0569017","Restaurant Management",
"Einstein Bros Bagels","415","415 South St","Waltham","MA","(781) 736-2150","42.3668835","-71.2600337","Bagels Stores",
"Mike & Pattys","12","12 Church St","Boston","MA","(617) 423-3447","42.348461","-71.067892","Restaurants",
"Peachs & Cream","311","311 Broadway","Chelsea","MA","(617) 889-1900","42.391122","-71.0364954","Restaurants",
"Aragosta Bar & Bistro","3","3 Battery Wharf","Boston","MA","(617) 994-9001","42.366863","-71.051341","Restaurants",
"Bobby C's Ristorante","20","20 Main St","Melrose","MA","(781) 662-5472","42.440899","-71.0684964","Restaurants",
"Cobblestone Cafe","227","227 Hanover St","Boston","MA","(857) 263-8057","42.3629898","-71.0550907","Restaurants",
"Blueberry Muffin","12","12 Village Grn S","Plymouth","MA","(508) 927-4566","41.8800552765294","-70.5993201732666","Restaurants",
"Martin's Restaurant","205","205 North Ave","Abington","MA","(781) 878-1915","42.1278132","-70.942203","Restaurants",
"Nellie Rose Restaurant","444","444 Centre St","Middleboro","MA","(774) 419-3145","41.893203","-70.917234","Restaurants",
"Bruegger's Bagels","211","211 Lincoln St Ste 5","Hingham","MA","(781) 740-4871","42.249381","-70.906508","Bagels Stores",
"Einstein Bros Bagels","44","44 Main St Ste 2","Wayland","MA","(508) 655-6420","42.3168041","-71.3639355","Bagels Stores",
"Bloc 11 Cafe","11","11 Bow St","Somerville","MA","(617) 623-0000","42.380841","-71.0967","Restaurants",
"Reds Sandwich Shop","15","15 Central St","Salem","MA","(978) 745-3527","42.521114","-70.893372","Restaurants",
"Carleens Coffee Shop","207","207 S Broadway","Lawrence","MA","(978) 682-3466","42.6937982","-71.1624338","Restaurants",
"Mcgolf Cafe & Creamery","150","150 Bridge St","Dedham","MA","(781) 326-5999","42.26328","-71.176997","Restaurants",
"Uncle Charlies","1496","1496 Main St","South Weymouth","MA","(781) 337-3889","42.153063","-70.954787","Restaurants",
"Silver Slipper Restaurant","2387","2387 Washington St","Roxbury","MA","(617) 442-4853","42.329222","-71.085074","Restaurants",
"Barry's Village Deli","6","6 Windsor Rd","Waban","MA","(617) 527-9773","42.3266431","-71.2309494","Restaurants",
"Marina Donuts Inc","765","765 Main St","Haverhill","MA","(978) 374-7580","42.7976416","-71.0882613","Restaurants",
"Crema Cafe","27","27 Brattle St","Cambridge","MA","(617) 876-2700","42.3736376","-71.1206941","Restaurants",
"Toast of The Town","348","348 N Main St","Randolph","MA","(781) 961-3883","42.1679433","-71.0465332","Restaurants",
"Calas","7","7 Beach St","Manchester","MA","(978) 525-3304","42.5747788","-70.7703526","Restaurants",
"Arties Place","28","28 Split Rock Rd","Lynn","MA","(978) 531-0069","42.505707","-70.989845","Restaurants",
"Lincolns Landing","156","156 Humphrey St","Swampscott","MA","(781) 593-5565","42.467989","-70.916533","Restaurants",
"Water Street Cafe","25","25 Water St","Plymouth","MA","(508) 746-2050","41.9555227","-70.6612792","Restaurants",
"Einstein Bros Bagels","40","40 Drum Hill Rd","Chelmsford","MA","(978) 441-2553","42.625044","-71.360648","Bagels Stores",
"Cancun Mexican Family Restaurant","145","145 Main St","Kingston","MA","(781) 585-0060","41.98878","-70.718696","Restaurants",
"Lindas Breakfast Place","920","920 Lafayette Rd","Seabrook","NH","(603) 474-2200","42.902478","-70.868049","Restaurants",
"Station 5 Grille","17","17 Watson St","Natick","MA","(508) 653-5758","42.2815314804981","-71.3779377639873","Restaurants",
"Saltwater Diner","512","512 Nantasket Ave","Hull","MA","(781) 925-9099","42.282393","-70.873221","Restaurants",
"Coda Kitchen & Bar","329","329 Columbus Ave Ste 1","Boston","MA","(617) 536-2632","42.34627","-71.075055","Restaurants",
"Andover Deli & Pizza","22","22 Andover St","Andover","MA","(978) 470-1492","42.645306","-71.153099","Restaurants",
"J & M Diner","50","50 Worcester Rd Ste 1","Framingham","MA","(508) 875-7811","42.2990216869199","-71.3949159165949","Restaurants",
"IHOP","16","16 Eliot St Ste 18","Cambridge","MA","(617) 354-0999","42.372072","-71.121484","Restaurants",
"Cafe Mirror","362","362 Washington St","Brighton","MA","(617) 779-9662","42.348997","-71.153671","Restaurants",
"Willow Rest","1","1 Holly St","Gloucester","MA","(978) 283-2417","42.6423245","-70.6700862","Restaurants",
"Mothers Pizza","524","524 Franklin St","Melrose","MA","(781) 665-2041","42.468642","-71.0692739","Restaurants",
"Cindys Pizza & Subs","653","653 Humphrey St","Swampscott","MA","(781) 599-0358","42.468533","-70.89892","Restaurants",
"Andyman Dessert & Baking Co","40","40 Hillside Ave","Amesbury","MA","(978) 388-4008","42.845631","-70.93633","Restaurants",
"Depasquales at Night Cap Corner","339","339 River St","West Newton","MA","(617) 916-1842","42.357967","-71.239305","Restaurants",
"Heavenly Donuts","579","579 Main St","Wilmington","MA","(978) 447-5378","42.542947","-71.169103","Restaurants",
"Oat Shop","22","22 College Ave # A","Somerville","MA","(617) 996-6581","42.3973368764968","-71.1219887215228","Restaurants",
"Bruegger's Bagels","1876","1876 Massachusetts Ave","Cambridge","MA","(617) 576-6248","42.388247","-71.119738","Bagels Stores",
"Bruegger's Bagels","667","667 Vfw Pkwy","Chestnut Hill","MA","(617) 327-6465","42.2947404217237","-71.1603555069724","Bagels Stores",
"Einstein Bros Bagels","259","259 Centre St","Newton","MA","(617) 332-3704","42.3589706","-71.1854044","Bagels Stores",
"Einstein Bros Bagels","725","725 Commonwealth Ave","Boston","MA","(617) 353-6638","42.3505058","-71.1073604","Bagels Stores",
"Prime Deli Inc","580","580 South St","Waltham","MA","(781) 893-4344","42.3606459","-71.2613811","Restaurants",
"Brooklyn Bagel Restaurant","11","11 Manchester Rd Unit 4","Derry","NH","(603) 432-3300","42.896617","-71.329542","Restaurants",
"Persys Place","3198","3198 Cranberry Hwy","East Wareham","MA","(508) 322-7166","41.750423","-70.628473","Restaurants",
"Benedicts Grill","176","176 S Main St","Rochester","NH","(603) 330-0665","43.2992200459216","-70.9675277455614","Restaurants",
"Hi-Tide","480","480 Shirley St","Winthrop","MA","(617) 846-7792","42.3726287","-70.9708445","Restaurants",
"Gourmet Cafe","245","245 Main St","Brockton","MA","(508) 580-0966","42.0802897","-71.0204431","Restaurants",
"Lee Circle Grocery","87","87 Calef Hwy","Lee","NH","(603) 868-3040","43.1509602074025","-71.0058502592388","Restaurants",
"Bruegger's Bagels","158","158 Great Rd","Bedford","MA","(781) 778-2927","42.4911957","-71.2738411","Bagels Stores",
"Mariposa Bakery","424","424 Massachusetts Ave","Cambridge","MA","(617) 876-6500","42.3633263","-71.1007395","Restaurants",
"Good Days Restaurant","99","99 S Main St","West Bridgewater","MA","(508) 584-0077","42.0167254","-71.0031723","Restaurants",
"Morning Glories Bakery","52","52 Country Way","Scituate","MA","(781) 545-3400","42.1798541","-70.7477287","Restaurants",
"Cookie Time Bakery","1373","1373 Massachusetts Ave","Arlington","MA","(781) 646-0121","42.4246253","-71.1841903","Restaurants",
"Cup 2 Cafe","3175","3175 Cranberry Hwy","East Wareham","MA","(508) 743-0410","41.751393","-70.632377","Restaurants",
"Bruegger's Bagels","211","211 Congress St Ste 2","Boston","MA","(617) 423-7119","42.3546523","-71.054807","Bagels Stores",
"Flav's Red Skiff","15","15 Mount Pleasant St","Rockport","MA","(978) 546-7647","42.6534001","-70.612143","Restaurants",
"Crown Cafe","106","106 Main St","Watertown","MA","(617) 923-9219","42.3669164","-71.1870921","Restaurants",
"Fast Eddies Dinner","320","320 Lafayette Rd","Hampton","NH","(603) 926-2314","42.937211","-70.838641","Restaurants",
"CJ's Northside Grill","911","911 Edgell Rd","Framingham","MA","(508) 877-5900","42.3301067287858","-71.4358067884307","Restaurants",
"Espresso Love","33","33 Broad St Lbby 2","Boston","MA","(857) 284-7462","42.358429","-71.054499","Restaurants",
"Petes Bluebird","93","93 Mendon St","Bellingham","MA","(508) 966-9717","42.087148","-71.485383","Restaurants",
"Sunnyside Diner","639","639 Broadway","Lawrence","MA","(978) 687-9057","42.717448","-71.178229","Restaurants",
"Big Bean Breakfast Cafe","118","118 Main St","Newmarket","NH","(603) 659-8600","43.0789922082896","-70.9364508924592","Restaurants",
"Bagel World III Bakery & Deli","323","323 Main St","Reading","MA","(781) 942-2442","42.5174523","-71.1030663","Restaurants",
"Heavn'ly","592","592 Merrimack Ave","Dracut","MA","(978) 710-7620","42.6590965","-71.2633613","Restaurants",
"Bruegger's Bagels","600","600 Main St","Winchester","MA","(781) 721-2204","42.453604","-71.137827","Bagels Stores",
"Chucks Restaurant","68","68 Maple St","Danvers","MA","(978) 774-9714","42.566958","-70.937173","Restaurants",
"Top Donut","603","603 Bridge St","Lowell","MA","(978) 735-4077","42.6528768051796","-71.3023496150928","Restaurants",
"Toast","121","121 Nantasket Ave Ste 5","Hull","MA","(781) 925-5221","42.2666696","-70.8503966","Restaurants",
"McKays Breakfast & Lunch","144","144 Franklin St","Quincy","MA","(617) 773-0099","42.2388342","-71.0030938","Restaurants",
"Piro' Bakery & Pizzeria","300","300 Merrimack St Ste 3","Methuen","MA","(978) 686-1872","42.742171","-71.131946","Restaurants",
"Zacharys Breakfast & Lunch","1778","1778 Washington St","Stoughton","MA","(781) 297-7510","42.096965","-71.095648","Restaurants",
"Jakes Restaurant & Coffee Shop","30","30 Main St","Marlborough","MA","(508) 480-0414","42.347086","-71.5439","Restaurants",
"Cafe Espresso of Portsmouth","800","800 Islington St","Portsmouth","NH","(603) 334-3407","43.0682479","-70.771387","Restaurants",
"Bagel World Bakery & Deli","10","10 Sylvan St Ste 3","Peabody","MA","(978) 532-7151","42.5468722","-70.9457817","Restaurants",
"Blueberry Muffin","2240","2240 State Rd Ste 4","Plymouth","MA","(508) 888-9444","41.821815","-70.550102","Restaurants",
"Al Gauron Luncheonette","1","1 Ocean Blvd","Hampton","NH","(603) 926-0595","42.8976224550904","-70.8163368754232","Restaurants",
"Bettys Kitchen","164","164 Lafayette Rd","North Hampton","NH","(603) 964-9870","42.991565","-70.819081","Restaurants",
"Brooklyn Water Bagles","341","341 Cochituate Rd","Framingham","MA","(508) 875-0007","42.301991","-71.40159","Restaurants",
"The Connection Cafe","40","40 Union St","Holbrook","MA","(781) 885-7813","42.1552613","-71.0100054","Restaurants",
"Rifrullo","147","147 Cypress St","Brookline","MA","(617) 505-6727","42.32964","-71.126227","Restaurants",
"Bagelsaurus","1796","1796 Massachusetts Ave","Cambridge","MA","(857) 285-6103","42.3859685","-71.1196156","Restaurants",
"Kristins Breakfast & Lunch","349","349 Washington St","Braintree","MA","(781) 843-2022","42.220506","-71.004143","Restaurants",
"Harrys All American Breakfast","1420","1420 Centre St","Roslindale","MA","(617) 327-9256","42.2937198061195","-71.1365696518042","Restaurants",
"IHOP","17","17 Edgell Rd","Framingham","MA","(508) 270-2694","42.3005205","-71.4336433","Restaurants",
"Zoes","1105","1105 Massachusetts Ave Ste 7","Cambridge","MA","(617) 495-0055","42.370762","-71.113425","Restaurants",
"Breakfast Nook","3147","3147 Cranberry Hwy","East Wareham","MA","(508) 759-5950","41.752569","-70.635302","Restaurants",
"Muffin Shop","126","126 Washington St Ste 1","Marblehead","MA","(781) 631-8223","42.50426","-70.850173","Restaurants",
"Hollow Cafe","194","194 Main St Ste 6","Amesbury","MA","(978) 388-5460","42.851976","-70.931409","Restaurants",
"Oasis Cafe & Bakery","377","377 Main St","Medford","MA","(781) 306-9611","42.4050657188957","-71.1080905483367","Restaurants",
"Sunrise Breakfast","528","528 Washington St","Norwood","MA","(617) 515-2043","42.1955688","-71.1996217","Restaurants",
"Elis Place","267","267 Merrimack St","Lawrence","MA","(978) 687-7986","42.7025942","-71.1496045","Restaurants",
"Teddys Kitchen","462","462 Common St","Belmont","MA","(617) 484-9822","42.3809212","-71.1745201","Restaurants",
"Charlies Deli Inc","366","366 S Main St","Sharon","MA","(781) 784-5842","42.1076674","-71.1983779","Restaurants",
"Franz's Food","46","46 Main St","Durham","NH","(603) 868-3800","43.1343013","-70.9258603","Restaurants",
"Deli House","48","48 Congress St","Salem","MA","(978) 745-5900","42.5178164","-70.8894915","Restaurants",
"Tremont Mill Pond Diner","2571","2571 Cranberry Hwy","Wareham","MA","(508) 295-9688","41.767015","-70.724209","Restaurants",
"Hammersmith Family Restaurant","330","330 Central St","Saugus","MA","(781) 233-8089","42.462723","-71.009379","Restaurants",
"New Baker Street Market Deli","419","419 Baker St","West Roxbury","MA","(617) 327-3080","42.284405","-71.169554","Restaurants",
"Derry Diner","29","29 Crystal Ave","Derry","NH","(603) 434-6499","42.887027","-71.326387","Restaurants",
"Brothers Deli","41","41 Market St","Lynn","MA","(781) 581-3363","42.4632787","-70.9504047","Restaurants",
"Windham Juction Country Store","128","128 N Lowell Rd","Windham","NH","(603) 434-7467","42.8422","-71.299275","Restaurants",
"Skillet Cafe Inc","119","119 Main St","Weymouth","MA","(781) 660-4294","42.2034733","-70.956341","Restaurants",
"Colbys Breakfast & Lunch","105","105 Daniel St","Portsmouth","NH","(603) 436-3033","43.077447","-70.755582","Restaurants",
"Sugar Magnolias","112","112 Main St","Gloucester","MA","(978) 281-5310","42.6126735","-70.663709","Restaurants",
"Cracker Barrel Old Country Store","613","613 Main St","Hingham","MA","(781) 749-5001","42.215443","-70.885123","Restaurants",
"Thai Basil Restaurant","132","132 Newbury St Ste B","Boston","MA","(617) 578-0089","42.350966","-71.0767058","Restaurants",
"Theos Restaurant","122","122 W Main St Apt 9","Georgetown","MA","(978) 352-6171","42.729586","-70.99737","Restaurants",
"Cafe Costa Del Sol","366","366 Broadway","Revere","MA","(781) 485-0555","42.40964","-71.012751","Restaurants",
"Boyles Market","64","64 Broadway","Arlington","MA","(781) 646-1188","42.408714","-71.137742","Restaurants",
"Bagel Grounds","2","2 Waldron Ct","Dover","NH","(603) 343-4285","43.196266","-70.8748618","Restaurants",
"Parthenon Restaurant","30","30 N Main St","Randolph","MA","(781) 986-8446","42.163498","-71.042242","Restaurants",
"Sunnyside Up","400","400 Bridge St","North Weymouth","MA","(781) 340-6491","42.243203","-70.950064","Restaurants",
"Early American Restaurant","1054","1054 Hancock St","Quincy","MA","(617) 328-8225","42.256381","-71.007025","Restaurants",
"Zeke's Place","66","66 E Main St","Gloucester","MA","(978) 283-7817","42.614467","-70.647751","Restaurants",
"Moogys Sandwich Shop","154","154 Chestnut Hill Ave","Brighton","MA","(617) 254-8114","42.341551","-71.1542599","Restaurants",
"Sammy JS Cafe","144","144 Main St","Salem","NH","(603) 894-5395","42.7819689","-71.225576","Restaurants",
"Classic Cafe","1313","1313 Massachusetts Ave","Arlington","MA","(781) 646-7871","42.4244282","-71.1825008","Restaurants",
"Matildas","1","1 Crawford St","Watertown","MA","(617) 926-0700","42.367875","-71.155307","Restaurants",
"Knotty Pine Restaurant","295","295 Auburn St","Auburndale","MA","(617) 527-9864","42.3468019","-71.2472161","Restaurants",
"Einstein Bros Bagels","376","376 Hale St","Beverly","MA","(978) 816-7621","42.5512167","-70.8397357","Bagels Stores",
"Bruegger's Bagels","1","1 W 7th St","South Boston","MA","(617) 367-4295","42.3379245509318","-71.0567401180582","Bagels Stores",
"Bruegger's Bagels","667","667 V F","West Roxbury","MA","(617) 327-4007","42.27776","-71.15544","Bagels Stores",
"North Street Grille","229","229 North St","Boston","MA","(617) 720-2010","42.363395","-71.052521","Restaurants",
"All American Diner","60","60 Court St","Plymouth","MA","(508) 747-4763","41.9584801","-70.6678747","Restaurants",
"Cafe Sorelli","130","130 New Boston St Ste 105","Woburn","MA","(781) 937-9494","42.506337","-71.145672","Restaurants",
"Dans Place","200","200 W Main St Ste 2","Ayer","MA","(978) 772-6953","42.554856","-71.604503","Restaurants",
"BLT's","176","176 Broad St","Lynn","MA","(781) 598-9284","42.462607","-70.940501","Restaurants",
"Renees Cafe","198","198 Holland St","Somerville","MA","(617) 623-2727","42.401612990394","-71.126634785501","Restaurants",
"Beach Street Cafe","35","35 Beach St","Manchester","MA","(978) 704-9571","42.5738076","-70.7705108","Restaurants",
"Belly Buster Diner","306","306 Boston Rd Ste 10","North Billerica","MA","(978) 667-7072","42.573502","-71.278","Restaurants",
"Weinbergs Bakery","519","519 Nantasket Ave","Hull","MA","(781) 773-1009","42.282625","-70.8738697","Restaurants",
"Jimmys Broad Street Diner","122","122 Broad St","Weymouth","MA","(781) 337-6620","42.217001","-70.961385","Restaurants",
"Uncommon Grounds","575","575 Mount Auburn St","Watertown","MA","(617) 924-9625","42.370192","-71.159404","Restaurants",
"Ideal Sub Shop","522","522 Dudley St","Roxbury","MA","(617) 442-1560","42.32233","-71.072449","Restaurants",
"Marsh View Cafe","155","155 Bridge Rd","Salisbury","MA","(978) 465-1199","42.820019","-70.8668871","Restaurants",
"Busy Bee Restaurant","1046","1046 Beacon St","Brookline","MA","(617) 566-8733","42.345964","-71.1089329","Restaurants",
"Cafe Delite","82","82 Jefferson St","Winthrop","MA","(617) 539-1535","42.3747113153906","-70.9860651642567","Restaurants",
"Broken Yolk Restaurant","251","251 Broadway Ste 5","Malden","MA","(781) 397-0628","42.431848","-71.039299","Restaurants",
"Rang Indian Restaurant","5","5 Central Sq","Stoneham","MA","(781) 438-8200","42.4791258087326","-71.0997632305386","Restaurants",
"Bruegger's Bagels","496","496 Main St","Melrose","MA","(781) 665-1913","42.455249","-71.065485","Bagels Stores",
"Sophias Breakfast & Lunch","39","39 Market St","Ipswich","MA","(978) 356-4554","42.678943","-70.839698","Restaurants",
"Renaissance Cafe","45","45 Billings Rd","Quincy","MA","(617) 471-0004","42.2733904","-71.0250761","Restaurants",
"Aroma Cafe","607","607 Main St","Reading","MA","(781) 942-9601","42.5236735","-71.1026545","Restaurants",
"Windward Grille Restaurant","109","109 Eastern Ave","Essex","MA","(978) 768-0050","42.63076","-70.760224","Restaurants",
"Dream Diner","384","384 Middlesex Rd","Tyngsboro","MA","(978) 649-7097","42.691036","-71.433992","Restaurants",
"Emmas Breakfast","858","858 Washington St","Dedham","MA","(617) 328-3337","42.233731","-71.183122","Restaurants",
"Purple Rooster Cafe","105","105 South St Unit D","Plainville","MA","(508) 316-1550","42.0037421","-71.3351918","Restaurants",
"Fritz Lounge","26","26 Chandler St","Boston","MA","(617) 482-4428","42.346952","-71.070564","Restaurants",
"Amber Road Cafe","635","635 Washington St Ste 1","Canton","MA","(339) 237-3925","42.1540256","-71.1456904","Restaurants",
"Antoines Pastry Shop","317","317 Watertown St","Newton","MA","(617) 527-9193","42.361116","-71.199469","Restaurants",
"Murphs Place","58","58 Broadway","Norwood","MA","(781) 255-0993","42.191773","-71.198998","Restaurants",
"Dracut Family Diner","1734","1734 Lakeview Ave Ste 10","Dracut","MA","(978) 674-9970","42.678376","-71.342202","Restaurants",
"Maries Restaurant","85","85 Beach Rd","Salisbury","MA","(978) 462-0911","42.839466","-70.845381","Restaurants",
"Dempseys Muffins Bagels & Breakfast","64","64 Lambert St","Medford","MA","(781) 396-7723","42.423466","-71.091102","Restaurants",
"Fishermans Restaurant","870","870 East St","Dedham","MA","(781) 326-0412","42.232559","-71.159845","Restaurants",
"Nicks Deli","750","750 Washington Ave Ste 4","Revere","MA","(781) 284-8421","42.429675","-71.022947","Restaurants",
"Finagle-A-Bagel","77","77 Rowe St Ste 100","Auburndale","MA","(617) 726-1111","42.3476127534338","-71.241845912661","Restaurants",
"Java's","22","22 Main St","Natick","MA","(508) 650-0603","42.2850340191743","-71.3473896248033","Restaurants",
"KBS Bagels","72","72 Kings Hwy","Hampton","NH","(603) 926-1877","42.931225","-70.799121","Restaurants",
"Liberty Diner","1003","1003 Massachusetts Ave","Boston","MA","(617) 442-9262","42.328064","-71.068309","Restaurants",
"First Stop Coffee Shop","2084","2084 Ocean St","Marshfield","MA","(781) 834-3991","42.09288","-70.714028","Restaurants",
"Bangkok Cafe","10","10 Foxboro Blvd Ste 210","Foxboro","MA","(508) 543-8424","42.0368769673855","-71.234819441824","Restaurants",
"Grill & I","186","186 Washington St","Weymouth","MA","(781) 337-8678","42.216768","-70.963761","Restaurants",
"Wood Road Deli","66","66 Wood Rd","Braintree","MA","(781) 356-6325","42.2256","-71.034252","Restaurants",
"Sweet Touch Cafe","241","241 Cambridge St","Cambridge","MA","(617) 491-4119","42.371201","-71.0799701","Restaurants",
"Sandwich Exchange","16","16 Upton Dr Unit 7","Wilmington","MA","(978) 657-0457","42.592154","-71.150565","Restaurants",
"Talk of The Town Diner","11","11 N Beacon St","Watertown","MA","(617) 923-2369","42.364851","-71.183176","Restaurants",
"La Chilindrina LLC","10","10 Central Ave Ste A","Chelsea","MA","(617) 884-0808","42.390405","-71.034848","Restaurants",
"Common Cafe & Patisserie","637","637 Washington St","Norwood","MA","(781) 762-2811","42.1940116","-71.2011935","Restaurants",
"Bobolas Family Restaurant","1420","1420 Lakeview Ave","Dracut","MA","(978) 957-0065","42.672485","-71.33217","Restaurants",
"Bohemian Coffee House","132","132 W Emerson St","Melrose","MA","(781) 979-0005","42.4590032","-71.0690843","Restaurants",
"Looking Glass","56","56 South St","Wrentham","MA","(508) 384-2820","42.0661823","-71.3289699","Restaurants",
"Buttermilk Baking Co","9","9 Liberty St Unit 1","Newburyport","MA","(978) 499-8278","42.8112725","-70.8691871","Restaurants",
"Omelette Headquarters Inc","57","57 Water St","Wakefield","MA","(781) 224-3999","42.502377","-71.067757","Restaurants",
"Kugels Deli","855","855 Worcester Rd","Framingham","MA","(508) 620-1300","42.3004362","-71.4319207","Restaurants",
"Brookside Cafe","1260","1260 Washington St Ste 1","Norwood","MA","(781) 762-7399","42.1737905","-71.2078789","Restaurants",
"Supreme Coffee & Donuts","1284","1284 Main St","Brockton","MA","(508) 584-0010","42.0600140069691","-71.0140335588734","Restaurants",
"Daybreak Family Restaurant","337","337 W Center St","West Bridgewater","MA","(508) 583-5341","42.016824","-71.0280329","Restaurants",
"Johnny DS Breakfast Place","31","31 Central St","East Bridgewater","MA","(508) 378-4702","42.032246","-70.959081","Restaurants",
"Rhythm N Wraps","1096","1096 Commonwealth Ave","Boston","MA","(617) 566-4144","42.3517937","-71.1242616","Restaurants",
"Supreme Kitchen","233","233 Highland Ave","Somerville","MA","(617) 628-4440","42.390808","-71.108773","Restaurants",
"Andy's Diner","2030","2030 Massachusetts Ave","Cambridge","MA","(617) 497-1444","42.390593","-71.122092","Restaurants",
"Qing Dao Garden Restaurant","2382","2382 Massachusetts Ave","Cambridge","MA","(617) 492-7540","42.396814","-71.1298769","Restaurants",
"Twin Do-Nuts","501","501 Cambridge St","Allston","MA","(617) 254-9421","42.3535327","-71.138008","Restaurants",
"Jacks Subs & Takeout","100","100 Liberty St","Danvers","MA","(978) 774-6566","42.559388","-70.922275","Restaurants",
"Peddlers Daughter","45","45 Wingate St","Haverhill","MA","(978) 372-9555","42.773803","-71.084976","Restaurants",
"Marikas Breakfast & Lunch","199","199 Cabot St","Beverly","MA","(978) 927-1768","42.5480165","-70.8784826","Restaurants",
"Two Sisters Restaurant","27","27 Washington St","Gloucester","MA","(978) 281-3378","42.6123955","-70.6669531","Restaurants",
"Nick's Restaurant","1066","1066 Washington St","Norwood","MA","(781) 769-9449","42.1795963","-71.2049187","Restaurants",
"Super Buritto Mexican Grill","453","453 Ferry St","Everett","MA","(617) 387-0405","42.418245","-71.050671","Restaurants",
"Wilsons Diner Inc","507","507 Main St Ste 1","Waltham","MA","(781) 899-0760","42.377293","-71.231013","Restaurants",
"Cappas Track Side Kitchen","1","1 Grove St","Melrose","MA","(781) 662-7200","42.4527939263631","-71.0689869471028","Restaurants",
"Long Branch Restaurant","65","65 Main St","Raymond","NH","(603) 895-4272","43.036002","-71.182945","Restaurants",
"Weston Road Cafe","336","336 Weston Rd","Wellesley","MA","(781) 235-1116","42.3065451967667","-71.3141880643707","Restaurants",
"Stephys Kitchen","41","41 Beckford St","Beverly","MA","(978) 921-6393","42.558046","-70.881922","Restaurants",
"Charlies Roast Beef","152","152 S Main St","Middleton","MA","(978) 777-5993","42.584407","-71.0055493","Restaurants",
"Carmens Cafe Nicole","114","114 Water St","Plymouth","MA","(508) 747-4343","41.9601088","-70.6660466","Restaurants",
"New Yorker Diner","39","39 Mount Auburn St","Watertown","MA","(617) 924-9772","42.365922","-71.18256","Restaurants",
"Medway Restaurant","102","102 Main St","Medway","MA","(508) 533-7466","42.1513456","-71.4149677","Restaurants",
"Commons Eatery & Cafe","20","20 Central St","Foxboro","MA","(508) 543-4432","42.0639307","-71.2491524","Restaurants",
"Cafe Rustica","356","356 Beacon St","Somerville","MA","(617) 491-8300","42.3856646","-71.1157229","Restaurants",
"Last Corner Restaurant","49","49 High St","Reading","MA","(781) 944-0340","42.522323","-71.107666","Restaurants",
"Pawtucketville Diner","369","369 Mammoth Rd","Lowell","MA","(978) 452-1141","42.656914","-71.341109","Restaurants",
"Brounch","59","59 E Springfield St","Boston","MA","(617) 247-8100","42.3354687","-71.0746599","Restaurants",
"Westbury Restaurant","1836","1836 Centre St","West Roxbury","MA","(617) 469-8186","42.286412","-71.153942","Restaurants",
"Jimmys Family Restaurant","279","279 Cambridge St Ste 15","Burlington","MA","(781) 270-6803","42.515284","-71.206092","Restaurants",
"Blue Lobster Grill","15","15 Dock Sq","Rockport","MA","(978) 546-9990","42.6587856","-70.6166316","Restaurants",
"Diner In The Park","340","340 W Cummings Park","Woburn","MA","(781) 932-7400","42.498419","-71.126509","Restaurants",
"Brookline Lunch","9","9 Brookline St","Cambridge","MA","(617) 354-2983","42.3638771","-71.1017155","Restaurants",
"Leggos","120","120 N Franklin St Ste 1","Holbrook","MA","(781) 961-2475","42.1571196","-71.0084735","Restaurants",
"St Paul's Soup Kitchen","273","273 Summer St","Lowell","MA","(978) 758-9186","42.6388951","-71.3135587","Restaurants",
"Stone Church Music Club LLC","5","5 Granite St","Newmarket","NH","(603) 659-7700","43.078845","-70.938093","Restaurants",
