Business Name,Physical Address Number,Physical Address,Physical City,Physical State,Phone,Latitude,Longitude,Primary SIC Description,
"Posto","187","187 Elm St","Somerville","MA","(617) 625-0600","42.393266","-71.120361","Restaurants",
"Domino's","1260","1260 Boylston St Ste 2","Boston","MA","(617) 424-9000","42.344738","-71.09597","Pizza",
"Roggie's Pizzeria","356","356 Chestnut Hill Ave","Brighton","MA","(617) 713-0555","42.3369067","-71.1515058","Restaurants",
"Mission On The Bay","141","141 Humphrey St","Swampscott","MA","(781) 691-9277","42.4678285","-70.9171526","Restaurants",
"Papa Gino's","782","782 River St","Haverhill","MA","(978) 372-5468","42.769954","-71.113282","Pizza",
"Papa Gino's","81","81 Carver Rd","Plymouth","MA","(508) 747-5386","41.9448699","-70.7096925","Pizza",
"Papa Gino's","233","233 Broad St Ste 18","Bridgewater","MA","(508) 697-8137","41.994113","-70.972845","Pizza",
"Lisa's Family Pizzeria","903A","903a Main St","Woburn","MA","(781) 938-0123","42.5087846971023","-71.1605256342933","Restaurants",
"Faucis Pizza","4","4 Lynnfield St","Lynn","MA","(781) 595-1310","42.485242","-70.961182","Restaurants",
"Derry Restaurant","111","111 W Broadway","Derry","NH","(603) 432-2107","42.875123","-71.335487","Restaurants",
"Papa Gino's","10","10 N Meadows Rd","Medfield","MA","(508) 359-2040","42.186142","-71.310505","Pizza",
"Papa Gino's","179","179 Cambridge St","Burlington","MA","(781) 273-3020","42.5098123","-71.2000389","Pizza",
"Papa Gino's","9","9 Plaistow Rd","Plaistow","NH","(603) 382-3991","42.817652","-71.101272","Pizza",
"Papa Gino's","92","92 Cluff Crossing Rd Ste 5","Salem","NH","(603) 893-8476","42.766198","-71.221326","Pizza",
"Papa Gino's","142","142 Nahatan St","Norwood","MA","(781) 278-0717","42.191624","-71.196584","Pizza",
"Papa Gino's","29","29 Chelmsford St","Chelmsford","MA","(978) 256-6999","42.598086","-71.350024","Pizza",
"Papa Gino's","1018","1018 Lexington St","Waltham","MA","(781) 893-6440","42.410304","-71.234346","Pizza",
"Boston Market","616","616 Fellsway Ste 1","Medford","MA","(781) 393-0413","42.406119","-71.08301","Restaurants",
"Papa Gino's","211","211 North St Ste 1","Foxboro","MA","(508) 543-1516","42.1027045","-71.2586316","Pizza",
"Papa Gino's","8","8 Commercial St","Foxboro","MA","(508) 543-6100","42.054305","-71.241148","Pizza",
"Mandee's Pizza","408","408 Essex St","Salem","MA","(978) 745-6400","42.517996","-70.905407","Restaurants",
"Boston Market","341","341 Cochituate Rd Ste 4","Framingham","MA","(508) 879-5585","42.301991","-71.40159","Restaurants",
"Papa Gino's","190","190 Main St","Stoneham","MA","(781) 438-8422","42.489562","-71.09964","Pizza",
"Domino's","53","53 Winn St","Burlington","MA","(781) 229-1330","42.492496","-71.1759","Pizza",
"Domino's","100","100 Market St Ste 1","Rockland","MA","(781) 871-3030","42.1217485","-70.9163144","Pizza",
"Banyan Bar & Refuge","553","553 Tremont St","Boston","MA","(617) 556-4211","42.3443163","-71.0719158","Restaurants",
"Rocco's Cucina & Bar","450","450 Commercial St","Boston","MA","(617) 523-4055","42.367317","-71.053405","Restaurants",
"Taquera Jalisco","291","291 Bennington St","East Boston","MA","(617) 567-6367","42.3787","-71.028195","Restaurants",
"Tony C's Sports Bar & Grill","17","17 3rd Ave","Burlington","MA","(781) 238-8282","42.487432","-71.223396","Restaurants",
"Papa Gino's","770","770 Washington St","Weymouth","MA","(781) 331-2660","42.201817","-70.945763","Pizza",
"Papa Gino's","15","15 Taunton St","Plainville","MA","(508) 695-0214","42.012695","-71.305634","Pizza",
"Papa Gino's","44","44 Nashua Rd Unit 1","Londonderry","NH","(603) 434-8555","42.8664969","-71.3492829","Pizza",
"Papa Gino's","438","438 W Grove St Ste C","Middleboro","MA","(508) 946-1066","41.8960588","-70.9511285","Pizza",
"Papa Gino's","319","319 Washington St","Stoughton","MA","(781) 344-1764","42.137212","-71.10252","Pizza",
"Domino's","57","57 Dudley St","Haverhill","MA","(978) 372-5660","42.784351","-71.078054","Pizza",
"Papa John's Pizza","856","856 Washington St","Braintree","MA","(781) 812-0726","42.203804","-71.004669","Pizza",
"Venus Pizza","1293","1293 Broadway","Somerville","MA","(617) 718-9900","42.405719","-71.130802","Restaurants",
"Domino's","570","570 Broadway","Revere","MA","(781) 289-1020","42.413416","-71.01044","Pizza",
"Domino's","450","450 Cambridge St Ste 3","Allston","MA","(617) 254-4800","42.354062","-71.135674","Pizza",
"Papa Gino's","104","104 Boston Post Rd","Sudbury","MA","(978) 443-7136","42.363534","-71.393314","Pizza",
"Kendall Pond Pizza Restaurant","7","7 Mammoth Rd","Windham","NH","(603) 595-5990","42.8043","-71.351758","Restaurants",
"Nicks Pizza House","179","179 W Central St Ste 6","Natick","MA","(508) 655-6098","42.282948","-71.380132","Restaurants",
"Master Wok","650","650 Atlantic Ave","Boston","MA","(617) 737-2044","42.3505062428841","-71.0563267058967","Restaurants",
"Master Wok","1245","1245 Worcester St","Natick","MA","(508) 655-0615","42.3004711","-71.3857931","Restaurants",
"Magic Wok","1512","1512 Dorchester Ave","Dorchester","MA","(617) 288-6388","42.29911","-71.060343","Restaurants",
"Great Wok Restaurants","1284","1284 Massachusetts Ave","Dorchester","MA","(617) 288-1078","42.321027","-71.06171","Restaurants",
"Rizzos Roast Beef & Pizza","178","178 Lynn St","Peabody","MA","(978) 531-2788","42.5055758","-70.951712","Restaurants",
"Joes Famous Steak Subs & Pizza","140","140 Dudley St","Roxbury","MA","(617) 442-8824","42.3290523","-71.0837211","Restaurants",
"Suppas Pizza","94","94 University Ave","Lowell","MA","(978) 970-3961","42.653841","-71.327339","Restaurants",
"West End Pizza","252","252 Friend St","Boston","MA","(857) 277-0807","42.364477","-71.061178","Restaurants",
"Wok & Talk","23","23 S Huntington Ave","Jamaica Plain","MA","(617) 487-8262","42.331341","-71.112063","Restaurants",
"Bada Bing Pizza & Wings","32","32 Hampshire St","Methuen","MA","(978) 683-0009","42.727724","-71.188895","Restaurants",
"Piezanos Pizza","2290","2290 Main St","Tewksbury","MA","(978) 851-0733","42.580863","-71.19413","Restaurants",
"Puritan Pizza & Restaurant","735","735 William T Morrissey Blvd Ste 1","Dorchester","MA","(617) 825-6676","42.295424","-71.048886","Restaurants",
"Balduccis Wood Fired Pizza","419","419 S Broadway Unit 2","Salem","NH","(603) 890-3344","42.748643","-71.202968","Restaurants",
"Rizzos Roast Beef & Pizza-Salem","7","7 Paradise Rd","Salem","MA","(978) 745-2524","42.485982","-70.899799","Restaurants",
"Old School Italian Pizzaria","552","552 Washington St","Wellesley","MA","(781) 235-8300","42.296556","-71.2922789","Restaurants",
"Isabellas","288","288 N Broadway Ste D","Salem","NH","(603) 890-2345","42.798414","-71.237306","Restaurants",
"Liberty Bell Roast Beef Seafood & Pizza","420","420 Boston Rd","Billerica","MA","(978) 667-2355","42.559468","-71.268383","Restaurants",
"Slice Pizza & More","319","319 Salem St","Wakefield","MA","(781) 213-9998","42.514606","-71.050187","Restaurants",
"Walnut Place Roast Beef & Pizza","80 1/2","80 1/2 Walnut St","Peabody","MA","(978) 531-1821","42.525966294626","-70.9201074973702","Restaurants",
"Panda Wok of Townsend","18","18 Main St Ste R7","Townsend","MA","(978) 597-1388","42.6487634","-71.6609355","Restaurants",
"Londis Famous Roast Beef & Pizza","116","116 Water St","Danvers","MA","(978) 777-0090","42.547787","-70.920224","Restaurants",
"Capers Pizza","125","125 Stark Ave","Dover","NH","(603) 749-7070","43.177308099908","-70.8683120652951","Restaurants",
"Jake DS Roast Beef & Pizza","14","14 W Broadway","Derry","NH","(603) 432-1811","42.879909","-71.327374","Restaurants",
"Napoli Pizza","643","643 Washington St","Whitman","MA","(781) 332-3663","42.0825096","-70.937545","Restaurants",
"House of Pizza","7","7 Atlantic Ave","Marblehead","MA","(781) 631-4898","42.500945","-70.855652","Restaurants",
"Ilmondo Pizza","182","182 Maschsts Ave","Boston","MA","(617) 262-1700","42.35662","-71.06212","Restaurants",
"Pomodori Roast Beef & Pizzeria","146","146 High St Ste A","Ipswich","MA","(978) 356-8800","42.689745","-70.85364","Restaurants",
"Steves Roast Beef Pizza Subs & Seafood","12","12 Lebanon St","Malden","MA","(781) 397-8801","42.433991","-71.046385","Restaurants",
"Mozzerella Pizza","337","337 W Grove St","Middleboro","MA","(774) 213-9083","41.894577","-70.942935","Restaurants",
"CPs Wood Fired Pizza","17","17 New Driftway","Scituate","MA","(781) 378-2743","42.1776782","-70.7487844","Restaurants",
"Mike's Pizzeria Subs and Salads","377","377 Cabot St","Beverly","MA","(978) 921-2022","42.5578569","-70.8789691","Restaurants",
"Nick Pizza Roast Beaf & Subs","50","50 Western Ave","Lynn","MA","(339) 440-5696","42.485059","-70.940561","Restaurants",
"Lucky's Roast Beef and Pizza","251","251 Primrose St","Haverhill","MA","(978) 914-7777","42.783332","-71.086116","Restaurants",
"Rizzo's Roast Beef and Pizza","3","3 Church St","Wilmington","MA","(978) 447-1316","42.5467235","-71.1731166","Restaurants",
"Priel's Restaurant Pizza & More Inc","11","11 Blue Hill Ave","Roxbury","MA","(617) 442-2003","42.324871","-71.075508","Restaurants",
"Wellington's Pizzeria","22","22 Riverside Ave","Medford","MA","(781) 391-0099","42.41806","-71.108559","Restaurants",
"Fabiamo Pizzaria & Grill","127","127 Merrimack St","Lowell","MA","(978) 458-8900","42.645848","-71.309952","Restaurants",
"La Befana Pizzeria","15","15 N Beacon St Ste Nr3e","Allston","MA","(617) 987-0086","42.354139","-71.137764","Restaurants",
"Jim's Salsa Pizza","499","499 Washington St","Somerville","MA","(617) 984-0334","42.3782238670615","-71.1073102704347","Restaurants",
"Espresso Pizza","45","45 Norris Rd","Tyngsboro","MA","(978) 649-9333","42.695766","-71.407484","Restaurants",
"Zesto Pizza","21","21 High St","Hampton","NH","(603) 929-7200","42.941415","-70.837233","Restaurants",
"Patriot Pizza & Subs","17","17 Jersey St","Pepperell","MA","(978) 597-5500","42.66335","-71.55747","Restaurants",
"Boston Market","756","756 Belmont St","Brockton","MA","(508) 580-8551","42.068553","-71.048246","Restaurants",
"Pizza & Sub Stop","5","5 Merrimack St","Lowell","MA","(978) 656-0009","42.6457173","-71.3076035","Restaurants",
"Pizza Lovers Inc","61","61 Essex St Ste A","Lynn","MA","(781) 581-9914","42.47452","-70.928973","Restaurants",
"Romano's Pizzeria","311","311 Merrimack St","Lawrence","MA","(978) 685-7755","42.702726","-71.148085","Restaurants",
"Red Line Pizza & Grill","580","580 Dorchester Ave","South Boston","MA","(617) 464-3003","42.3299573","-71.0567812","Restaurants",
"Dwr Pizza Inc","363","363 Middlesex Ave","Wilmington","MA","(978) 658-0760","42.56881","-71.159395","Restaurants",
"Longpond Pizza Factory","25","25 Home Depot Dr","Plymouth","MA","(508) 747-7227","41.934052","-70.659982","Restaurants",
"Woody's Pizza","9","9 Barnes Ave","East Boston","MA","(617) 874-8649","42.38605899917","-71.0051351031524","Restaurants",
"Villa Roma Pizza","1555","1555 Main St Unit 100","Tewksbury","MA","(978) 640-6200","42.597992","-71.218277","Restaurants",
"Bill's Pizzeria","58","58 E Central St","Natick","MA","(508) 653-3240","42.285157","-71.341851","Restaurants",
"Anthony's Coal Fired Pizza","119","119 University Ave","Westwood","MA","(781) 329-3339","42.2080978","-71.1517585","Restaurants",
"Anthony's Coal Fired Pizza","48","48 Walkers Brook Dr","Reading","MA","(781) 944-8454","42.519576","-71.092252","Restaurants",
"La Esquina Del Sabor","1","1 Unity Ave","Revere","MA","(781) 286-0033","42.3975055304306","-70.9920164176996","Restaurants",
"Dinnerful","434","434 Union St","Rockland","MA","N/A","42.1341449","-70.917141","Restaurants",
"Wilder Cuisine","275","275 Forest Ridge Rd","Concord","MA","(508) 733-5366","42.437551","-71.422905","Restaurants",
"Iq Kitchen","1158","1158 Beacon St","Newton Highlands","MA","(617) 243-9051","42.330753","-71.210314","Restaurants",
"El Salvadoreno Restaurant","120","120 Broad St","Lynn","MA","(781) 596-0228","42.4631241","-70.9397953","Restaurants",
"LaRosa's","211","211 Main St","Wilmington","MA","(978) 737-3273","42.5557736","-71.1823557","Restaurants",
"Los Tremendos Restaurant","64","64 Common St","Lawrence","MA","(978) 984-5449","42.708348","-71.155408","Restaurants",
"Papa Gino's","100","100 Granite St Ste 1","Quincy","MA","(617) 786-9088","42.246248","-71.004882","Pizza",
"Papa Gino's","197","197 Boston Post Rd W Ste G1","Marlborough","MA","(508) 480-8477","42.3391594","-71.5905116","Pizza",
"Papa John's Pizza","637","637 Southern Artery","Quincy","MA","(617) 481-2284","42.252033","-70.987621","Pizza",
"Domino's","2","2 Norfolk Rd","Holbrook","MA","(781) 805-8100","42.1538153","-71.0079638","Pizza",
"Domino's","100","100 Washington St","Canton","MA","(781) 562-0655","42.1405896","-71.1506705","Pizza",
"Domino's","369","369 Central St","Foxboro","MA","(508) 543-4133","42.0376997","-71.2332431","Pizza",
"Hearth Pizzaria","974","974 Great Plain Ave","Needham","MA","(781) 433-0600","42.280052","-71.23613","Restaurants",
"Mama Lena's Pizzeria","28","28 Portsmouth Ave Ste 9","Stratham","NH","(603) 778-6800","42.9981177","-70.9210295","Restaurants",
"Boston Market","245","245 Massachusetts Ave","Boston","MA","(617) 236-4447","42.344004","-71.086366","Restaurants",
"Salem Kabob & Pizzeria","401","401 Main St Ste 108","Salem","NH","(603) 870-0018","42.793513","-71.18451","Restaurants",
"Leo's House of Pizza","192","192 Route 1","Newburyport","MA","(978) 462-1221","42.8005377774634","-70.8785480749988","Restaurants",
"Domino's","76","76 Portsmouth Ave","Stratham","NH","(603) 778-7800","43.0111143","-70.9171147","Pizza",
"Domino's","199","199 Mystic Ave Ste 4","Medford","MA","(781) 395-0080","42.4080273","-71.1042682","Pizza",
"Papa Gino's","182","182 Summer St Ste 8","Kingston","MA","(781) 585-6568","42.0113066","-70.7354374","Pizza",
"Domino's","173","173 State St","Newburyport","MA","(978) 465-0360","42.7982633","-70.8749088","Pizza",
"Papa Gino's","748","748 Gallivan Blvd","Dorchester","MA","(617) 282-2404","42.284701","-71.04532","Pizza",
"Domino's","80","80 Mammoth Rd","Lowell","MA","(978) 454-7474","42.651191","-71.333725","Pizza",
"Domino's","1023","1023 Washington St Unit 5","Norwood","MA","(781) 769-7800","42.180677","-71.20456","Pizza",
"Domino's","163","163 Old Colony Ave Ste B","South Boston","MA","(617) 268-2900","42.334035","-71.055035","Pizza",
"Papa Gino's","532","532 Pond St","South Weymouth","MA","(781) 331-2266","42.152202","-70.953899","Pizza",
"Domino's","137","137 Massachusetts Ave","Lexington","MA","(781) 676-7900","42.426092","-71.195263","Pizza",
"Papa Gino's","600","600 Providence Hwy","Dedham","MA","(781) 329-1946","42.243171","-71.173053","Pizza",
"Domino's","61","61 Crystal Ave Unit 2","Derry","NH","(603) 432-6605","42.893391","-71.325978","Pizza",
"Domino's","225","225 Bedford St Ste 1","East Bridgewater","MA","(508) 350-9775","42.0266897","-70.9597823","Pizza",
"Domino's","118","118 Chelmsford St","Chelmsford","MA","(978) 250-1555","42.603398","-71.346242","Pizza",
"Louies Pizza Restaurant","118","118 Main St","Woburn","MA","(781) 933-2696","42.470899","-71.150245","Restaurants",
"Mamma Mia's Pizza","93","93 Careswell St","Marshfield","MA","(781) 834-3050","42.081943","-70.6525221","Restaurants",
"Marinho's Pizzeria","984","984 Main St","Millis","MA","(508) 376-1911","42.165186","-71.362571","Restaurants",
"Boston Market","111","111 Lenox St Ste 111","Norwood","MA","(781) 255-0480","42.1922856","-71.1978672","Restaurants",
"Boston Market","100","100 Granite St","Quincy","MA","(617) 774-1155","42.246248","-71.004882","Restaurants",
"Boston Market","40","40 Drum Hill Rd","Chelmsford","MA","(978) 937-7979","42.625044","-71.360648","Restaurants",
"Boston Market","313","313 Boston Post Rd W","Marlborough","MA","(508) 229-2525","42.337082","-71.5954","Restaurants",
"Papa Gino's","1270","1270 River St","Hyde Park","MA","(617) 364-4300","42.255708","-71.12392","Pizza",
"Papa Gino's","10","10 Lilac Mall","Rochester","NH","(603) 332-9843","43.319023","-70.972921","Pizza",
"Papa Gino's","74","74 Main St Ste 19","Medway","MA","(508) 533-4301","42.1515252","-71.412044","Pizza",
"Domino's","126","126 Main St","Medway","MA","(508) 533-5900","42.1499026","-71.4190374","Pizza",
"Papa Gino's","265","265 E Central St","Franklin","MA","(508) 541-3149","42.0817044","-71.3851091","Pizza",
"Domino's","628","628 Washington St","Dedham","MA","(781) 329-7999","42.2406870543817","-71.1791808083943","Pizza",
"Papa Gino's","885","885 Belmont St","Brockton","MA","(508) 588-1911","42.066388","-71.053292","Pizza",
"Papa Gino's","245","245 Franklin Village Dr","Franklin","MA","(508) 520-3533","42.0880618","-71.422676","Pizza",
"Papa Gino's","674","674 Bedford St","Whitman","MA","(781) 447-0052","42.079033","-70.947644","Pizza",
"Domino's","775","775 Eastern Ave","Malden","MA","(781) 322-0030","42.429341","-71.047547","Pizza",
"Domino's","868","868 Worcester St Ste 1","Wellesley","MA","(781) 235-6800","42.304828","-71.31384","Pizza",
"Domino's","25","25 Main St Ste 4","Wayland","MA","(508) 651-8210","42.31696","-71.36256","Pizza",
"Jimmys Restaurant & House of Pizza","282","282 Pleasant St","Dracut","MA","(978) 452-1350","42.6651529","-71.314643","Restaurants",
"Boston Market","7","7 Moulton Park Rd","Framingham","MA","(508) 877-0700","42.297362494927","-71.4331341415929","Restaurants",
"Louis Pizza","134","134 Newton Rd Unit 4","Plaistow","NH","(603) 382-1040","42.833273","-71.05718","Restaurants",
"Domino's","464","464 Washington St","Brighton","MA","(617) 782-5655","42.348776","-71.159017","Pizza",
"Santarpios Pizza","71","71 Newbury St","Peabody","MA","(978) 535-1811","42.5284234025262","-70.99326733396","Restaurants",
"Renzo Pizzaria","381","381 Revere Beach Blvd","Revere","MA","(781) 284-5600","42.4225001","-70.9847602","Restaurants",
"Ball Square Cafe","708","708 Broadway","Somerville","MA","(617) 623-2233","42.3998335","-71.112567","Restaurants",
"Anthony's Coal Fired Pizza","201","201 Constitution Ave","Littleton","MA","(978) 486-4124","42.5516945647339","-71.4799413094954","Restaurants",
"Anthony's Coal Fired Pizza","219","219 N Main St Ste A-104","Natick","MA","(774) 290-5106","42.3019680368184","-71.3608290168361","Restaurants",
"Falafellas","1217","1217 Commonwealth Ave","Allston","MA","(617) 779-7949","42.3508207282603","-71.130609186676","Restaurants",
"Baha Mexican Restaurant","2","2 Mill St","Natick","MA","(508) 655-2242","42.277873","-71.376938","Restaurants",
"Domino's","1899","1899 Main St Ste 1","Tewksbury","MA","(978) 858-0777","42.590703","-71.20533","Pizza",
"Domino's","1","1 Andover","Lynnfield","MA","(781) 334-3280","42.52567","-71.02692","Pizza",
"Domino's","4000","4000 Washington St","Roslindale","MA","(617) 318-6100","42.292323","-71.121545","Pizza",
"Domino's","341","341 Union St","Lynn","MA","(781) 581-8085","42.4641356404853","-70.9438352944212","Pizza",
"Domino's","277","277 Main St","Charlestown","MA","(617) 419-4400","42.377513","-71.066652","Pizza",
"Domino's","988","988 Bedford St","Abington","MA","(617) 282-8228","42.131405","-70.950513","Pizza",
"Domino's","54","54 Main St","Marlborough","MA","(508) 481-5335","42.347038","-71.545105","Pizza",
"Domino's","583","583 North St","East Weymouth","MA","(781) 740-4131","42.229218","-70.943985","Pizza",
"Papa John's Pizza","528","528 River St","Mattapan","MA","(617) 322-9698","42.2669773","-71.0948111","Pizza",
"Papa Gino's","235","235 Franklin Village Dr","Franklin","MA","(508) 520-3534","42.0901328674084","-71.4225412157652","Pizza",
"Papa Gino's","2889","2889 Cranberry Hwy","Wareham","MA","(508) 829-8137","41.75329","-70.71419","Pizza",
"Papa Gino's","665","665 Cochituate Rd","Framingham","MA","(508) 620-5436","42.307561","-71.385052","Pizza",
"Domino's","103","103 Nashua Rd Unit B","Londonderry","NH","(603) 434-3600","42.850728","-71.357276","Pizza",
"Post Road Pizza","554","554 Boston Post Rd E","Marlborough","MA","(508) 481-5550","42.348252","-71.507928","Restaurants",
"Liberty Pizza of Wayland & Cochituate","116","116 Main St","Wayland","MA","(508) 655-3417","42.320721","-71.364882","Restaurants",
"Irish Restraunt","432","432 Salem St","Medford","MA","(781) 350-4370","42.422797","-71.092","Restaurants",
"Boston Market","1099","1099 Lexington St","Waltham","MA","(781) 647-3600","42.412521","-71.232764","Restaurants",
"Tanner City Pizza","44","44 Margin St","Peabody","MA","(978) 531-9942","42.535565","-70.9171536","Restaurants",
"Pizza Bella Two","8","8 Andrews Pkwy","Devens","MA","(978) 772-0004","42.5401634","-71.6143644","Restaurants",
"Papa Gino's","3","3 Ferry St Ste 1","Haverhill","MA","(978) 372-5400","42.770598","-71.075071","Pizza",
"Domino's","43","43 Beckford St","Beverly","MA","(978) 927-2999","42.558286","-70.8816688","Pizza",
"Domino's","1400","1400 Tremont St","Roxbury Crossing","MA","(617) 541-3525","42.331296","-71.095604","Pizza",
"Domino's","250","250 Central Ave","Dover","NH","(603) 742-8411","43.1926245","-70.8735018","Pizza",
"Domino's","599","599 Lafayette Rd Ste 14","Portsmouth","NH","(603) 431-7881","43.055101","-70.769166","Pizza",
"Domino's","382","382 Main St","Gloucester","MA","(978) 281-5480","42.6175207","-70.6519881","Pizza",
"Domino's","4640","4640 Washington St Ste 1","Roslindale","MA","(617) 323-0525","42.2748688","-71.1399463","Pizza",
"Domino's","1033","1033 Massachusetts Ave Ste 3","Cambridge","MA","(617) 441-2101","42.3699398","-71.1120094","Pizza",
"Domino's","435","435 Boston Post Rd Ste 3","Sudbury","MA","(978) 443-0007","42.360257","-71.421478","Pizza",
"Domino's","270","270 Main St Unit 3","Hanson","MA","(781) 293-4500","42.0433042","-70.8519179","Pizza",
"Domino's","254","254 N Broadway","Salem","NH","(603) 893-7100","42.793713","-71.235392","Pizza",
"Domino's","240","240 Chestnut St","Needham","MA","(781) 449-5599","42.276141","-71.237335","Pizza",
"Domino's","729","729 Boston Rd Ste 2","Billerica","MA","(978) 663-3000","42.534736","-71.236909","Pizza",
"Domino's","374","374 Chelmsford St","Lowell","MA","(978) 441-1000","42.629628","-71.321162","Pizza",
"Domino's","527","527 Groton Rd Ste 2","Westford","MA","(978) 589-9988","42.626056","-71.415454","Pizza",
"Domino's","274","274 Main St Ste 1","Reading","MA","(781) 944-9144","42.515078","-71.104106","Pizza",
"Domino's","385","385 Franklin St","Melrose","MA","(781) 665-0049","42.468615","-71.067042","Pizza",
"Domino's","4","4 Canal St","Salem","MA","(978) 744-4040","42.51773","-70.895569","Pizza",
"Domino's","14","14 Jackson St","Methuen","MA","(978) 685-2525","42.722776","-71.159536","Pizza",
"Domino's","1085","1085 N Montello St","Brockton","MA","(508) 587-1299","42.113599","-71.027726","Pizza",
"Domino's","58","58 S Broadway","Lawrence","MA","(978) 685-1001","42.698199","-71.163698","Pizza",
"Domino's","1268","1268 Broadway","Saugus","MA","(781) 231-3031","42.455061","-71.023344","Pizza",
"Johnnys Famous Roast Beef & Pizza","125","125 Main St Ste 1","Stoneham","MA","(781) 438-8899","42.493436","-71.101114","Restaurants",
"Hunan Wok","2290","2290 Main St","Tewksbury","MA","(978) 658-3500","42.580863","-71.19413","Restaurants",
"Wok","180","180 Worcester St","Wellesley Hills","MA","(781) 235-0238","42.31535","-71.244762","Restaurants",
"Papa Gino's","300","300 Mishawum Rd Ste 9","Woburn","MA","(781) 938-8899","42.505525","-71.13321","Pizza",
"Domino's","205","205 Lexington St","Waltham","MA","(781) 894-4848","42.383264","-71.236759","Pizza",
"Domino's","75","75 Great Rd Ste 1","Acton","MA","(978) 264-4141","42.477196","-71.411234","Pizza",
"Domino's","880","880 Walnut St","Newton Center","MA","(617) 332-7222","42.331546","-71.206923","Pizza",
"Domino's","725","725 Lafayette Rd Ste 8","Hampton","NH","(603) 929-0030","42.9479","-70.832121","Pizza",
"Domino's","300","300 N Main St Unit 3","Rochester","NH","(603) 335-5663","43.3127489","-70.99462","Pizza",
"Domino's","681","681 Bridge St","Lowell","MA","(978) 452-3030","42.653883","-71.301979","Pizza",
"Jimmy's Pizza","2","2 Alpine Ln","Chelmsford","MA","(978) 250-8100","42.602452","-71.347231","Restaurants",
"Prides Pizza","644","644 Hale St","Beverly","MA","(978) 921-1109","42.5607736","-70.8219218","Restaurants",
"Andalus Pizza & Cafe","153","153 Sutherland Rd","Brighton","MA","(617) 277-5400","42.3410538","-71.1468997","Restaurants",
"Tradeport Pizza","14","14 Manchester Sq Ste 115","Portsmouth","NH","(603) 373-6021","43.0856983","-70.809787","Restaurants",
"Norfolk Town Pizza","158","158 Main St Ste 2","Norfolk","MA","(508) 528-5355","42.1195379","-71.3272499","Restaurants",
"Mythos Pizza","205","205 Bowdoin St","Dorchester","MA","(617) 282-9911","42.3051873","-71.0681112","Restaurants",
"Deliworks & Pizzeria","62","62 Montvale Ave Ste F","Stoneham","MA","(781) 438-7955","42.4807353","-71.1078307","Restaurants",
"Stella Pizza","197","197 Crescent St","Brockton","MA","(508) 584-2464","42.0804588","-71.0139609","Restaurants",
"Nicks Pizza Roast Beef & Subs","602","602 Main St","Wakefield","MA","(781) 245-8748","42.497873","-71.068864","Restaurants",
"Newburyport Famous Pizza","2","2 Storey Ave","Newburyport","MA","(978) 462-9644","42.823296","-70.900354","Restaurants",
"Acton New London Style Pizza","555","555 Massachusetts Ave","Acton","MA","(978) 263-3033","42.476383","-71.473102","Restaurants",
"G & P Pizzaria","692","692 Raymond Rd","Chester","NH","(603) 887-7123","42.982604","-71.208845","Restaurants",
"College Pizza","750","750 Bedford St","Bridgewater","MA","(508) 697-6917","41.96803","-70.973021","Restaurants",
"Blooms Pizza","499","499 W Center St","West Bridgewater","MA","(508) 580-6688","42.015396","-71.039988","Restaurants",
"Highlands Pizza & Seafood Restaurant","1290","1290 Westford St","Lowell","MA","(978) 453-5100","42.626029","-71.358973","Restaurants",
"Petes Pizza & Seafood","267","267 Bowdoin St","Dorchester","MA","(617) 825-7116","42.306539","-71.0664819","Restaurants",
"Pizzatalia","618","618 Shawmut Ave","Boston","MA","(617) 541-4040","42.335365","-71.080587","Restaurants",
"Josephs Pizzeria","1200","1200 Blue Hill Ave","Mattapan","MA","(617) 298-0065","42.283645","-71.091332","Restaurants",
"Pinis Pizza","85","85 River St Ste 1","Waltham","MA","(781) 891-6231","42.369352","-71.218828","Restaurants",
"Giovannis Roast Beef & Pizza","207","207 Rockingham Rd","Londonderry","NH","(603) 434-9021","42.914676","-71.387074","Restaurants",
"Nonnis Pizza","750","750 Washington Ave Ste 8","Revere","MA","(781) 286-5300","42.429675","-71.022947","Restaurants",
"Giovannis Roast Beef & Pizza","179","179 Main St","Woburn","MA","(781) 932-1331","42.472762","-71.149693","Restaurants",
"Stellas Pizza","605","605 Mount Auburn St","Watertown","MA","(617) 924-5692","42.37065","-71.158498","Restaurants",
"Greenwood House of Pizza","979","979 Main St Ste 9","Wakefield","MA","(781) 245-9464","42.48139","-71.065992","Restaurants",
"Devens Pizza & Deli","210","210 W Main St Ste 7","Ayer","MA","(978) 772-2997","42.554414","-71.605324","Restaurants",
"Little Steves Back Bay Pizza","1114","1114 Boylston St","Boston","MA","(617) 266-5566","42.346769","-71.088727","Restaurants",
"Newton Corner House of Pizza","127","127 Galen St","Watertown","MA","(617) 527-4220","42.3605851","-71.185717","Restaurants",
"Family Style Pizza","41","41 Waverley St","Framingham","MA","(508) 370-7275","42.280446","-71.401048","Restaurants",
"Pizza Pizzazz","75","75 Main St","Pepperell","MA","(978) 433-9535","42.6652138","-71.5840404","Restaurants",
"C & S Pizza of Pepperell","55","55 Main St","Pepperell","MA","(978) 433-2034","42.6659189263631","-71.5867831317716","Restaurants",
"L St Diner & Pizzeria","108","108 L St","South Boston","MA","(617) 268-1155","42.334047","-71.035114","Restaurants",
"Stalex Restaurant & Pizza","140","140 Norfolk St","Dorchester Center","MA","(617) 288-7688","42.287789","-71.077814","Restaurants",
"Duxbury Pizza","7","7 Standish","Duxbury","MA","(781) 934-6568","42.0080238553646","-70.6741521132152","Restaurants",
"Town Pizza","15","15 Mechanic St","Bellingham","MA","(508) 966-2222","42.086627","-71.474902","Restaurants",
"Pizzatella","100","100 Square One Mall","Saugus","MA","(781) 231-9700","42.4602257562924","-71.0287694458311","Restaurants",
"Sal's & Mal's Pizzaria","8","8 Wall St Ste 1","Foxboro","MA","(508) 543-0336","42.0634439","-71.248378","Restaurants",
"Goodfellas Pizzeria","66","66 Washington St","Rochester","NH","(603) 332-9842","43.301399","-70.9878826","Restaurants",
"County Pizza","161","161 Lincoln Rd","Lincoln","MA","(781) 259-4480","42.41394","-71.326959","Restaurants",
"Hudson House of Pizza","121","121 Main St","Hudson","MA","(978) 562-9595","42.3908667","-71.5666632","Restaurants",
"Harbor House","94","94 Front St","Scituate","MA","(781) 545-5407","42.1945434","-70.7248605","Restaurants",
"Georgio's House of Pizza","105","105 Main St","Carver","MA","(508) 866-3919","41.8891651","-70.7700233","Restaurants",
"Northwood House of Pizza","258","258 1st Nh Tpke","Northwood","NH","(603) 942-5068","43.1984921","-71.1571412","Restaurants",
"Baldies Pizza","60","60 Franklin St","East Bridgewater","MA","(508) 690-2500","42.0547989","-70.9078267","Restaurants",
"Antonio's Pizzeria","1508","1508 Dorchester Ave","Dorchester","MA","(617) 265-0489","42.299292","-71.060248","Restaurants",
"Papa Gino's","55","55 Crystal Ave Unit 14","Derry","NH","(603) 432-4223","42.892457","-71.323592","Pizza",
"Domino's","202","202 Route 108","Somersworth","NH","(603) 749-7799","43.2434054","-70.8990025","Pizza",
"Domino's","85","85 Maple St","Danvers","MA","(978) 777-8776","42.567739","-70.937325","Pizza",
"Domino's","1419","1419 Washington St","Walpole","MA","(508) 668-5238","42.122588","-71.248415","Pizza",
"Domino's","1940","1940 Main St","Brockton","MA","(508) 588-3412","42.0467328","-71.0100152","Pizza",
"Domino's","201","201 Elm St","Somerville","MA","(617) 629-2929","42.393745","-71.120504","Pizza",
"Domino's","230","230 Main St","Somerville","MA","(617) 629-0444","42.39885","-71.12029","Pizza",
"Domino's","64","64 Staniford St","Boston","MA","(617) 248-0100","42.362883","-71.064089","Pizza",
"Papa Gino's","341","341 Cochituate Rd","Ashland","MA","(508) 283-3796","42.25913","-71.46364","Pizza",
"Domino's","428","428 Salem St","Medford","MA","(781) 395-7555","42.4227427","-71.0921911","Pizza",
"Papa Gino's","553","553 Main St Ste 3","Tewksbury","MA","(978) 851-6221","42.6185391","-71.2547825","Pizza",
"Papa Gino's","10","10 Washington St Ste 3","Norwell","MA","(781) 878-8417","42.173865","-70.88281","Pizza",
"Papa Gino's","5","5 Milton Rd","Rochester","NH","(603) 332-2639","43.3192","-70.97277","Pizza",
"Domino's","707","707 W Center Ave","Saugus","MA","(781) 231-3030","42.46326","-71.01048","Pizza",
"Domino's","5","5 Main Street Ext Ste 109","Plymouth","MA","(508) 747-7500","41.955651","-70.664061","Pizza",
"Papa Gino's","829","829 Central Ave","Dover","NH","(603) 742-4242","43.216278","-70.879731","Pizza",
"Domino's","207","207 Adams St","Dorchester","MA","(617) 282-2424","42.3017463768724","-71.0601064248663","Pizza",
"Papa John's Pizza","622","622 Somerville Ave Ste 4","Somerville","MA","(617) 627-9100","42.383676","-71.110175","Pizza",
"Domino's","61","61 Hancock St","Quincy","MA","(617) 472-9191","42.2817","-71.036507","Pizza",
"Papa Gino's","765","765 Bridge St Ste 4","North Weymouth","MA","(781) 340-3385","42.2458596","-70.9343891","Pizza",
"Papa Gino's","385","385 Broadway","Saugus","MA","(781) 233-4419","42.486934","-71.018657","Pizza",
"Papa John's Pizza","533","533 Washington St","Brighton","MA","(617) 254-0111","42.349203","-71.162891","Pizza",
"Domino's","55","55 Frederick St","Framingham","MA","(508) 620-4975","42.278871","-71.413856","Pizza",
"Domino's","186","186 Great Rd Ste 4","Bedford","MA","(781) 280-2929","42.489803","-71.272835","Pizza",
"Papa Gino's","2899","2899 Cranberry Hwy","East Wareham","MA","(508) 295-7474","41.759467","-70.666081","Pizza",
"Papa John's Pizza","49","49 Jackson St Ste 3","Methuen","MA","(978) 685-7272","42.724427","-71.159485","Pizza",
"Domino's","707","707 Western Ave","Lynn","MA","(781) 581-8080","42.463696","-70.964647","Pizza",
"Domino's","281","281 Concord St","Framingham","MA","(508) 620-4975","42.283018","-71.413919","Pizza",
"Papa Gino's","117","117 Great Rd Ste 1","Stow","MA","(978) 897-9101","42.434679","-71.485855","Pizza",
"Papa Gino's","156","156 Andover St Unit 6","Danvers","MA","(978) 777-5550","42.557276","-70.970377","Pizza",
"Domino's","743","743 Main St","Winchester","MA","(781) 729-8844","42.457843","-71.138435","Pizza",
"Anthony T Pizzeria & Restaurant","1016","1016 Commonwealth Ave","Boston","MA","(617) 734-7708","42.351465","-71.12149","Restaurants",
"Village Sub & Pizza","14","14 Central St","Georgetown","MA","(978) 352-6050","42.723825","-70.991958","Restaurants",
"Louies Pizzeria","4","4 Milliston Rd","Millis","MA","(508) 376-6200","42.1678825","-71.3549711","Restaurants",
"Papa Gino's","240","240 Grove St","Braintree","MA","(781) 380-7744","42.191317","-70.988772","Pizza",
"Waltham Pizza","168","168 Lexington St","Waltham","MA","(781) 891-3744","42.38224","-71.237128","Restaurants",
"Southside Pizza & Subs","617","617 Main St","Brockton","MA","(508) 586-5499","42.072946","-71.019091","Restaurants",
"New England Pizza","195","195 Wakefield St","Rochester","NH","(603) 332-4625","43.316374","-70.976534","Restaurants",
"Domino's","225","225 Quincy Ave","Quincy","MA","(617) 328-6801","42.2403215","-70.9919302","Pizza",
"Domino's","63","63 Park St Ste 2","Andover","MA","(978) 474-0066","42.656797","-71.137","Pizza",
"Wicked Cheesy Pizza Inc","1079","1079 Main St","Tewksbury","MA","(978) 863-1901","42.6103352","-71.2317443","Restaurants",
"Supreme House of Pizza","72","72 Main St","Raymond","NH","(603) 895-9500","43.0356641012132","-71.1818259304246","Restaurants",
"D & D Pizza & Subs","135","135 Mount Auburn St","Watertown","MA","(617) 924-0999","42.3678022","-71.1787451","Restaurants",
"Leones Sub & Pizza","292","292 Broadway","Somerville","MA","(617) 776-2511","42.391787","-71.092463","Restaurants",
"Mandee's Pizza","65","65 Goodridge St","Lynn","MA","(781) 599-6000","42.477199","-70.944996","Restaurants",
"Ocean Wok","7","7 Ocean Blvd","Hampton","NH","(603) 926-6633","42.900641","-70.815635","Restaurants",
"Bellingham Palace Pizza LLC","90","90 Pulaski Blvd","Bellingham","MA","(508) 883-1074","42.018909","-71.496474","Restaurants",
"Domino's","1177","1177 N Main St","Randolph","MA","(781) 986-3030","42.195672","-71.060628","Pizza",
"Harrys Pizza","405","405 Sea St","Quincy","MA","(617) 479-8270","42.261724","-70.984214","Restaurants",
"Domino's","695","695 Truman Hwy Ste 1","Hyde Park","MA","(617) 364-6550","42.252457","-71.118958","Pizza",
"Sub-Way & Pizza","510","510 Union Ave","Framingham","MA","(508) 879-8818","42.29284","-71.427892","Restaurants",
"Angelos House of Pizza","579","579 Moody St","Waltham","MA","(781) 893-1208","42.366351","-71.238137","Restaurants",
"All Star Pizza Bar","1238","1238 Cambridge St","Cambridge","MA","(617) 547-0836","42.373229","-71.09807","Restaurants",
"Kozy's Pizza House","748","748 Calef Hwy","Barrington","NH","(603) 664-5444","43.196066","-70.998418","Restaurants",
"Domino's","111","111 Arsenal St","Watertown","MA","(617) 923-3030","42.364676","-71.179104","Pizza",
"Domino's","1672","1672 Blue Hill Ave","Mattapan","MA","(617) 298-0900","42.2673857166975","-71.0935347796284","Pizza",
"Santoros Pizza & Subs","434","434 Wareham Rd","Marion","MA","(508) 748-9599","41.713495","-70.771447","Restaurants",
"Mario's Pizza","92","92 Middlesex Rd","Tyngsboro","MA","(978) 226-5791","42.6629449","-71.4093484","Restaurants",
"Amante Pizza & Cafe","440","440 Union St","Rockland","MA","(781) 871-7144","42.134246","-70.9171439","Restaurants",
"Pantry Pizza & Kitchen","931","931 Dorchester Ave","Dorchester","MA","(617) 282-0033","42.3188863","-71.0569162","Restaurants",
"Domino's","240","240 Trapelo Rd","Belmont","MA","(617) 489-4242","42.382498","-71.180423","Pizza",
"Domino's","824","824 Washington St","East Weymouth","MA","(781) 682-9000","42.201273","-70.943193","Pizza",
"Domino's","671","671 Massachusetts Ave","Arlington","MA","(781) 643-2300","42.4160968","-71.1545254","Pizza",
"Time Out Pizza & Grill","524","524 Sea St","Quincy","MA","(617) 479-2300","42.260992","-70.978395","Restaurants",
"Jims Original Subs & Pizza","415","415 S Broadway","Lawrence","MA","(978) 687-9768","42.686059","-71.156705","Restaurants",
"Town House of Pizza","35","35 N Franklin St","Lynn","MA","(781) 595-6118","42.47112","-70.961064","Restaurants",
"Lenas Pizza Subs & Seafood","838","838 Lafayette Rd Ste 1","Hampton","NH","(603) 926-2505","42.9521832","-70.832867","Restaurants",
"Chief Wok Restaurant","224","224 N Broadway Ste C7","Salem","NH","(603) 898-6200","42.789606","-71.233706","Restaurants",
"Tremonte Pizzaria and Pub","44","44 Palmer St","Lowell","MA","(978) 453-1110","42.645015","-71.310558","Restaurants",
"Town Pizza & Deli","648","648 Main St","Reading","MA","(781) 944-7975","42.52435","-71.10306","Restaurants",
"Joe's New York Pizza","888","888 Lafayette Rd","Hampton","NH","(603) 926-9300","42.955387","-70.833652","Restaurants",
"Fremont Pizzeria & Restaurant","107","107 Main St","Fremont","NH","(603) 895-6313","42.998647","-71.153273","Restaurants",
"Joe's New York Pizza-Portsmouth","124","124 Congress St","Portsmouth","NH","(603) 431-1200","43.075914","-70.759919","Restaurants",
"Land of Pizza Inc","445","445 W Broadway","South Boston","MA","(617) 269-4442","42.336011","-71.046914","Restaurants",
"Chengs Wok","184","184 Cambridge St","Burlington","MA","(781) 272-5885","42.511686","-71.200783","Restaurants",
"Cape Ann Pizza & Subs","65","65 Eastern Ave Ste 12","Essex","MA","(978) 768-3925","42.631744","-70.765745","Restaurants",
"Grove Hall Pizza","661","661 Warren St","Dorchester","MA","(617) 445-0000","42.309577","-71.082965","Restaurants",
"New London Style Pizza of Concord","71","71 Thoreau St","Concord","MA","(978) 369-7053","42.457211","-71.357677","Restaurants",
"Crow Point Pizzeria","191","191 Lincoln St","Hingham","MA","(781) 741-5400","42.2495518","-70.9046576","Restaurants",
"Santoros Pizza & Subs","1","1 Depot St Ste D","East Wareham","MA","(508) 295-4455","41.761345","-70.673641","Restaurants",
"Pizza Lovers","368","368 Washington Ave","Chelsea","MA","(617) 889-2225","42.4050546608927","-71.0356694435825","Restaurants",
"Salem House of Pizza","115","115 Main St Ste A","Salem","NH","(603) 893-5250","42.782396","-71.228044","Restaurants",
"Jimmys Pizza Too","480","480 Chelmsford St","Lowell","MA","(978) 446-0345","42.626904","-71.322336","Restaurants",
"Mediterranean Pizza & Subs","61","61 Kenoza Ave","Haverhill","MA","(978) 374-9688","42.782199","-71.07525","Restaurants",
"Asia Wok","44","44 Harvard Ave","Allston","MA","(617) 254-5445","42.354585","-71.132301","Restaurants",
"Davids Pizza","218","218 W Squantum St","Quincy","MA","(617) 801-2121","42.269743","-71.033951","Restaurants",
"Captain Pizza","3","3 Railroad Ave","Swampscott","MA","(781) 593-1568","42.473039","-70.922826","Restaurants",
"Pizza Mine New York Deli","9","9 Homer Ave","Ashland","MA","(508) 881-7233","42.259513","-71.463188","Restaurants",
"Sals Ristorante & Pizza","205","205 L St","South Boston","MA","(617) 268-5800","42.331404","-71.035398","Restaurants",
"Spencers Pizza","123","123 Centre Ave","Abington","MA","(781) 871-2823","42.1059605","-70.9395323","Restaurants",
"Marshfield Famous Pizza","1941","1941 Ocean St","Marshfield","MA","(781) 834-4587","42.091635","-70.707398","Restaurants",
"Topsfield House of Pizza","32","32 Main St","Topsfield","MA","(978) 887-9642","42.63631","-70.950231","Restaurants",
"Domino's","10","10 Weed St","Marlborough","MA","(978) 562-7755","42.346194","-71.54664","Pizza",
"Domino's","1144","1144 Saratoga St","East Boston","MA","(617) 567-5551","42.3846155","-71.0002309","Pizza",
"Domino's","209","209 E Central St","Franklin","MA","(508) 520-0600","42.080785","-71.387978","Pizza",
"Pizza Mia Inc","67","67 Franklin St","Stoneham","MA","(781) 572-3300","42.4779112388712","-71.0975402191339","Restaurants",
"Newtonville Pizza","322","322 Walnut St","Newtonville","MA","(617) 969-9842","42.350119","-71.206705","Restaurants",
"Sebastians Pizza","56","56 Washington St","Gloucester","MA","(978) 283-4407","42.6137563","-70.6682477","Restaurants",
"Nicks Pizza & Seafood","1143","1143 Blue Hill Ave","Dorchester Center","MA","(617) 282-8805","42.28549","-71.091346","Restaurants",
"Magnolia House of Pizza","35","35 Fuller St Unit 4","Gloucester","MA","(978) 525-3030","42.5769974","-70.7144968","Restaurants",
"Alexs Roast Beef Pizza & Seafood","53","53 Main St","Topsfield","MA","(978) 887-1222","42.6401555","-70.9497675","Restaurants",
"Theo's House of Pizza","231","231 N Main St Ste 3","Natick","MA","(508) 653-8600","42.303499","-71.36106","Restaurants",
"Front Row Pizzeria","137","137 Epping Rd Ste A","Exeter","NH","(603) 773-0047","42.991183","-70.969307","Restaurants",
"Johns Pizza & Subs","8","8 Central Ave","Chelsea","MA","(617) 884-2617","42.390437","-71.035017","Restaurants",
"Acton Great Road Pizza","168","168 Great Rd","Acton","MA","(978) 263-9111","42.4855329","-71.418743","Restaurants",
"Stop & Taste Pizza","239","239 Dudley St","Roxbury","MA","(617) 445-7866","42.328381","-71.079729","Restaurants",
"Zorbas Pizza","16","16 S Main St","West Bridgewater","MA","(508) 586-0065","42.018858","-71.006151","Restaurants",
"Marias Pizzeria","134","134 S Franklin St","Holbrook","MA","(781) 767-3340","42.1511475","-71.0091941","Restaurants",
"Gios Roast Beef & Pizza","176","176 Middle St","East Weymouth","MA","(781) 335-1999","42.217725","-70.936621","Restaurants",
"Cherry Village Pizza Restaurant","1","1 Gigante Dr","Hampstead","NH","(603) 329-7556","42.8575471325916","-71.17453","Restaurants",
"Needham House of Pizza","914","914 Great Plain Ave","Needham","MA","(781) 444-1139","42.280135","-71.234745","Restaurants",
"Brothers Pizza & Restaurant","201","201 Reservoir St","Needham Heights","MA","(781) 444-5060","42.310301","-71.228686","Restaurants",
"Domino's","7","7 Mill Rd Unit G","Durham","NH","(603) 868-6230","43.1335402939267","-70.9268572515481","Pizza",
"East Dedham Pizzeria","234","234 Bussey St","Dedham","MA","(781) 461-8555","42.248849","-71.154264","Restaurants",
"Ideal Cafe & Pizza","484","484 Centre St Ste A","Jamaica Plain","MA","(617) 524-3334","42.3185498","-71.1120906","Restaurants",
"Omega Pizza","101","101 Loring Ave","Salem","MA","(978) 740-1000","42.499603","-70.895627","Restaurants",
"Romanos Pizzaria Bessom","8","8 Bessom St","Marblehead","MA","(781) 631-8333","42.500323","-70.859328","Restaurants",
"New Market Grill & Pizza","850","850 Massachusetts Ave","Boston","MA","(617) 427-1444","42.3320881","-71.0710225","Restaurants",
"Harrys Pizza & Deli","728","728 Hale St","Beverly","MA","(978) 969-3916","42.562996","-70.814518","Restaurants",
"Tessis Pizzeria","15","15 Ermer Rd Unit 106","Salem","NH","(603) 893-2818","42.845167","-71.223129","Restaurants",
"Natalies Pizzeria","1312","1312 Commonwealth Ave","Allston","MA","(617) 277-7662","42.3483919","-71.134147","Restaurants",
"Catalinas Pizza","109","109 Ferry St","Malden","MA","(781) 321-5888","42.42477","-71.065133","Restaurants",
"Pizzeria Dante","415","415 Harvard St","Brookline","MA","(617) 232-5353","42.3454884","-71.1268319","Restaurants",
"Theos Pizzeria","55","55 W Wyoming Ave","Melrose","MA","(781) 662-6755","42.452386","-71.070092","Restaurants",
"Louies Famous Pizza","988","988 Bedford St","Abington","MA","(781) 871-0033","42.131405","-70.950513","Restaurants",
"Lynnfield House of Pizza","18","18 Post Office Sq","Lynnfield","MA","(781) 593-1330","42.5149654744923","-71.0137862752892","Restaurants",
"Chuck & Cheese House of Pizza","423","423 Washington St","Stoughton","MA","(781) 344-1919","42.1345039","-71.1023467","Restaurants",
"Darleens Sub & Pizza","697","697 Islington St","Portsmouth","NH","(603) 431-5445","43.070149","-70.771886","Restaurants",
"Village Pizza of Rochester","49","49 Hancock St","Rochester","NH","(603) 335-4344","43.2947861","-70.9725347","Restaurants",
"Prime Pizza","215","215 E Main St","East Hampstead","NH","(603) 382-4646","42.890559","-71.135229","Restaurants",
"Acropolis Pizza","320","320 Sandown Rd Unit 9","East Hampstead","NH","(603) 329-4299","42.893139","-71.144512","Restaurants",
"Kipos Pizzeria & Restaurant","106","106 Bunker Hill St","Charlestown","MA","(617) 242-4141","42.377465","-71.05866","Restaurants",
"Dacoopa Sub & Pizza","474","474 Saratoga St","East Boston","MA","(617) 567-3399","42.380137","-71.027287","Restaurants",
"Stoughton Pizza","875","875 Washington St","Stoughton","MA","(781) 344-7172","42.121653","-71.101832","Restaurants",
"Omega Pizza","100","100 Lynn St","Peabody","MA","(978) 531-3405","42.511342","-70.9470429","Restaurants",
"Lindos Pizza","2","2 Wareham St Frnt","Middleboro","MA","(508) 946-1455","41.892249","-70.908949","Restaurants",
"Nick's & Angelo Pizza Place","2105","2105 Old Plymouth St","Bridgewater","MA","(508) 697-1948","41.9963240557522","-70.9005301400494","Restaurants",
"Supreme Pizza & Subs Inc","883","883 Main St","Walpole","MA","(508) 668-6303","42.1486632","-71.2514879","Restaurants",
"Meats Pizza & Roast Beef","331","331 Main St","Wilmington","MA","(978) 988-0848","42.5502309","-71.177018","Restaurants",
"Ashland Pizza Palace","74","74 Union St","Ashland","MA","(508) 881-6666","42.2583332","-71.4544662","Restaurants",
"Domino's","1","1 Andover St","Peabody","MA","(978) 536-3100","42.5348891","-70.9288941","Pizza",
"Pizza Hazel","1258","1258 Gorham St","Lowell","MA","(978) 453-0440","42.621561","-71.305246","Restaurants",
