Business Name,Physical Address Number,Physical Address,Physical City,Physical State,Phone,Latitude,Longitude,Primary SIC Description
Nancy's Air Field Cafe,302,302 Boxboro Rd Ste 5,Stow,MA,(978) 897-3934,42.461799,-71.517438,Restaurants
Sonsie Restaurant,327,327 Newbury St,Boston,MA,(617) 351-2500,42.348783,-71.086205,Restaurants
Chili's Grill & Bar,107,107 Taunton St,Plainville,MA,(508) 695-5105,42.032601,-71.311904,Restaurants
Area Four,500,500 Technology Sq Fl 4,Cambridge,MA,(617) 758-4444,42.3634028,-71.0925412,Restaurants
Sweet Cheeks BBQ,1381,1381 Boylston St,Boston,MA,(617) 266-1300,42.343877,-71.101198,Restaurants
Tosca,14,14 North St,Hingham,MA,(781) 740-0080,42.244557,-70.884902,Restaurants
Shea's Riverside Restaurant & Bar,122,122 Main St,Essex,MA,(978) 768-6931,42.630893,-70.774478,Restaurants
Tony C's Seaport,250,250 Northern Ave Ste 100,Boston,MA,(617) 856-7369,42.348947,-71.03836,Restaurants
Ninety Nine Restaurant & Pub,13,13 Commonwealth Ave,Concord,MA,(978) 369-0300,42.456391,-71.392892,Restaurants
Telly's Restaurant & Pizza,235,235 Calef Hwy,Epping,NH,(603) 679-8225,43.03971965,-71.06588118,Restaurants
Beverly Depot Restaurant,10,10 Park St,Beverly,MA,(978) 927-5402,42.54690565,-70.88538974,Restaurants
Alden Park Bar and Grill,160,160 Colony Place Rd,Plymouth,MA,(508) 830-6777,41.9540978,-70.7127207,Restaurants
Libbys Bar & Grill,47,47 Main St,Durham,NH,(603) 868-5542,43.1338143,-70.9256374,Restaurants
Oar House,55,55 Ceres St,Portsmouth,NH,(603) 436-4025,43.07898108,-70.75818098,Restaurants
Hooters,850,850 Providence Hwy,Dedham,MA,(781) 326-6600,42.235177,-71.178288,Restaurants
South End Buttery,314,314 Shawmut Ave,Boston,MA,(617) 482-1015,42.342091,-71.070336,Restaurants
Helens Restaurant,17,17 Main St,Concord,MA,(978) 369-9885,42.459859,-71.3509909,Restaurants
Craigie On Main Restaurant & Bar,853,853 Main St,Cambridge,MA,(617) 497-5511,42.36353,-71.098626,Restaurants
Tempo,474,474 Moody St,Waltham,MA,(781) 891-9000,42.367935,-71.236964,Restaurants
Sunset Cantina,916,916 Commonwealth Ave,Boston,MA,(617) 731-8646,42.350906,-71.116865,Restaurants
Magnolia Smokehouse,6,6 Harvard Sq,Brookline,MA,(617) 566-3782,42.3331176,-71.1184866,Restaurants
West On Centre,1732,1732 Centre St,West Roxbury,MA,(617) 323-4199,42.2870973,-71.1497712,Restaurants
Noon Hill Grill,530,530 Main St,Medfield,MA,(508) 359-9155,42.185647,-71.307893,Restaurants
Venezia Waterfront Restaurant & Banquet Facility,20,20 Ericsson St,Dorchester,MA,(617) 436-3120,42.291745,-71.04032,Restaurants
Coach Stop Restaurant,176,176 Mammoth Rd,Londonderry,NH,(603) 437-2022,42.847147,-71.361675,Restaurants
Garrisons Bar & Grill,303,303 Boston Rd,North Billerica,MA,(978) 670-1202,42.571624,-71.277905,Restaurants
Melting Pot,213,213 Burlington Rd Ste 100,Bedford,MA,(781) 271-0111,42.501306,-71.235498,Restaurants
Saphire Event Group,1601,1601 Main St,Walpole,MA,(508) 668-8071,42.1263528,-71.269207,Restaurants
Bambara Kitchen & Barcambridge,25,25 Edwin H Land Blvd,Cambridge,MA,(617) 868-4444,42.368026,-71.075255,Restaurants
Ninety Nine Restaurant & Pub,428,428 Lincoln St,Hingham,MA,(781) 740-8599,42.247967,-70.925831,Restaurants
Fairways at Woburn Country Club,5,5 Country Club Rd,Woburn,MA,(781) 935-4653,42.4635021,-71.1668117,Restaurants
IHOP,115,115 Parkingway,Quincy,MA,(617) 770-9414,42.246459,-71.003211,Restaurants
IHOP,105,105 Squire Rd,Revere,MA,(781) 289-6012,42.4230202,-71.0079839,Restaurants
Dubes Seafood,317,317 Jefferson Ave,Salem,MA,(978) 744-9531,42.502316,-70.89928,Restaurants
Ninety Nine Restaurant & Pub,20,20 Cummings St,Somerville,MA,(617) 629-0599,42.393955,-71.083764,Restaurants
Boston Sail Loft Restaurant,80,80 Atlantic Ave,Boston,MA,(617) 227-7280,42.362452,-71.0505419,Restaurants
Chili's Grill & Bar,257,257 Hartford Ave,Bellingham,MA,(508) 966-3439,42.11500309,-71.46108668,Restaurants
Johnny Rockets,75,75 Middlesex Tpke Ste 1079,Burlington,MA,(781) 273-2727,42.482397,-71.2137453,Restaurants
IHOP,95,95 Main St,Tewksbury,MA,(978) 640-8950,42.62547,-71.268588,Restaurants
Restaurant 45,45,45 Milford St Unit 1,Medway,MA,(508) 533-8171,42.1444912,-71.4436875,Restaurants
LongHorn Steakhouse,191,191 Boston Post Rd W,Marlborough,MA,(508) 481-4100,42.340229,-71.590044,Restaurants
Grumpys Restaurant,190,190 Pulaski Blvd,Bellingham,MA,(508) 883-0101,42.021148,-71.494643,Restaurants
Grill at Hobbs Brook,550,550 Winter St,Waltham,MA,(781) 890-6767,42.396225,-71.266131,Restaurants
Club Cafe,209,209 Columbus Ave,Boston,MA,(617) 536-0966,42.3485666,-71.0723718,Restaurants
Pearl St Station Restaurant,53,53 Summer St,Malden,MA,(781) 322-6410,42.42886,-71.073714,Restaurants
Red House,98,98 Winthrop St,Cambridge,MA,(617) 576-0605,42.372303,-71.121248,Restaurants
Ninety Nine Restaurant & Pub,672,672 Boston Rd,Billerica,MA,(978) 667-9789,42.541148,-71.247498,Restaurants
Atlantic Sea Pride Inc,400,400 Dorchester Ave,South Boston,MA,(617) 269-7700,42.3349012,-71.0563249,Restaurants
Slesar Bros Brewing Co,203,203 Cabot St,Lowell,MA,(978) 937-2337,42.6506783,-71.31661276,Restaurants
Old Ferry Landing,10,10 Ceres St,Portsmouth,NH,(603) 431-5510,43.0788465,-70.7570165,Restaurants
IHOP,114,114 Broadway Ste 3,Saugus,MA,(781) 233-4097,42.494404,-71.01578,Restaurants
Isaac's Restaurant,114,114 Water St,Plymouth,MA,(508) 830-0001,41.9601088,-70.6660466,Restaurants
Bull Run Restaurant,215,215 Great Rd,Shirley,MA,(978) 425-4311,42.5845464,-71.6461813,Restaurants
Lewis Restaurant & Grill,92,92 Central St,Norwood,MA,(781) 769-9633,42.1933342,-71.200407,Restaurants
Coach Grill,55,55 Boston Post Rd,Wayland,MA,(508) 358-5900,42.360514,-71.334265,Restaurants
Rons Landing,379,379 Ocean Blvd,Hampton,NH,(603) 929-2122,42.917029,-70.806564,Restaurants
Clydes Roadhouse Bar & Grille,642,642 Providence Hwy,Walpole,MA,(508) 660-2206,42.14016,-71.21863,Restaurants
Blue Marlin Grille,65,65 Eastern Ave,Essex,MA,(978) 768-7400,42.631744,-70.765745,Restaurants
Clam Box of Ipswich,246,246 High St,Ipswich,MA,(978) 356-9707,42.695761,-70.867089,Restaurants
Greatest Bar,262,262 Friend St,Boston,MA,(617) 367-0544,42.364624,-71.061363,Restaurants
Paddys Restaurant,27,27 International Dr,Portsmouth,NH,(603) 430-9450,43.086194,-70.807396,Restaurants
Lucioso's Pub,6,6 Spring Ln,Plymouth,MA,(508) 746-0056,41.9536132,-70.6649656,Restaurants
Catalyst Restaurant,300,300 Technology Sq Ste 3,Cambridge,MA,(617) 576-3000,42.363419,-71.0915179,Restaurants
John Brewers Tavern,39,39 Main St,Waltham,MA,(781) 894-9700,42.374636,-71.209869,Restaurants
Strawberry Fair Restaurant,14,14 Pond St,Norwell,MA,(781) 878-7878,42.173906,-70.884925,Restaurants
American Food Systems,30,30 B St,Burlington,MA,(781) 273-3230,42.498318,-71.222968,Restaurants
Brothers Restaurant,404,404 Harvard St,Brookline,MA,(617) 383-6268,42.345036,-71.126841,Restaurants
Boston Burger Co,1105,1105 Massachusetts Ave Ste 4,Cambridge,MA,(857) 242-3964,42.370762,-71.113425,Restaurants
Four's Restaurant & Sports Bar,166,166 Canal St,Boston,MA,(617) 720-4455,42.364981,-71.060983,Restaurants
Seasons 52,220,220 Boylston St Ste 19,Chestnut Hill,MA,(617) 928-9818,42.3189463,-71.175797,Restaurants
Gather,75,75 Northern Ave,Boston,MA,(617) 982-7220,42.3524219,-71.0452195,Restaurants
Poynt,31,31 Water St,Newburyport,MA,(978) 358-8501,42.8119736,-70.8674848,Restaurants
Mission On The Bay,141,141 Humphrey St,Swampscott,MA,(781) 691-9277,42.4678285,-70.9171526,Restaurants
British Beer Company,2294,2294 State Rd,Plymouth,MA,(508) 888-9756,41.818767,-70.551452,Restaurants
Steel & Rye,95,95 Eliot St Ste 2,Milton,MA,(617) 690-2787,42.2699576,-71.0724461,Restaurants
Franks Steak House,2310,2310 Massachusetts Ave,Cambridge,MA,(617) 661-0666,42.395412,-71.128282,Restaurants
Polio Campero,188,188 Border St,East Boston,MA,(617) 568-9500,42.374784,-71.040695,Restaurants
Public House,1648,1648 Beacon St,Brookline,MA,(617) 277-2880,42.3393521,-71.1366516,Restaurants
Cityside Bar & Grille,1960,1960 Beacon St,Brighton,MA,(617) 566-1002,42.3363536,-71.1503361,Restaurants
Tamboo Bistro,252,252 Main St,Brockton,MA,(508) 584-8585,42.080385,-71.019948,Restaurants
Coolidge Corner Clubhouse,307,307 Harvard St,Brookline,MA,(617) 566-4948,42.3433629,-71.122844,Restaurants
Five Guys,221,221 N Main St,Natick,MA,(508) 650-5100,42.30221254,-71.36093211,Restaurants
Red Hat Cafe,9,9 Bowdoin St Ste 1,Boston,MA,(617) 523-2175,42.36102,-71.063194,Restaurants
Crossroads Cafe,405,405 Nagog Park,Acton,MA,(978) 263-9733,42.5229857,-71.4321318,Restaurants
Highland Fried,1271,1271 Cambridge St,Cambridge,MA,(617) 714-4662,42.37359,-71.098601,Restaurants
Nathaniel's Restaurant,18,18 Washington Sq,Salem,MA,(978) 825-4311,42.5227841,-70.8897486,Restaurants
Masa Restaurant,439,439 Tremont St,Boston,MA,(617) 338-8884,42.346789,-71.069416,Restaurants
Grendels Restaurant & Bar,89,89 Winthrop St,Cambridge,MA,(617) 491-1160,42.3726355,-71.1209803,Restaurants
5 Corners Kitchen,2,2 School St,Marblehead,MA,(781) 631-5550,42.501352,-70.85578,Restaurants
Rattle Snake Bar & Grill,800,800 Boylston St Spc 9,Boston,MA,(617) 859-7772,42.34829638,-71.08342828,Restaurants
Brickhouse Cafe,107,107 Bridge St,Dedham,MA,(781) 326-1980,42.267859,-71.176221,Restaurants
Maddies Sail Loft,15,15 State St,Marblehead,MA,(781) 631-9824,42.504943,-70.848545,Restaurants
Rosewood Restaurant,445,445 Hartford Ave,Bellingham,MA,(508) 966-1126,42.130727,-71.449414,Restaurants
Newcomb Farms Family Restaurant,1139,1139 Randolph Ave,Milton,MA,(617) 698-9547,42.229172,-71.071979,Restaurants
Five Guys,380,380 Lafayette Rd Unit 203,Seabrook,NH,(603) 814-1235,42.886481,-70.868244,Restaurants
The Back Nine Club,17,17 Heritage Hill Dr,Lakeville,MA,(508) 947-9991,41.8376418,-70.9519612,Restaurants
Fat Bellys Bar & Grill,2,2 Bow St,Portsmouth,NH,(603) 610-4227,43.0781476,-70.7573258,Restaurants
Windjammers Seafood Restaurant,240,240 Portland St,Rochester,NH,(603) 332-9622,43.3048209,-70.9727118,Restaurants
Ninety Nine Restaurant & Pub,10,10 Main St,Stoneham,MA,(781) 279-0399,42.50092,-71.100827,Restaurants
Good Life,28,28 Kingston St,Boston,MA,(617) 451-2622,42.35344,-71.059043,Restaurants
Moonstones,185,185 Chelmsford St,Chelmsford,MA,(978) 256-7777,42.607383,-71.341588,Restaurants
Blue Angus Cafe,34,34 Broadway Rd Ste 1,Dracut,MA,(978) 937-1699,42.6726182,-71.2958527,Restaurants
Horseshoe Grille,226,226 Main St,North Reading,MA,(978) 664-3591,42.587819,-71.116183,Restaurants
The Mission Bar & Grill,724,724 Huntington Ave,Boston,MA,(617) 566-1244,42.33384,-71.105037,Restaurants
Novatos,218,218 Dedham St,Norfolk,MA,(508) 384-5122,42.0906384,-71.299934,Restaurants
Aegean Restaurant & Lounge,257,257 Cochituate Rd,Framingham,MA,(508) 879-8424,42.301906,-71.403439,Restaurants
Dockside Restaurant,1099,1099 Main St,Wakefield,MA,(781) 245-0200,42.478712,-71.0637969,Restaurants
B & G Oysters Ltd,550,550 Tremont St,Boston,MA,(617) 423-0550,42.343878,-71.071243,Restaurants
Red Lion Inn Restaurant,71,71 S Main St,Cohasset,MA,(781) 383-1704,42.239795,-70.801259,Restaurants
Cafeteria Boston,279A,279a Newbury St,Boston,MA,(617) 536-2233,42.3492588,-71.0844499,Restaurants
Cafe Tosca,15,15 North St,Hingham,MA,(781) 740-9400,42.244619,-70.885169,Restaurants
Venus III,252,252 Main St,Hanson,MA,(781) 293-0000,42.0433182,-70.8512451,Restaurants
Five Guys,980,980 Paradise Rd Ste 2,Swampscott,MA,(781) 595-1300,42.4832863,-70.9013733,Restaurants
Marylous Coffee Abington 2,1501,1501 Bedford St Ste 1,Abington,MA,(781) 871-9912,42.145558,-70.953784,Restaurants
Capones Restaurant Inc,147,147 Summit St Ste 20,Peabody,MA,(978) 977-0520,42.5202874,-70.9521409,Restaurants
Water Front Bar & Grill,170,170 Water St,Plymouth,MA,(508) 591-8393,41.962261,-70.669361,Restaurants
Companions Take Out,488,488 Broadway,Revere,MA,(781) 284-3900,42.4119949,-71.0114555,Restaurants
Donohues Bar & Grill,87,87 Bigelow Ave,Watertown,MA,(617) 924-4900,42.3682543,-71.1576636,Restaurants
Nosh & Grog Provisions,21,21 North St,Medfield,MA,(508) 359-4100,42.187366,-71.305672,Restaurants
Midway Restaurant,269,269 Washington St,Dedham,MA,(781) 329-5575,42.251031,-71.170699,Restaurants
Central Cafe,254,254 Centre St Ste 1,Middleboro,MA,(508) 947-9830,41.8933544,-70.9136171,Restaurants
Green Street,280,280 Green St,Cambridge,MA,(617) 876-1655,42.364537,-71.104154,Restaurants
Cobblestones,91,91 Dutton St,Lowell,MA,(978) 970-2282,42.6462538,-71.3127163,Restaurants
Halfway Cafe,820,820 Boston Post Rd E,Marlborough,MA,(508) 480-0688,42.350807,-71.496302,Restaurants
Weathervane Tavern,85,85 Railroad Ave,South Hamilton,MA,(978) 468-2600,42.6113395,-70.8758634,Restaurants
Brandy Pete's,267,267 Franklin St,Boston,MA,(617) 439-4165,42.356639,-71.053363,Restaurants
Harvard Gardens,316,316 Cambridge St,Boston,MA,(617) 523-2727,42.3609473,-71.0690112,Restaurants
Jarvis Center,40,40 Andrew Jarvis Dr,Portsmouth,NH,(603) 436-2943,43.058682,-70.7678622,Restaurants
Danns Restaurant,340,340 Centre Ave,Abington,MA,(781) 878-8767,42.1105383,-70.9317593,Restaurants
Winsor House Inn,390,390 Washington St,Duxbury,MA,(781) 934-0991,42.0357894,-70.6730028,Restaurants
Shadi's Restaurant & Lounge,585,585 Chickering Rd,North Andover,MA,(978) 683-9559,42.69697,-71.118636,Restaurants
Trident Booksellers & Cafe,338,338 Newbury St Bsmt B1,Boston,MA,(617) 267-8688,42.3482404,-71.0866118,Restaurants
Azorean Restaurant & Bar,133,133 Washington St,Gloucester,MA,(978) 283-5500,42.6166886,-70.6690393,Restaurants
Popovers On The Square,8,8 Congress St,Portsmouth,NH,(603) 431-1119,43.0766844,-70.75808282,Restaurants
Highland Kitchen,150,150 Highland Ave,Somerville,MA,(617) 625-1131,42.388102,-71.103247,Restaurants
Stone's Public House,179,179 Main St Ste 1,Ashland,MA,(508) 881-1778,42.259536,-71.464798,Restaurants
Oxford Creamery,98,98 County Rd,Mattapoisett,MA,(508) 758-3847,41.66112692,-70.79913466,Restaurants
J J Boomers Restaurant & Lounge,724,724 Pawtucket Blvd,Lowell,MA,(978) 970-3159,42.64012316,-71.36043778,Restaurants
Princeton Station,147,147 Princeton St,North Chelmsford,MA,(978) 251-1500,42.633005,-71.376989,Restaurants
Tavern From Tower Square,119,119 Washington St,Plainville,MA,(508) 699-7600,42.017254,-71.316754,Restaurants
Brownstone,111,111 Dartmouth St,Boston,MA,(617) 867-4142,42.3464773,-71.0752812,Restaurants
Audria,436,436 Oak St,East Bridgewater,MA,(781) 447-7888,42.060116,-70.913325,Restaurants
Devlins Restaurant,332,332 Washington St,Brighton,MA,(617) 779-8822,42.348877,-71.1523454,Restaurants
Orleans Bar & Restaurant,65,65 Holland St,Somerville,MA,(617) 591-2100,42.398326,-71.123784,Restaurants
Checkerboards Pizza Restaurant,10,10 Technology Dr Ste 9,Hudson,MA,(978) 562-4400,42.3780379,-71.562947,Restaurants
Grumpy Doyle's,530,530 Main St,Reading,MA,(781) 942-2822,42.522579,-71.1033303,Restaurants
Ninety Nine Restaurant & Pub,464,464 Lowell St,Andover,MA,(978) 475-8033,42.642627,-71.209841,Restaurants
Christophers Restaurant,580,580 Main St Ste 102,Reading,MA,(781) 944-3663,42.5232634,-71.1036714,Restaurants
Battery Park Bar & Lounge,75,75 Broad St Ste 2,Boston,MA,(617) 350-7275,42.357652,-71.053653,Restaurants
Early Bird Cafe,160,160 Plaistow Rd Ste 20,Plaistow,NH,(603) 382-2223,42.849469,-71.104816,Restaurants
Fire Ice Restaurant,205,205 Berkeley St,Boston,MA,(617) 482-3473,42.3506673,-71.0724912,Restaurants
Buff's Pub,317,317 Washington St,Newton,MA,(617) 332-9134,42.3572536,-71.1865145,Restaurants
Irish Cottage,17,17 Branch St,Methuen,MA,(978) 208-4347,42.705484,-71.213129,Restaurants
Evoo Restaurant,350,350 3rd St Ph 1,Cambridge,MA,(617) 661-3866,42.3634358,-71.082514,Restaurants
The Village Manor,427,427 Sprague St,Dedham,MA,(781) 407-9191,42.230875,-71.141567,Restaurants
Baileys Bar & Grille,18,18 Main St,Townsend,MA,(978) 812-0200,42.6487634,-71.6609355,Restaurants
Big Dog Sports Grille,178,178 Main St,North Reading,MA,(978) 664-9889,42.583081,-71.11344,Restaurants
Josephs Two,805,805 Main St,Waltham,MA,(781) 899-4754,42.376497,-71.242562,Restaurants
Dagostinos Delicatessen,11,11 Waterfield Rd,Winchester,MA,(781) 729-7984,42.451519,-71.1384521,Restaurants
Raso's Bar and Grille,209,209 Mystic Ave,Medford,MA,(781) 396-2001,42.407715,-71.103876,Restaurants
Pleasant Cafe & Restaurant,4515,4515 Washington St,Roslindale,MA,(617) 323-2111,42.27875807,-71.13668199,Restaurants
Roka ZC,801,801 Massachusetts Ave,Boston,MA,(617) 989-9988,42.333062,-71.0732356,Restaurants
Five Guys,10,10 Cornerstone Sq,Westford,MA,(978) 692-6008,42.5647245,-71.4276975,Restaurants
Annas Harborside Grille,145,145 Water St,Plymouth,MA,(508) 591-7372,41.9617073,-70.6676368,Restaurants
Back Deck,2,2 West St,Boston,MA,(617) 670-0320,42.354492,-71.062235,Restaurants
Echo Bridge Restaurant,1068,1068 Chestnut St,Newton Upper Falls,MA,(617) 969-7092,42.3126707,-71.2244555,Restaurants
Bristol Restaurant,200,200 Boylston St,Boston,MA,(617) 351-2053,42.352051,-71.068315,Restaurants
Champions Pub,114,114 Foster St,Peabody,MA,(978) 531-7776,42.5214147,-70.9316412,Restaurants
Fowler House Cafe,1049,1049 Hancock St,Quincy,MA,(617) 773-9000,42.256382,-71.0075159,Restaurants
Boston Burger Co,1100,1100 Boylston St,Boston,MA,(857) 233-4560,42.3468508,-71.088493,Restaurants
Aroma Tavern & Grill,739,739 State Rd,Plymouth,MA,(508) 224-1514,41.9147801,-70.5547079,Restaurants
Horseshoe Pub,29,29 South St,Hudson,MA,(978) 568-1265,42.3903136,-71.5676613,Restaurants
Dunn Gaherins Food & Spirit,344,344 Elliot St,Newton Upper Falls,MA,(617) 527-6271,42.312621,-71.223924,Restaurants
Framingham Beer Works,345,345 Cochituate Rd,Framingham,MA,(508) 309-3373,42.302089,-71.399918,Restaurants
Bistro,200,200 Technology Center Dr,Stoughton,MA,(781) 297-7000,42.159071,-71.062682,Restaurants
Mary Anne's Diner,4,4 Cobbetts Pond Rd,Windham,NH,(603) 965-3066,42.792701,-71.305105,Restaurants
Cook Newton,825,825 Washington St,Newtonville,MA,(617) 964-2665,42.3518863,-71.2070596,Restaurants
Common Ground,319,319 Broadway,Arlington,MA,(781) 728-0060,42.414663,-71.150522,Restaurants
Cuisine En Locale,156,156 Highland Ave Ste 1,Somerville,MA,(617) 285-0167,42.388278,-71.103849,Restaurants
Farmhouse,970,970 Great Plain Ave,Needham,MA,(781) 449-6200,42.279905,-71.236213,Restaurants
Thorntons Fenway Bar and Grill,100,100 Peterborough St,Boston,MA,(617) 421-0104,42.343019,-71.099347,Restaurants
Great American Grill,59,59 Andrews Pkwy,Devens,MA,(978) 615-1509,42.5383889,-71.6118683,Restaurants
110 Grill,116,116 Chelmsford St Unit 1,Chelmsford,MA,(978) 256-2777,42.6031533,-71.3469508,Restaurants
Snappy Pattys,454,454 High St,Medford,MA,(781) 219-4804,42.42093949,-71.13166998,Restaurants
Black Trumpet,29,29 Ceres St,Portsmouth,NH,(603) 431-0887,43.078825,-70.757801,Restaurants
IHOP,1378,1378 Boston Providence Tpke,Norwood,MA,(781) 769-6442,42.1664267,-71.1977464,Restaurants
River House,53,53 Bow St,Portsmouth,NH,(603) 431-2600,43.0787415,-70.7569686,Restaurants
Riverworks Tavern,164,164 Main St,Newmarket,NH,(603) 659-6119,43.077739,-70.937434,Restaurants
401 Tavern,401,401 Lafayette Rd,Hampton,NH,(603) 926-8800,42.939877,-70.838001,Restaurants
Carmelas Italian Restaurant & Lounge,138,138 Main St,Kingston,MA,(781) 585-2148,41.987817,-70.716732,Restaurants
Carriage House Restaurant-Caterers,2263,2263 Ocean Blvd,Rye,NH,(603) 964-8251,42.9867653,-70.7628548,Restaurants
IHOP,264B,264b N Broadway Ste 206,Salem,NH,(603) 870-9081,42.79437068,-71.23628635,Restaurants
Oharas,1185,1185 Walnut St,Newton Highlands,MA,(617) 965-6785,42.3211165,-71.2058426,Restaurants
Ice House The Inc,112,112 Wentworth Rd,Rye,NH,(603) 431-3086,43.0532836,-70.7385864,Restaurants
Grumpy Whites Restaurant,211,211 Sea St,Quincy,MA,(617) 770-2835,42.261285,-70.992116,Restaurants
Wingstop,678,678 Fellsway,Medford,MA,(781) 391-9464,42.40738308,-71.08303653,Restaurants
The Stones Common House and Kitchen,380,380 Main St,Stoneham,MA,(781) 435-1344,42.4795,-71.100032,Restaurants
Legal Sea Foods,1,1 Harborside Dr,East Boston,MA,(617) 568-1888,42.3634308,-71.0257061,Restaurants
IHOP,1850,1850 Soldiers Field Rd,Brighton,MA,(617) 787-0533,42.3586332,-71.1572974,Restaurants
Medway Cafe,74,74 Main St Unit 13,Medway,MA,(508) 533-6633,42.1515252,-71.412044,Restaurants
Farny Fannings,99,99 Broad St,Boston,MA,(617) 357-8287,42.35722,-71.052633,Restaurants
75 Chestnut,11,11 Beacon St,Boston,MA,(617) 227-2175,42.3583973,-71.0617812,Restaurants
Dyna Wave Cable,135,135 Ward Hill Ave,Haverhill,MA,(978) 521-1113,42.762606,-71.118514,Restaurants
Fuddruckers,54,54 W Dane St Ste Abc,Beverly,MA,(978) 685-9300,42.5514509,-70.8846116,Restaurants
Halibut Point Restaurant & Pub,289,289 Main St,Gloucester,MA,(978) 281-1900,42.6144637,-70.6589435,Restaurants
Sun Tavern,500,500 Congress St,Duxbury,MA,(781) 837-1027,42.0577823,-70.7421783,Restaurants
Bamboo,55,55 Ariadne Rd,Dedham,MA,(781) 251-2566,42.2316733,-71.1820091,Restaurants
Square Cafe,150,150 North St,Hingham,MA,(781) 740-4060,42.2422601,-70.8898377,Restaurants
The Butcher Shop,552,552 Tremont St,Boston,MA,(617) 423-4800,42.343758,-71.071455,Restaurants
Miracle of Science Bar & Grill,321,321 Massachusetts Ave,Cambridge,MA,(617) 868-2866,42.3625797,-71.0985688,Restaurants
Longwood Grill & Bar,342,342 Longwood Ave,Boston,MA,(617) 232-9770,42.3382336,-71.1065624,Restaurants
Narrow's Crossing Restaurant & Lounge,1,1 Narrows Rd,Wareham,MA,(508) 295-9345,41.756385,-70.711363,Restaurants
Audubon Circle Restaurant Bar,838,838 Beacon St,Boston,MA,(617) 421-1910,42.3473664,-71.103199,Restaurants
Palmers,18,18 Elm St,Andover,MA,(978) 470-1606,42.658009,-71.140223,Restaurants
ML Shaw Country Kitchen,14,14 Loon Hill Rd Ste A,Dracut,MA,(978) 454-0800,42.672249,-71.294565,Restaurants
Blarney Stone Bar Inc,1505,1505 Dorchester Ave,Dorchester,MA,(617) 436-8223,42.29939337,-71.06059589,Restaurants
Currier and Chives,24,24 Main St,Maynard,MA,(978) 897-0660,42.4318857,-71.4508472,Restaurants
Texas Roadhouse,47,47 Fox Run Rd,Portsmouth,NH,(603) 433-7427,43.100274,-70.806064,Restaurants
Butterfields Restaurant,372,372 Market St,Rockland,MA,(781) 871-2464,42.124271,-70.907279,Restaurants
Toscano Restaurant,41,41 Charles St,Boston,MA,(617) 723-4090,42.357421,-71.069813,Restaurants
Tryst Restaurant,689,689 Massachusetts Ave,Arlington,MA,(781) 641-2227,42.4163272,-71.1552284,Restaurants
South Street Diner,178,178 Kneeland St,Boston,MA,(617) 350-0028,42.349911,-71.0578203,Restaurants
Texas Roadhouse,31,31 Mystic View Rd,Everett,MA,(617) 381-9598,42.400072,-71.069674,Restaurants
A Perfect Taste,530,530 Washington St,Stoughton,MA,(781) 297-7995,42.131471,-71.10129,Restaurants
Texas Roadhouse,424,424 Broadway,Methuen,MA,(978) 975-5588,42.736005,-71.194156,Restaurants
BOKX 109 American Prime,399,399 Grove St,Newton Lower Falls,MA,(617) 454-3399,42.3342402,-71.2551436,Restaurants
Connies Stagecoach,95,95 Elm St,Salisbury,MA,(978) 465-3543,42.843128,-70.876468,Restaurants
Skip's Snack Bar,92,92 E Main St,Merrimac,MA,(978) 346-8686,42.8386026,-70.9896186,Restaurants
Blue Latitudes,431,431 Central Ave,Dover,NH,(603) 750-4222,43.19719559,-70.87385789,Restaurants
Dover Brick House,2,2 Orchard St,Dover,NH,(603) 749-3838,43.195703,-70.874859,Restaurants
Bellinos Trattoria,146,146 Lowell St,Wakefield,MA,(781) 246-7666,42.523662,-71.078807,Restaurants
Another Cup,1,1 Nassau St,Boston,MA,(857) 284-7697,42.3486963,-71.0633539,Restaurants
Markoh's On Main,43,43 Main St,Ayer,MA,(978) 796-5260,42.5597428,-71.5884182,Restaurants
Silvertone Bar & Grill,69,69 Bromfield St,Boston,MA,(617) 338-7887,42.3571399,-71.0609295,Restaurants
Nick's Place,195,195 Lowell St,Lawrence,MA,(978) 655-3973,42.707233,-71.168944,Restaurants
Tasty Burger,145,145 Dartmouth St Ste 1,Boston,MA,(617) 425-4444,42.347378,-71.074841,Restaurants
Off the Common,50,50 Park Plz,Boston,MA,(617) 457-2330,42.3512687,-71.0693763,Restaurants
Yard House,126,126 Brookline Ave Ste 201,Boston,MA,(617) 236-4083,42.346038,-71.100209,Restaurants
R F Osullivans,151,151 Central Ave,Lynn,MA,(339) 440-4564,42.4644997,-70.9500309,Restaurants
Shake Shack,226,226 Legacy Pl,Dedham,MA,(781) 326-0336,42.231292,-71.17668,Restaurants
Moonshine 152,152,152 Dorchester Ave,South Boston,MA,(617) 752-4191,42.3418004,-71.0568307,Restaurants
Flaming Grill & Buffet,31,31 Furlong Dr,Revere,MA,(781) 289-8888,42.3972437,-71.0009446,Restaurants
Branch Line Restaurant,321,321 Arsenal St,Watertown,MA,(617) 393-2336,42.3627596,-71.1646781,Restaurants
Nixs Mate,89,89 Broad St,Boston,MA,(617) 556-0006,42.357322,-71.053231,Restaurants
Greenhouse Kitchen,435,435 Faneuil St,Brighton,MA,(617) 903-3097,42.3512383,-71.1683512,Restaurants
Vesuvius,2,2 Paradise Rd,Salem,MA,(978) 594-8886,42.486338,-70.90055,Restaurants
Coppersmith LLC,40,40 W 3rd St,South Boston,MA,(617) 269-0362,42.3423213,-71.0538359,Restaurants
Five Guys,227,227 Andover St,Peabody,MA,(978) 717-5416,42.5465485,-70.9464334,Restaurants
Tavern On The Wharf,6,6 Town Wharf,Plymouth,MA,(508) 927-4961,41.9619169,-70.6671165,Restaurants
Ocean Prime,140,140 Seaport Blvd,Boston,MA,(617) 670-1345,42.35194408,-71.04536099,Restaurants
OAK Long Bar Kitchen,138,138 Saint James Ave,Boston,MA,(617) 585-7222,42.349314,-71.07638,Restaurants
Water Cafe at the Institute of,100,100 Northern Ave,Boston,MA,(617) 478-3291,42.3523709,-71.0435409,Restaurants
Corner Stop Eatery,235,235 Hull St,Cohasset,MA,(781) 875-3065,42.259337,-70.844924,Restaurants
Nibblesworth,409,409 The Hl,Portsmouth,NH,(603) 427-8172,43.07874054,-70.76012386,Restaurants
Balaji Foods,495,495 Worcester Rd,Framingham,MA,(508) 532-1035,42.298206,-71.4164044,Restaurants
Steves Kitchen,120,120 Harvard Ave,Allston,MA,(617) 254-9457,42.3525009,-71.131756,Restaurants
Globe Bar & Grill,384,384 Boylston St,Boston,MA,(617) 778-6993,42.351348,-71.071902,Restaurants
Wild Willys Burgers,46,46 Arsenal St,Watertown,MA,(617) 926-9700,42.365238,-71.181766,Restaurants
India Pavilion Restaurant,17,17 Central Sq,Cambridge,MA,(617) 547-7463,42.365405,-71.104795,Restaurants
Melissa's Main Street Bistro,407,407 Main St,Stoneham,MA,(781) 438-7243,42.4789414,-71.1005359,Restaurants
Ashmont Grill,555,555 Talbot Ave,Dorchester Center,MA,(617) 825-4300,42.286078,-71.06473,Restaurants
Salty Pig,130,130 Dartmouth St Ste 2,Boston,MA,(617) 536-6200,42.346393,-71.075844,Restaurants
Fireside Restaurant,171,171 Pelham St,Methuen,MA,(978) 683-2945,42.729238,-71.208108,Restaurants
Forged Baking Co,626,626 Somerville Ave,Somerville,MA,(617) 764-5365,42.3838441,-71.1109394,Restaurants
Foundry On Elm,255,255 Elm St,Somerville,MA,(617) 628-4445,42.395576,-71.121803,Restaurants
Tikki Masala,3706,3706 Washington St,Jamaica Plain,MA,(617) 942-2966,42.30036,-71.112971,Restaurants
Country Kitchen,738,738 Blue Hill Ave,Dorchester,MA,(617) 822-0500,42.299798,-71.086133,Restaurants
Feajao Mineiro Restaurant,111,111 Washington St,Quincy,MA,(617) 934-1662,42.250194,-70.999022,Restaurants
Chefs of The Old World,143,143 Jackson St,Methuen,MA,(978) 685-0652,42.727855,-71.162087,Restaurants
Asados Dona Flor,197,197 High St,Lowell,MA,(978) 452-0175,42.64262,-71.3012156,Restaurants
Friendly Toast,121,121 Congress St,Portsmouth,NH,(603) 430-2154,43.076282,-70.759879,Restaurants
LongHorn Steakhouse,39,39 Walkers Brook Dr,Reading,MA,(781) 942-4801,42.519001,-71.094606,Restaurants
Top of The Hub,800,800 Boylston St Fl 52,Boston,MA,(617) 536-1775,42.34829638,-71.08342828,Restaurants
Brothers Roast Beef & Pizza,506,506 Washington St Ste 1,Abington,MA,(781) 878-9191,42.1063074,-70.9460145,Restaurants
Sarku,300,300 Mishawum Rd Ste 17,Woburn,MA,(781) 933-2128,42.505525,-71.13321,Restaurants
Metropolis Cafe,584,584 Tremont St,Boston,MA,(617) 247-2931,42.343238,-71.072545,Restaurants
Topside Grill,50,50 Rogers St,Gloucester,MA,(978) 281-1399,42.6121741,-70.6630198,Restaurants
Oggi Gourmet Foods,30,30 Dunster St,Cambridge,MA,(617) 492-6444,42.372401,-71.119145,Restaurants
Chateau Restaurant Westboro,195,195 School St,Waltham,MA,(508) 366-5959,42.3785019,-71.2393804,Restaurants
Spike's Junkyard Dogs,108,108 Brighton Ave,Allston,MA,(617) 266-0909,42.352536,-71.130423,Restaurants
Kevin's Club House Restaurant,265,265 S Meadow Rd Ste A,Plymouth,MA,(508) 746-5911,41.9108487,-70.7359232,Restaurants
Arbat Restaurant Inc,20,20 Linden St Ste 221,Allston,MA,(617) 254-0001,42.355594,-71.130685,Restaurants
Jimbos Famous Roast Beef & Seafood,616,616 Main St Ste 1,Tewksbury,MA,(978) 851-3266,42.618153,-71.249535,Restaurants
Hagans Grill,6,6 High St,Hampton,NH,(603) 926-5668,42.9418641,-70.8375982,Restaurants
Wing Itz,2100,2100 Lafayette Rd,Portsmouth,NH,(603) 436-9464,43.0370063,-70.7788028,Restaurants
LongHorn Steakhouse,1910,1910 Andover St,Tewksbury,MA,(978) 640-5813,42.643064,-71.227062,Restaurants
Masala Art,990,990 Great Plain Ave,Needham,MA,(781) 449-4050,42.279932,-71.236521,Restaurants
Brothers Roast Beef Two,148,148 Washington St,Weymouth,MA,(781) 331-5551,42.2174533,-70.965001,Restaurants
City Slicker Cafe,588,588 Somerville Ave,Somerville,MA,(617) 625-0700,42.383677,-71.109014,Restaurants
Tavolo,1918,1918 Dorchester Ave,Dorchester Center,MA,(617) 822-1918,42.283981,-71.064514,Restaurants
As Good As It Gets,35,35 Lowell St Ste 8,Wilmington,MA,(978) 988-3888,42.541707,-71.165211,Restaurants
Robins Nest Ice Cream,423,423 High St,Rochester,MA,(508) 295-6992,41.7780707,-70.7872565,Restaurants
Doo Wop Diner,269,269 Main St,Malden,MA,(781) 324-9441,42.423812,-71.067187,Restaurants
Middlesex Lounge Restaurant,315,315 Massachusetts Ave,Cambridge,MA,(617) 868-6739,42.3625397,-71.0984529,Restaurants
Orinoco Restaurant,477,477 Shawmut Ave,Boston,MA,(617) 369-7075,42.338934,-71.075986,Restaurants
Foleys Backstreet Grille,531,531 Pearl St,Stoughton,MA,(781) 297-0100,42.138344,-71.113763,Restaurants
Jimbo's Famous Roast Beef,454,454 Main St,Reading,MA,(781) 944-0588,42.521373,-71.103538,Restaurants
Hawgs Pen Cafe,1114,1114 Nh Route 11,Farmington,NH,(603) 755-3301,43.3937927,-71.0970226,Restaurants
Next Page Cafe,550,550 Broad St,East Weymouth,MA,(781) 340-1300,42.217757,-70.937202,Restaurants
Cosmos Restaurant,136,136 Rabbit Rd,Salisbury,MA,(978) 462-7070,42.867687,-70.885659,Restaurants
Peruvian Place,55,55 City Hall Plz,Brockton,MA,(508) 580-0147,42.0819864,-71.0184547,Restaurants
Hen House,1033,1033 Massachusetts Ave,Boston,MA,(617) 442-9464,42.3271214,-71.0678717,Restaurants
La Hacienda Restaurant,150,150 Meridian St,East Boston,MA,(617) 561-3737,42.373978,-71.039232,Restaurants
Ferry Street Grille,108,108 Ferry St,Everett,MA,(617) 389-3900,42.40776,-71.046739,Restaurants
Baseball Tavern Inc,1270,1270 Boylston St,Boston,MA,(617) 867-6526,42.344648,-71.096299,Restaurants
Keons 105 Bistro,105,105 Washington St,Haverhill,MA,(978) 521-0112,42.77295,-71.085518,Restaurants
Campys,531,531 Federal Furnace Rd,Plymouth,MA,(508) 747-4708,41.913068,-70.710801,Restaurants
LongHorn Steakhouse,125,125 Church St,Pembroke,MA,(781) 826-4833,42.1059949,-70.7718543,Restaurants
Fat Cat Restaurant,24,24 Chestnut St,Quincy,MA,(617) 471-4363,42.249938,-71.001294,Restaurants
Steves Diner,100,100 Portsmouth Ave,Exeter,NH,(603) 772-5733,42.988388,-70.934304,Restaurants
Cottage Wellesley,190,190 Linden St,Wellesley,MA,(781) 239-1100,42.300648,-71.291501,Restaurants
Golden Banana,151,151 Newbury St,Peabody,MA,(978) 536-9700,42.5384596,-70.9865989,Restaurants
Johnnies On The Side,138,138 Portland St,Boston,MA,(617) 227-1588,42.363669,-71.061342,Restaurants
Charlies,14,14 Cabot St,Lowell,MA,(978) 937-3737,42.648072,-71.319492,Restaurants
Omelette Factory,131,131 Rantoul St Ste 1,Beverly,MA,(978) 922-0494,42.5463875,-70.883878,Restaurants
D & D Restaurant,3141,3141 Washington St,Jamaica Plain,MA,(617) 522-1111,42.314174,-71.100262,Restaurants
Shoppers Cafe,731,731 Moody St Ste 12,Waltham,MA,(781) 893-1180,42.3637991,-71.2390158,Restaurants
Fit-Zys Bar & Grill,451,451 Main St,Watertown,MA,(617) 923-3969,42.3710945,-71.1950077,Restaurants
Dbar,1236,1236 Dorchester Ave,Dorchester,MA,(617) 265-4490,42.308421,-71.058025,Restaurants
Castaways,31,31 Cocheco St,Dover,NH,(603) 834-6030,43.1978601,-70.8694118,Restaurants
Wild Willys Burgers,724,724 Columbus Ave,Rochester,NH,(603) 332-1193,43.2872917,-70.9769625,Restaurants
Solstice,63,63 Summer St,Kingston,MA,(781) 585-2221,41.998326,-70.730128,Restaurants
Cygnet,24,24 West St Ste 5,Beverly,MA,(978) 922-9221,42.5624753,-70.8135485,Restaurants
Westbury Farms Family Restaurant,997,997 Boston Providence Tpke,Norwood,MA,(781) 769-9086,42.1776937,-71.1927976,Restaurants
Taco Mex,65,65 Maverick Sq,East Boston,MA,(617) 569-2838,42.36969,-71.038647,Restaurants
Restaurants Luanda,453,453 Centre St,Brockton,MA,(508) 427-1649,42.084331,-71.000689,Restaurants
LongHorn Steakhouse,59,59 Plaistow Rd,Haverhill,MA,(978) 556-9720,42.81273708,-71.10228827,Restaurants
Bob Lobster,49,49 Plum Island Tpke,Newbury,MA,(978) 465-7100,42.796844,-70.831659,Restaurants
Herritage of Sherborn,33,33 N Main St,Sherborn,MA,(508) 655-8445,42.246693,-71.369427,Restaurants
Old Magouns Saloon,518,518 Medford St,Somerville,MA,(617) 776-2600,42.396698,-71.104109,Restaurants
La Chiva Restaurant,259,259 Bennington St,East Boston,MA,(617) 569-6200,42.378253,-71.029544,Restaurants
Restaurante Monte Cristo,36,36 Central Sq,East Boston,MA,(617) 561-6046,42.375461,-71.038863,Restaurants
The Nook Breakfast & Lunch,2,2 Locust St,Dover,NH,(603) 749-4673,43.19494712,-70.87514273,Restaurants
Independent,75,75 Union Sq,Somerville,MA,(617) 440-6021,42.379834,-71.094786,Restaurants
Sabor De Minas Restaurant,240,240 Howard St,Framingham,MA,(508) 875-0202,42.278316,-71.413213,Restaurants
Miguelina Restaurant,154,154 Essex St,Lawrence,MA,(978) 975-3378,42.7075305,-71.1573521,Restaurants
Finnegans Pub,25,25 South St Ste 5,Hudson,MA,(978) 567-7961,42.3902327,-71.5687904,Restaurants
Trackside Bar & Grill,30,30 Warren St,Peabody,MA,(978) 531-1047,42.529986,-70.9305812,Restaurants
Roasted Peppers,65,65 Main St,Maynard,MA,(978) 461-9932,42.4324018,-71.4530025,Restaurants
Gracies Kitchen,39,39 Emerson Rd Ste 108,Waltham,MA,(781) 899-3600,42.381741,-71.238314,Restaurants
Wildfire Barbecue,20,20 Pleasant St,Millis,MA,(508) 376-5810,42.162506,-71.365684,Restaurants
Golden Ginger,225,225 Main St,Wilmington,MA,(978) 988-3999,42.5557736,-71.1823557,Restaurants
Grill Next Door,653,653 Broadway,Haverhill,MA,(978) 241-7337,42.784988,-71.127523,Restaurants
Sandi Rose Cafe,450,450 E Center St Ste 1,West Bridgewater,MA,(508) 580-3447,42.0200537,-70.984058,Restaurants
Madison Grill,208,208 Rantoul St,Beverly,MA,(978) 921-2017,42.5485446,-70.8841582,Restaurants
Balis,59,59 Essex St,Lawrence,MA,(978) 725-0101,42.707953,-71.154892,Restaurants
Kellys Restaurant,110,110 Washington St,Canton,MA,(781) 821-0099,42.141294,-71.148984,Restaurants
Georges Coffee Shop,178,178 Washington St,Gloucester,MA,(978) 281-1910,42.6185096,-70.6718718,Restaurants
Cityside Diner,275,275 Cabot St,Beverly,MA,(978) 922-9080,42.5510481,-70.8781106,Restaurants
West Street Tavern,7,7 West St,Newton,MA,(617) 795-0883,42.360191,-71.201074,Restaurants
Eat at Jumbos,688,688 Broadway,Somerville,MA,(617) 666-0000,42.3996179,-71.111834,Restaurants
Ipswich Sports Bar & Grill,24,24 Hammatt St,Ipswich,MA,(978) 356-7444,42.67932581,-70.84060276,Restaurants
Onion Town Grill,175,175 Water St,Danvers,MA,(978) 774-3343,42.543066,-70.920151,Restaurants
Matts Blackboard Restaurant & Catering,565,565 Rounseville Rd Unit 2,Rochester,MA,(508) 763-8544,41.732761,-70.821266,Restaurants
The Lower Depths,476,476 Commonwealth Ave Ste 1,Boston,MA,(617) 266-6662,42.34854,-71.093855,Restaurants
The Cheesecake Factory,250,250 Granite St Ste 88,Braintree,MA,(781) 849-1001,42.2220443,-71.0227762,Restaurants
Mcgreevys,911,911 Boylston St,Boston,MA,(617) 262-0911,42.348434,-71.084405,Restaurants
Rincon Limeno,409,409 Chelsea St,East Boston,MA,(617) 569-4942,42.379856,-71.026889,Restaurants
Blue Blinds Bakery,7,7 North St,Plymouth,MA,(508) 747-0462,41.9572156,-70.6645382,Restaurants
Back Yard Burgers,61,61 Mechanic St Ste A,Bellingham,MA,(508) 966-2938,42.084591,-71.472092,Restaurants
Grangusto at the Brickyard,90,90 Sherman St Ste A,Cambridge,MA,(617) 441-0400,42.388737,-71.132334,Restaurants
Fitzys,1250,1250 Lawrence St,Lowell,MA,(978) 458-9339,42.624079,-71.288441,Restaurants
Harringtons,17,17 Water St,Wakefield,MA,(781) 245-1525,42.502331,-71.068749,Restaurants
Oharas Tavern,1734,1734 Lakeview Ave Ste 21,Dracut,MA,(978) 957-0271,42.678376,-71.342202,Restaurants
Laudis Breakfast House,34,34 Broadway Rd,Dracut,MA,(978) 452-8767,42.6726182,-71.2958527,Restaurants
Gormley's Cafe,139,139 E Merrimack St,Lowell,MA,(978) 452-8134,42.644463,-71.303019,Restaurants
Maguires Tavern,1794,1794 Bridge St Ste 33a,Dracut,MA,(978) 452-0500,42.6844366,-71.310869,Restaurants
The Breakfast Club,270,270 Western Ave,Allston,MA,(617) 783-1212,42.3632499,-71.1335552,Restaurants
Teatro,177,177 Tremont St Ste 1,Boston,MA,(617) 778-6841,42.3529618,-71.0640698,Restaurants
Park Square Cafe,31,31 Saint James Ave Ste L15,Boston,MA,(617) 451-3868,42.3508845,-71.0718857,Restaurants
Center Cafe,1027,1027 Great Plain Ave,Needham,MA,(781) 455-8800,42.280509,-71.237477,Restaurants
Five Guys,1207,1207 Washington St Ste 50,Hanover,MA,(781) 829-6770,42.138139,-70.84112,Restaurants
Mombo Restaurant,66,66 Marcy St,Portsmouth,NH,(603) 433-2340,43.076487,-70.752416,Restaurants
Loretta,15,15 Pleasant St,Newburyport,MA,(978) 463-0000,42.8097794,-70.8709908,Restaurants
One Family Diner,260,260 Bowdoin St,Dorchester,MA,(617) 436-1577,42.306779,-71.0667,Restaurants
Petes Dockside,12,12 Channel St Ste 104,Boston,MA,(617) 423-1110,42.345547,-71.036966,Restaurants
Casa Real,860,860 Dorchester Ave,Dorchester,MA,(617) 282-3135,42.321473,-71.0566429,Restaurants
Cheers Retail,1,1 Faneuil Hall Market Pl,Boston,MA,(617) 227-1630,42.35976723,-71.05346139,Restaurants
Ella's,3136,3136 Cranberry Hwy,East Wareham,MA,(508) 759-3600,41.753727,-70.636332,Restaurants
Guanachapis Bar N Grill,154,154 River St,Waltham,MA,(781) 891-3535,42.370101,-71.222043,Restaurants
Ninety Nine Restaurant & Pub,401,401 Main St,Tewksbury,MA,(978) 863-9099,42.620031,-71.259603,Restaurants
City Table,61,61 Exeter St,Boston,MA,(617) 933-4800,42.34944066,-71.07966728,Restaurants
IHOP,260,260 Providence Hwy,Dedham,MA,(781) 326-0719,42.2550606,-71.17079254,Restaurants
Magic Pan Restaurant,75,75 Middlesex Tpke,Burlington,MA,(781) 272-3660,42.482397,-71.2137453,Restaurants
Putterham Grille,1012,1012 W Roxbury Pkwy,Chestnut Hill,MA,(617) 327-2202,42.30390867,-71.15203584,Restaurants
Texas Roadhouse,102,102 Boston Providence Hwy,Walpole,MA,(508) 668-1818,42.15638,-71.21323,Restaurants
Legal Sea Foods,50,50 Worcester Rd,Framingham,MA,(508) 766-0600,42.29902169,-71.39491592,Restaurants
Seaglass Restaurant & Lounge,4,4 Ocean Front N,Salisbury,MA,(978) 462-5800,42.843468,-70.816143,Restaurants
Redneck's Roast Beef,140,140 Brighton Ave,Allston,MA,(617) 782-9444,42.352727,-71.131679,Restaurants
Home Sweet Home,764,764 Boston Rd,Billerica,MA,(978) 667-0247,42.536266,-71.236732,Restaurants
Lexx Restaurant,1666,1666 Massachusetts Ave Ste 102,Lexington,MA,(781) 674-2990,42.446338,-71.225912,Restaurants
Starlight Roof Lounge,575,575 Commonwealth Ave,Boston,MA,(617) 267-6059,42.3494773,-71.0984612,Restaurants
Met Back Bay,279,279 Dartmouth St,Boston,MA,(617) 267-0451,42.3511373,-71.0775812,Restaurants
Bar Bouyloud,776,776 Boylston St,Boston,MA,(617) 535-8888,42.34879,-71.081017,Restaurants
Montecristo,116,116 Central Ave,Lynn,MA,(781) 593-1548,42.464245,-70.950176,Restaurants
Five Guys,67,67 Main St,Stoneham,MA,(781) 438-8002,42.496545,-71.101225,Restaurants
Legal Sea Foods,161,161 Prescott St,East Boston,MA,(617) 568-2800,42.3759974,-71.0264512,Restaurants
Kings Bowl of Dedham,600,600 Legacy Pl,Dedham,MA,(781) 329-6000,42.2295482,-71.1765735,Restaurants
Wild Duck Wine & Spirits,96,96 Salem St,Boston,MA,(617) 248-8893,42.3640352,-71.0557605,Restaurants
49 Social,49,49 Temple Pl,Boston,MA,(617) 338-9600,42.354906,-71.061871,Restaurants
Acitron Mexican Bistro,473,473 Massachusetts Ave,Arlington,MA,(781) 777-2839,42.415226,-71.152039,Restaurants
Main Street Sports,39,39 Main St,Plymouth,MA,(774) 283-4129,41.956549,-70.664211,Restaurants
Max Brenner,745,745 Boylston St Lbby 2,Boston,MA,(617) 274-1741,42.349461,-71.080468,Restaurants
Farmers Kitchen,444,444 Route 11,Farmington,NH,(603) 755-9900,43.36985613,-71.04521092,Restaurants
Bergamot,118,118 Beacon St,Somerville,MA,(617) 576-7700,42.377989,-71.106366,Restaurants
Cafe 472,472,472 Commonwealth Ave Ste 2,Boston,MA,(617) 236-4949,42.3485603,-71.09367,Restaurants
Elephant & Castle Restaurant,161,161 Devonshire St,Boston,MA,(617) 350-9977,42.356338,-71.057501,Restaurants
Legal Sea Foods,55,55 Boylston St,Chestnut Hill,MA,(617) 277-7300,42.322694,-71.170167,Restaurants
Big Dipper,23,23 Lake Ave,Amesbury,MA,(508) 693-4845,42.8610735,-70.93657132,Restaurants
Hooters,1143,1143 Broadway,Saugus,MA,(339) 600-7311,42.467266,-71.026026,Restaurants
Rudder Restaurant,73,73 Rocky Neck Ave,Gloucester,MA,(978) 283-7967,42.6073307,-70.6561937,Restaurants
Bondir Restaurant,279A,279a Broadway,Cambridge,MA,(617) 661-0009,42.3682873,-71.097767,Restaurants
TGI Fridays,90,90 Pleasant Valley St Ste 500,Methuen,MA,(978) 794-8443,42.7436254,-71.1583764,Restaurants
Atlantica Restaurant,40,40 Border St,Cohasset,MA,(781) 383-2203,42.23976988,-70.79150004,Restaurants
Zuzu's Cafe & Catering,316,316 Main St,Wakefield,MA,(781) 245-3035,42.505294,-71.071203,Restaurants
Mick Morgans Pub & Restaurant,973,973 Providence Hwy,Sharon,MA,(781) 806-0066,42.1239611,-71.2308491,Restaurants
Five Guys,61,61 Crystal Ave Unit 1a,Derry,NH,(603) 818-8290,42.893391,-71.325978,Restaurants
Restaurant Oro,227,227 Chief Justice Cushing Hwy,Scituate,MA,(781) 378-2465,42.1743174,-70.7495108,Restaurants
Hingham Beer Works,18,18 Shipyard Dr Ste 1k,Hingham,MA,(781) 749-2337,42.249573,-70.922905,Restaurants
Londis Famous Roast Beef & Pizza,85,85 Wilmington Rd Ste 3,Burlington,MA,(781) 273-3344,42.529643,-71.205837,Restaurants
TGI Fridays,1626,1626 Tremont St,Roxbury Crossing,MA,(617) 734-1047,42.3337134,-71.1047312,Restaurants
Kelley Row,417,417 Route 108,Somersworth,NH,(603) 692-2200,43.26849454,-70.90930171,Restaurants
Foobar Restaurant,21,21 Congress St,Portsmouth,NH,(603) 373-8973,43.0768273,-70.7586362,Restaurants
Back Bay Social Club,867,867 Boylston St Lbby,Boston,MA,(617) 247-3200,42.348739,-71.083456,Restaurants
Depot Street Market,35,35 Depot St,Duxbury,MA,(781) 934-2863,42.0248988,-70.6830342,Restaurants
The Cheesecake Factory,210,210 Andover St Ste Rr01,Peabody,MA,(978) 538-7599,42.5413325,-70.9439351,Restaurants
Kkaties Burger Bar,38,38 Main Street Ext,Plymouth,MA,(774) 773-9444,41.9548654,-70.6624021,Restaurants
Five Guys,95,95 Washington St Ste 206,Canton,MA,(781) 828-4204,42.140571,-71.1477471,Restaurants
Burroughs Restaurant,27,27 Burroughs St,Jamaica Plain,MA,(617) 522-3329,42.3127289,-71.115536,Restaurants
Mangoes Marlboro,331,331 Boston Post Rd E,Marlborough,MA,(508) 251-0682,42.34898734,-71.51739298,Restaurants
Saus LLC,33,33 Union St,Boston,MA,(617) 248-8835,42.360633,-71.056633,Restaurants
Millennium Restaurant & Grill,3094,3094 Washington St,Roxbury,MA,(617) 522-0505,42.315123,-71.098667,Restaurants
Chop Shop,920,920 Lafayette Rd,Seabrook,NH,(603) 760-7706,42.902478,-70.868049,Restaurants
Red Rooster Pub LLC,510,510 Washington St,Wrentham,MA,(508) 384-6669,42.0552963,-71.2990099,Restaurants
Players Sports Bar & Grill,86,86 Vfw Dr,Rockland,MA,(781) 681-9999,42.14692415,-70.91827218,Restaurants
Angry Hams Garage,2,2 Beacon St,Framingham,MA,(508) 620-8888,42.298837,-71.409299,Restaurants
Ravens Nest,998,998 Main St,Walpole,MA,(508) 734-9377,42.1450103,-71.2533709,Restaurants
Hen House Sports Bar,85,85 S Main St Unit 4,Newton,NH,(603) 382-1705,42.85572986,-71.04407076,Restaurants
Season To Taste Catering,2447,2447 Massachusetts Ave,Cambridge,MA,(617) 250-8627,42.3983834,-71.1309924,Restaurants
Casey's Pub,81,81 Railroad St,Holliston,MA,(508) 429-4888,42.2009882,-71.4242994,Restaurants
Station Diner,70,70 Union St,Newton Center,MA,(617) 244-2550,42.329504,-71.192599,Restaurants
Brickyard,371,371 Main St Ste 1,Woburn,MA,(781) 935-6699,42.4797478,-71.1514699,Restaurants
Brant Rock Hop,269,269 Ocean St,Marshfield,MA,(781) 536-8483,42.09099666,-70.64459792,Restaurants
City Streets Restaurant,411,411 Waverley Oaks Rd Ste 135,Waltham,MA,(781) 647-2489,42.3864779,-71.20378,Restaurants
Scholars American Bistro,25,25 School St,Boston,MA,(617) 248-0025,42.3577373,-71.0590712,Restaurants
La Carreta Derry,35,35 Manchester Rd Ste 5a,Derry,NH,(603) 421-0091,42.900371,-71.33503,Restaurants
Tasty Burger Corporation,1301,1301 Boylston St,Boston,MA,(617) 425-4444,42.344664,-71.098663,Restaurants
Port 305,305,305 Victory Rd,Quincy,MA,(617) 302-4447,42.2990309,-71.0290729,Restaurants
Red Robin Gourmet Burgers and Brews,2421,2421 Cranberry Hwy Ste 350,Wareham,MA,(508) 273-0441,41.7746009,-70.7446155,Restaurants
Five Guys,170,170 Providence Hwy,Dedham,MA,(781) 326-1158,42.26118886,-71.16886706,Restaurants
Pollo Royal Restaurant,529,529 Broadway,Revere,MA,(781) 284-6039,42.412265,-71.010462,Restaurants
The Cheesecake Factory,75,75 Middlesex Tpke Ste 1067a,Burlington,MA,(781) 273-0060,42.482397,-71.2137453,Restaurants
Five Guys,7,7 Warren St Ste 12,Randolph,MA,(781) 963-0600,42.1659568,-71.0438062,Restaurants
Chili's Grill & Bar,1040,1040 Revere Beach Pkwy,Chelsea,MA,(617) 884-7960,42.4040629,-71.0219174,Restaurants
Chili's Grill & Bar,403,403 Lafayette Rd,Seabrook,NH,(603) 474-3597,42.885742,-70.870217,Restaurants
Chili's Grill & Bar,2885,2885 Cranberry Hwy,East Wareham,MA,(508) 295-2800,41.759447,-70.66834,Restaurants
Chili's Grill & Bar,726,726 W Center St,West Bridgewater,MA,(508) 427-9906,42.011256,-71.051251,Restaurants
Dudley Chateau LLC,20,20 Crest Rd,Wayland,MA,(508) 655-0010,42.330462,-71.366942,Restaurants
Chili's Grill & Bar,70,70 Walkers Brook Dr,Reading,MA,(781) 942-4670,42.518674,-71.091925,Restaurants
Comella's,1095,1095 Great Plain Ave,Needham,MA,(781) 444-2600,42.28035713,-71.23909,Restaurants
50's Diner,47,47 Legacy Blvd,Dedham,MA,(781) 326-1955,42.2338444,-71.1784575,Restaurants
Gaff,467,467 Moody St,Waltham,MA,(781) 209-5600,42.3682779,-71.237645,Restaurants
Big-N-Beefy,415,415 Broadway,Lawrence,MA,(978) 687-9582,42.71325969,-71.17484585,Restaurants
Pellana,9,9 Sylvan St,Peabody,MA,(978) 531-4800,42.5468097,-70.9436044,Restaurants
Pizzings Pizza & Wings,1035,1035 Bedford St Ste 7,Abington,MA,(781) 792-0003,42.132471,-70.94963,Restaurants
The Cheesecake Factory,1245,1245 Worcester St Ste 1098,Natick,MA,(508) 653-0011,42.3004711,-71.3857931,Restaurants
Legal Sea Foods,100,100 Huntington Ave Ste 77,Boston,MA,(617) 266-7775,42.347042,-71.077828,Restaurants
The Cheesecake Factory,115,115 Huntington Ave,Boston,MA,(617) 399-7777,42.345873,-71.0815,Restaurants
Jerne Restaurant & Bar,10,10 Avery St,Boston,MA,(617) 574-7175,42.3531051,-71.0633399,Restaurants
Chunkys Cinema Pub,371,371 Lowell Ave,Haverhill,MA,(978) 374-2255,42.7752756,-71.1161164,Restaurants
Cappys Copper Kettle,245,245 Central St,Lowell,MA,(978) 735-4866,42.6421626,-71.3089345,Restaurants
Stephis On Tremont,571,571 Tremont St,Boston,MA,(617) 236-2063,42.343655,-71.072667,Restaurants
Tony C's,1265,1265 Boylston St,Boston,MA,(617) 236-7369,42.345268,-71.09638,Restaurants
Mass Chicken,736,736 Massachusetts Ave,Cambridge,MA,(617) 234-4450,42.366091,-71.105312,Restaurants
Original Soup Man,350,350 Longwood Ave,Boston,MA,(617) 383-6419,42.3384273,-71.1068512,Restaurants
House of Blues,15,15 Lansdowne St,Boston,MA,(888) 693-2583,42.347389,-71.09572,Restaurants
Blue Ox,191,191 Oxford St,Lynn,MA,(781) 780-5722,42.463255,-70.94762,Restaurants
Ten Tables Cambridge,5,5 Craigie Cir,Cambridge,MA,(617) 576-5444,42.379349,-71.12761,Restaurants
Summer Winter Restaurant,1,1 Mall Rd,Burlington,MA,(781) 221-6643,42.49112473,-71.19444943,Restaurants
O BS Cafe,74,74 Billings Rd,Quincy,MA,(617) 472-2777,42.2743379,-71.0242349,Restaurants
Brothers Roastbeef & Pizza,1610,1610 Hancock St,Quincy,MA,(617) 774-1110,42.246496,-71.000426,Restaurants
Tri City Wings & Grill,197,197 North St,Newtonville,MA,(617) 244-8220,42.365626,-71.217912,Restaurants
Walnut Place Roast Beef & Pizza,80 1/2,80 1/2 Walnut St,Peabody,MA,(978) 531-1821,42.52596629,-70.9201075,Restaurants
Restaurant Bar & Grille,489,489 Main St,Woburn,MA,(781) 935-2511,42.4826152,-71.1506022,Restaurants
John Brewers Tavern,7,7 Highland Ave,Malden,MA,(781) 324-8800,42.4152129,-71.0784054,Restaurants
TGI Fridays,2,2 Hawes Way,Stoughton,MA,(781) 341-1712,42.153514,-71.072684,Restaurants
Parish Cafe,493,493 Massachusetts Ave Apt 1,Boston,MA,(617) 236-7950,42.339295,-71.080815,Restaurants
Moore Dogs,8,8 Main St,Carver,MA,(508) 866-5342,41.9034873,-70.7898741,Restaurants
Grill Fifty Eight,284,284 Monponsett St,Halifax,MA,(781) 293-6665,41.9941453,-70.8439169,Restaurants
Regal Beagle,308,308 Harvard St,Brookline,MA,(617) 739-5151,42.343058,-71.123306,Restaurants
Dick's Last Resort,1,1 Faneuil Hall Sq,Boston,MA,(617) 742-1764,42.360039,-71.056238,American Restaurants
Texas Roadhouse,301,301 Newbury St Ste 13,Danvers,MA,(978) 646-9201,42.584764,-70.964693,Restaurants
Halligan Tavern,32,32 W Broadway,Derry,NH,(603) 965-3490,42.879732,-71.327893,Restaurants
Grandmas Chicken Soup,30,30 Commerce Way Ste 2,Woburn,MA,(781) 503-0066,42.507575,-71.132204,Restaurants
Polcaris Bridgwaye Inn,1265,1265 Ferry St,Marshfield,MA,(781) 834-2020,42.137583,-70.694536,Restaurants
Burtons Grill,210,210 Andover St Ste Ll23,Peabody,MA,(978) 977-0600,42.5413325,-70.9439351,Restaurants
Landing Restaurant,81,81 Front St,Marblehead,MA,(781) 631-1878,42.5042918,-70.8468997,Restaurants
Connies Restaurant,270,270 Main St,Hanson,MA,(781) 294-8988,42.0433042,-70.8519179,Restaurants
Stewarts,140,140 Jefferson Ave,Everett,MA,(617) 381-0563,42.4135975,-71.0401226,Restaurants
Viet-Thai Restaurant,368,368 Merrimack St,Lowell,MA,(978) 446-0977,42.645907,-71.314217,Restaurants
Los Paisanos Restaurant,62,62 Broadway,Somerville,MA,(617) 629-3502,42.386555,-71.080745,Restaurants
Viva Mi Arepa,5197,5197 Washington St,West Roxbury,MA,(617) 323-7844,42.2614525,-71.1572876,Restaurants
Birch Street Bistro,14,14 Birch St,Roslindale,MA,(617) 323-2184,42.286819,-71.129869,Restaurants
Museum Cafe,150,150 Essex St,Salem,MA,(978) 740-4551,42.52200921,-70.89253088,Restaurants
Metropolitan Catering Co Inc,313,313 Littleton Rd,Westford,MA,(978) 692-1819,42.555483,-71.444363,Restaurants
Hugh Oneill's Pub & Restaurant,45,45 Pleasant St,Malden,MA,(781) 338-9977,42.4270329,-71.0684053,Restaurants
Tennessees Real BBQ Braintree,174,174 Pearl St,Braintree,MA,(781) 843-0999,42.202696,-70.999329,Restaurants
Garden City Pub,21,21 Enon St,Beverly,MA,(978) 922-9018,42.58492133,-70.88453341,Restaurants
Billys Famous Roast Beef,1291,1291 Main St,Wakefield,MA,(781) 665-2070,42.473593,-71.06191,Restaurants
Peter's Super Beef,1485,1485 N Shore Rd,Revere,MA,(781) 286-5610,42.408717,-70.993788,Restaurants
Curly's Restaurant,150,150 Broadway,Chelsea,MA,(617) 889-5710,42.3894833,-71.040181,Restaurants
Windham Restaurants,59,59 Range Rd,Windham,NH,(603) 870-9270,42.805863,-71.262219,Restaurants
Cristal Restaurant,250,250 Main St,Brockton,MA,(508) 427-6900,42.080674,-71.020032,Restaurants
Nikos Restaurant,948,948 Broad St,East Weymouth,MA,(781) 335-4423,42.21561,-70.922509,Restaurants
Mug-N-Muffin Breakfast,716,716 Washington St,Norwood,MA,(781) 762-8927,42.192102,-71.2018949,Restaurants
The Point,147,147 Hanover St,Boston,MA,(617) 523-7020,42.361735,-71.057067,Restaurants
Mediterranean Grill,281,281 Franklin St,Boston,MA,(617) 338-4507,42.356954,-71.053005,Restaurants
City Table,710,710 Boylston St,Boston,MA,(617) 933-4800,42.3491473,-71.0796196,Restaurants
Oysters Bar & Grille,254,254 Church St Ste 7,Pembroke,MA,(781) 924-5249,42.1078667,-70.7615991,Restaurants
Happy Family China Restaurant,928,928 Hingham St,Rockland,MA,(781) 871-0504,42.1607551,-70.9030061,Restaurants
Five Guys,341,341 Cochituate Rd Ste 7,Framingham,MA,(508) 879-7500,42.301991,-71.40159,Restaurants
Five Horses Tavern,400,400 Highland Ave,Somerville,MA,(617) 764-1655,42.395677,-71.120851,Restaurants
Farm Bar & Grille,25,25 Portland Ave,Dover,NH,(603) 516-3276,43.19663629,-70.87109935,Restaurants
IHOP,200,200 Lynnway,Revere,MA,(781) 289-2425,42.44115229,-70.96705569,Restaurants
IHOP,540,540 Westgate Dr,Brockton,MA,(508) 521-6050,42.09140713,-71.05152,Restaurants
Fuse Bistro,45,45 Palmer St,Lowell,MA,(978) 323-0424,42.644961,-71.3109506,Restaurants
Black Sheep Restaurant at the Kendall Hotel,350,350 Main St,Cambridge,MA,(617) 577-1300,42.362209,-71.08734,Restaurants
Main Street Cafe,182,182 Main St,Marlborough,MA,(508) 485-7664,42.34654543,-71.54939578,Restaurants
Hops N Scotch,1306,1306 Beacon St,Brookline,MA,(617) 232-8808,42.3426698,-71.1205328,Restaurants
Five Guys,58,58 Summer St,Boston,MA,(617) 482-2245,42.354435,-71.058671,Restaurants
Abby Lane,253,253 Tremont St,Boston,MA,(617) 451-2229,42.350488,-71.065334,Restaurants
Assembly,425,425 Hancock St,Quincy,MA,(617) 302-4696,42.272761,-71.02511,Restaurants
Boston Chops,1375,1375 Washington St,Boston,MA,(857) 263-7690,42.341644,-71.069576,Restaurants
Five Guys,37,37 Forbes Rd,Braintree,MA,(781) 848-4897,42.22085004,-71.02921951,Restaurants
Five Guys,15,15 Webb Pl,Dover,NH,(603) 842-4955,43.221415,-70.888677,Restaurants
La Corona,83,83 Farmington Rd,Rochester,NH,(603) 948-1050,43.3330742,-71.00686,Restaurants
Napoli Pizza,643,643 Washington St,Whitman,MA,(781) 332-3663,42.0825096,-70.937545,Restaurants
Victoria Cafe Inc,23,23 Messenger St Ste 1,Plainville,MA,(508) 643-2220,42.008268,-71.30947,Restaurants
Lodge Bar & Grill,1064,1064 N Main St,Randolph,MA,(781) 961-1600,42.191807,-71.060143,Restaurants
282 Cabot Street,282,282 Cabot St,Beverly,MA,(978) 969-3792,42.550935,-70.8785429,Restaurants
Pillory Pub,72,72 Water St,Plymouth,MA,(774) 283-4086,41.9587435,-70.6629263,Restaurants
Grass Fed Restaurant,605,605 Centre St,Jamaica Plain,MA,(617) 553-2278,42.3147977,-71.1142802,Restaurants
New England Clam Bakes & BBQ Co,20,20 Pleasant St,Millis,MA,(508) 376-2026,42.162506,-71.365684,Restaurants
Kings Famous Roast Beef & Seafood,145,145 North St,Salem,MA,(978) 745-7779,42.528824,-70.904086,Restaurants
Maria's Place,10,10 Jefferson Ave,Salem,MA,(978) 744-1817,42.515192,-70.898836,Restaurants
Charlottes Cozy & Kitchen,142,142 Main St,Pepperell,MA,(978) 433-2693,42.6662629,-71.5746195,Restaurants
Pomodori Roast Beef & Pizzeria,146,146 High St Ste A,Ipswich,MA,(978) 356-8800,42.689745,-70.85364,Restaurants
Tucasa Restaurant,403,403 Broadway,Chelsea,MA,(617) 887-0888,42.391942,-71.034987,Restaurants
Gilley's Diner,175,175 Fleet St,Portsmouth,NH,(603) 431-6343,43.077199,-70.759372,Restaurants
Jr's Hideaway,29,29 Food Mart Rd,Boston,MA,(617) 269-7103,42.3369597,-71.0619473,Restaurants
Little Red Smoke House,145,145 S Main St,Carver,MA,(508) 465-0018,41.838047,-70.7501655,Restaurants
Bw's Grill,843,843 Broadway,Revere,MA,(781) 629-3778,42.41822189,-71.00661224,Restaurants
Tastebuds,42,42 Main St,Mattapoisett,MA,(508) 758-8524,41.661848,-70.818879,Restaurants
Opus Salem,87,87 Washington St,Salem,MA,(978) 744-9600,42.5221089,-70.8955213,Restaurants
Billy's Frozen Yogurt,61,61 Crystal Ave,Derry,NH,(603) 216-1416,42.893391,-71.325978,Restaurants
Pizza Market,502,502 Main St,Woburn,MA,(781) 933-3747,42.482425,-71.151009,Restaurants
Society On High,99,99 High St Ste 102,Boston,MA,(857) 350-4555,42.3542673,-71.0548412,Restaurants
Shake Shack,49,49 Boylston St Ste 4,Chestnut Hill,MA,(617) 651-3406,42.3225967,-71.1699838,Restaurants
Trata,49,49 Mount Auburn St,Cambridge,MA,(617) 349-1650,42.371379,-71.116642,Restaurants
Carroll's,21,21 Main St,Medford,MA,(781) 395-3344,42.4179473,-71.1101701,Restaurants
The Common Man,88,88 Range Rd,Windham,NH,(603) 898-0088,42.801438,-71.2705652,Restaurants
Five Guys,43,43 Middlesex Tpke Ste 14,Burlington,MA,(781) 750-3152,42.471412,-71.209482,Restaurants
Cottage,47,47 Boylston St,Chestnut Hill,MA,(617) 916-5413,42.3225967,-71.1699838,Restaurants
Mana Escondido Cafe,68,68 Aguadilla St,Boston,MA,(617) 266-0900,42.3413573,-71.0757911,Restaurants
Fiskie's,27,27 Harbor Point Blvd,Dorchester,MA,(617) 282-8288,42.3189018,-71.042278,Restaurants
Butch's Uptown,63,63 Locke St,Haverhill,MA,(978) 891-5178,42.776451,-71.084925,Restaurants
Tasty Burger,40,40 Jfk St,Cambridge,MA,(617) 714-4423,42.3726212,-71.1199236,Restaurants
Tony Tipico,268,268 Essex St,Lynn,MA,(781) 592-1912,42.47027,-70.937556,Restaurants
Chelmsford Diner,7,7 Summer St,Chelmsford,MA,(978) 455-0648,42.593962,-71.349044,Restaurants
Copper House Tavern,380,380 Winter St,Waltham,MA,(781) 890-8989,42.39763769,-71.25855916,Restaurants
Peabody Diner,10,10 Margin St,Peabody,MA,(978) 854-5800,42.5327126,-70.9138901,Restaurants
Martingale Wharf Club,99,99 Bow St Ste 400e,Portsmouth,NH,(603) 431-0901,43.0789484,-70.7561604,Restaurants
Eda's Cafe,639,639 Granite St,Braintree,MA,(781) 843-6400,42.209179,-71.021352,Restaurants
Makarena,150,150 Common St,Lawrence,MA,(978) 655-1483,42.708339,-71.157415,Restaurants
Legal Sea Foods,736,736 Legacy Pl,Dedham,MA,(781) 234-6500,42.230976,-71.177735,Restaurants
Legal Sea Foods,270,270 Northern Ave,Boston,MA,(617) 477-2900,42.3487269,-71.037859,Restaurants
Country View Restaurant,4,4 Kelsey Way,Greenland,NH,(603) 431-7426,43.0365589,-70.846466,Restaurants
Townsend House,2,2 Depot St,Townsend,MA,(978) 597-2759,42.6647873,-71.7064746,Restaurants
Littleton Sub Shoppe,486,486 King St,Littleton,MA,(978) 486-3553,42.5465307,-71.4734481,Restaurants
Galway House,710,710 Centre St,Jamaica Plain,MA,(617) 524-9677,42.3112852,-71.1142795,Restaurants
El Oriental De Cuba,416,416 Centre St,Jamaica Plain,MA,(617) 524-6464,42.32078,-71.110458,Restaurants
Belle Isle Lobster & Seafood,1,1 Main St,Winthrop,MA,(617) 567-1619,42.382297,-70.993562,Restaurants
Delux Cafe,100,100 Chandler St,Boston,MA,(617) 338-5258,42.346259,-71.072883,Restaurants
Paramount,44,44 Charles St,Boston,MA,(617) 720-1152,42.3572593,-71.0702076,Restaurants
Bonne Chance Cafe & Bakery,77,77 Canal St,Boston,MA,(617) 742-3115,42.3642143,-71.0595224,Restaurants
Waterline,296,296 State St,Boston,MA,(617) 227-3838,42.3600067,-71.050906,Restaurants
Hub Pub,18,18 Province St,Boston,MA,(617) 227-8952,42.3572719,-71.0595818,Restaurants
West Corner Liquor Inc,18,18 Nantasket Ave,Hull,MA,(781) 925-0358,42.2610389,-70.8442928,Restaurants
204 Washington,204,204 Washington St,East Walpole,MA,(508) 660-1400,42.159936,-71.2172898,Restaurants
Tin Whistle,241,241 Jefferson Ave,Salem,MA,(978) 741-1912,42.506653,-70.901374,Restaurants
Fountain place restaurant,232,232 Essex St,Salem,MA,(978) 744-9572,42.521637,-70.8954678,Restaurants
Brothers Taverna,283,283 Derby St,Salem,MA,(978) 741-4648,42.520119,-70.890996,Restaurants
Bill & Bobs Roast Beef,2,2 Central St,Peabody,MA,(978) 531-9605,42.526225,-70.926727,Restaurants
Park Lunch,181,181 Merrimac St,Newburyport,MA,(978) 465-9817,42.814991,-70.878495,Restaurants
Omega Pizza,230,230 S Main St,Middleton,MA,(978) 777-3900,42.5795698,-70.9972799,Restaurants
New Brothers Restaurant & Deli,31,31 Maple St,Danvers,MA,(978) 750-0100,42.566387,-70.935951,Restaurants
Submarine Galley,74,74 Brockton Ave,Abington,MA,(781) 878-9855,42.1056377,-70.9490849,Restaurants
Golden Pacific Restaurant,470,470 N Franklin St,Holbrook,MA,(781) 767-4200,42.167747,-71.007881,Restaurants
Home Cafe,677,677 N Main St,Brockton,MA,(508) 583-9768,42.10073407,-71.02096155,Restaurants
Bills Bar & Lounge,5,5 Lansdowne St,Boston,MA,(617) 421-9678,42.3473473,-71.0949512,Restaurants
Ryles Jazz Club,212,212 Hampshire St,Cambridge,MA,(617) 876-9330,42.373211,-71.100499,Restaurants
Latino Restaurant,302,302 Centre St,Jamaica Plain,MA,(617) 522-1155,42.322729,-71.103255,Restaurants
Sorella's,386,386 Centre St,Jamaica Plain,MA,(617) 524-2016,42.321764,-71.109597,Restaurants
Tournament Wharf Restaurant,1,1 Tournament Wharf,Newburyport,MA,(978) 462-7785,42.813875,-70.873676,Restaurants
Trinas Starlite Lounge,3,3 Beacon St,Somerville,MA,(617) 576-0006,42.3745326,-71.101498,Restaurants
Southside Tavern,442,442 Washington St,Braintree,MA,(781) 848-0511,42.2173644,-71.0027893,Restaurants
17 State Street Cafe,17,17 State St,Newburyport,MA,(978) 948-3456,42.81056,-70.869785,Restaurants
Cask N Flagon,804,804 Plain St,Marshfield,MA,(781) 834-2275,42.1066069,-70.747714,Restaurants
Samuel's Restaurant,4,4 Chapel Ave,Andover,MA,(978) 775-4910,42.6495391,-71.1336385,Restaurants
Courtyard,700,700 Boylston St,Boston,MA,(617) 859-2251,42.3492484,-71.0786599,Restaurants
Al's State Street Cafe,112,112 State St,Boston,MA,(617) 720-5555,42.359312,-71.054892,Restaurants
Old Country Creamery,626,626 Lynnway,Lynn,MA,(781) 599-1300,42.452883,-70.96122,Restaurants
Wahlburgers,19,19 Shipyard Dr,Hingham,MA,(781) 749-2110,42.2501279,-70.922656,Restaurants
Stowe Cafe,118,118 Great Rd,Stow,MA,(978) 897-9330,42.432846,-71.486315,Restaurants
Sunny's Restaurant,250,250 Calef Hwy,Lee,NH,(603) 292-6607,43.1305546,-71.0219065,Restaurants
Sabor De MI Tierra,162,162 Park St,Chelsea,MA,(617) 884-0005,42.390457,-71.0356539,Restaurants
Franco American Club,55,55 W Prescott St,Westford,MA,(978) 692-7013,42.57959,-71.49578,Restaurants
Brothers Deli Restaurant,404,404 Main St,Wakefield,MA,(781) 245-5511,42.503305,-71.070032,Restaurants
The Club,130,130 Frost Rd,Tyngsboro,MA,(978) 649-9018,42.691063,-71.412121,Restaurants
Lasting Room,122,122 Washington St,Haverhill,MA,(978) 373-9088,42.7725856,-71.0855639,Restaurants
Shawsheen Luncheonette,3,3 Lowell St,Andover,MA,(978) 475-9750,42.672125,-71.15123,Restaurants
Paul & Jerrys Restaurant,91,91 Apsley St,Hudson,MA,(978) 562-7934,42.395045,-71.5740711,Restaurants
Leos Place Diner LLC,655,655 Main St,Waltham,MA,(781) 790-1307,42.3765032,-71.2365258,Restaurants
Clearys,113,113 Dartmouth St,Boston,MA,(617) 262-9874,42.3464973,-71.0752912,Restaurants
The Hardcover Restaurant,15,15 Newbury St # A,Danvers,MA,(978) 774-1223,42.557556,-70.978031,Restaurants
Wahlburgers,132,132 Brookline Ave Ste 1,Boston,MA,(617) 927-6810,42.3450289,-71.10053,Restaurants
Conrad's Restaurant,907,907 Main St,Walpole,MA,(508) 921-3278,42.1475379,-71.2522852,Restaurants
Ashland Ale House,23,23 Pond St,Ashland,MA,(508) 861-7780,42.258668,-71.427666,Restaurants
Pjs Bar & Grill Inc,191,191 Mechanic St,Bellingham,MA,(508) 657-1787,42.081702,-71.455261,Restaurants
Warehouse Bar and Grille,40,40 Broad St,Boston,MA,(617) 936-4383,42.3584073,-71.0539512,Restaurants
Tuckaway Tavern & Butchery,58,58 Route 27,Raymond,NH,(603) 244-2431,43.038832,-71.164213,Restaurants
Jasper Hill Cafe and Bistro,270,270 Exchange St,Millis,MA,(774) 233-0856,42.174523,-71.359694,Restaurants
Lexie's Joint,88,88 Shirking Rd,Epping,NH,(603) 319-4055,43.021778,-71.09953,Restaurants
Ninety Nine Restaurant & Pub,250,250 Granite St Ste B,Braintree,MA,(781) 849-9902,42.2220443,-71.0227762,Restaurants
Ninety Nine Restaurant & Pub,362,362 Turnpike St,Canton,MA,(781) 821-8999,42.1730086,-71.110677,Restaurants
Jake & Joe's,475,475 Boston Providence Tpke,Norwood,MA,(781) 349-4880,42.1950395,-71.1847189,Restaurants
Nubar,16,16 Garden St,Cambridge,MA,(617) 234-1365,42.377144,-71.123173,Restaurants
Brahmin Restaurant,33,33 Stanhope St,Boston,MA,(857) 239-9687,42.3485439,-71.073108,Restaurants
Five Guys,158,158 Everett Ave Unit 1,Chelsea,MA,(617) 466-2290,42.39599077,-71.03994331,Restaurants
Yard House,200,200 Legacy Pl,Dedham,MA,(781) 326-4644,42.230298,-71.175838,Restaurants
Rachel Rina Restaurant,6,6 John St,Chelsea,MA,(617) 884-0808,42.3979643,-71.027126,Restaurants
Ck Pearl,112,112 Main St,Essex,MA,(978) 890-7378,42.631085,-70.775327,Restaurants
Foreign Affairs Market,26,26 Central St,Manchester,MA,(978) 704-9568,42.5751198,-70.7731587,Restaurants
Beantown Pho and Grill,272,272 Newbury St,Boston,MA,(857) 239-9436,42.349122,-71.083425,Restaurants
Roxy's Grilled Cheese Allston LLC,485,485 Cambridge St,Allston,MA,(617) 202-5864,42.3538386,-71.1372204,Restaurants
Cork N Keg,4,4 Essex Dr,Raymond,NH,(603) 244-1573,43.035382,-71.161324,Restaurants
Five Guys,27,27 Westgate Dr,Brockton,MA,(774) 381-7921,42.0897247,-71.0474571,Restaurants
Jetty LLC,278,278 Ocean St,Marshfield,MA,(781) 837-0168,42.091776,-70.645073,Restaurants
Cure Restaurant,189,189 State St,Portsmouth,NH,(603) 427-8258,43.0765896,-70.7561687,Restaurants
Smashburger,203,203 University Ave,Westwood,MA,(781) 613-3412,42.2051614,-71.1536709,Restaurants
Castle Kreek Cookhouse,234,234 John Wise Ave,Essex,MA,(978) 890-7325,42.652182,-70.804088,Restaurants
Jersey Mike's Subs,42,42 Boston Post Rd W,Marlborough,MA,(508) 485-5940,42.3398598,-71.5824896,Restaurants
Gas Light Restaurant,78,78 Market St,Portsmouth,NH,(603) 319-8734,43.07833303,-70.75782276,Restaurants
Shake Shack,92,92 Winthrop St,Cambridge,MA,(617) 758-8495,42.3721353,-71.1208923,Restaurants
Hot Dog Wagon,22,22 Causeway St,Medfield,MA,(508) 359-9737,42.181526,-71.312065,Restaurants
Article Twenty Four,458,458 Western Ave,Brighton,MA,(617) 254-2424,42.361953,-71.14221,Restaurants
Bickford's,6,6 Cambridge St,Burlington,MA,(781) 272-2262,42.481553,-71.186534,Restaurants
Andiamo Restaurant Bar,18,18 Boston Rd,Chelmsford,MA,(978) 710-7218,42.5947,-71.350389,Restaurants
Marshland 3a,986,986 State Rd,Plymouth,MA,(508) 224-9400,41.9002916,-70.5497287,Restaurants
Las Olas Taqueria,356,356 Lafayette Rd,Hampton,NH,(603) 967-4880,42.938767,-70.839264,Restaurants
Huntspoint Meat & BBQ,114,114 Calef Hwy,Epping,NH,(603) 679-5700,43.033189,-71.072843,Restaurants
Frank Jones Restaurant and Pub,556,556 Calef Hwy,Barrington,NH,(603) 664-7400,43.209169,-70.9968377,Restaurants
Postern Grille,1657,1657 Worcester Rd,Framingham,MA,(508) 270-1906,42.297926,-71.478969,Restaurants
Great Road Kitchen,613,613 Constitution Ave,Littleton,MA,(978) 952-7333,42.55167949,-71.4796976,Restaurants
9 Elm American Bistro,9,9 Elm St,Danvers,MA,(978) 774-9436,42.565396,-70.936026,Restaurants
Elm Square Oyster Co,2,2 Elm Sq,Andover,MA,(978) 470-2228,42.657028,-71.140477,Restaurants
Saltbox Kitchen,84,84 Commonwealth Ave,Concord,MA,(978) 212-3585,42.4572517,-71.3949901,Restaurants
JD's Landing,125,125 Access Rd,Norwood,MA,(781) 910-4802,42.188341,-71.1777699,Restaurants
Red Heat Tavern,152,152 Great Rd,Bedford,MA,(781) 538-4330,42.49068766,-71.27574683,Restaurants
5 South Main,5,5 S Main St,Cohasset,MA,(781) 383-3555,42.241052,-70.802673,Restaurants
Kings Lynnfield,510,510 Market St,Lynnfield,MA,(781) 334-4400,42.5146862,-71.0344211,Restaurants
Bostonia Public House,131,131 State St,Boston,MA,(617) 948-9800,42.3588892,-71.0540494,Restaurants
Commonwealth Restaurant and Market,11,11 Broad Canal Way,Cambridge,MA,(617) 945-7030,42.36315432,-71.08354976,Restaurants
State Park,1,1 Kendall Sq Ste B3001,Cambridge,MA,(617) 848-4355,42.3670663,-71.0905674,Restaurants
Casa B,253,253 Washington St,Somerville,MA,(617) 764-2180,42.379769,-71.094374,Restaurants
Pat's Place,15,15 Francis St Fl 1,Boston,MA,(617) 732-4088,42.334442,-71.105014,Restaurants
Brass Union,70,70 Union Sq,Somerville,MA,(617) 623-9211,42.3799231,-71.0950228,Restaurants
16C,16,16 Cottage Ave,Quincy,MA,(617) 481-2170,42.248786,-71.001437,Restaurants
Tamo Bistro & Bar,1,1 Seaport Ln,Boston,MA,(617) 385-4304,42.349316,-71.041742,Restaurants
Dean's List,5,5 Blossom St,Boston,MA,(617) 239-2393,42.361852,-71.066612,Restaurants
Hopewell Bar & Kitchen,1277,1277 Commonwealth Ave Ste 1,Allston,MA,(617) 208-8925,42.3498362,-71.1334022,Restaurants
Bisq,1071,1071 Cambridge St,Cambridge,MA,(617) 714-3693,42.37312769,-71.09517312,Restaurants
IHOP,160,160 Washington St,Rochester,NH,(603) 948-1238,43.291301,-70.996251,Restaurants
Thunder Road,379,379 Somerville Ave,Somerville,MA,(617) 776-7623,42.3816,-71.100076,Restaurants
Victory Grill,233,233 Elm St,Dedham,MA,(781) 686-1746,42.2279734,-71.1783163,Restaurants
Kaylas Diner,136,136 Newbury St,Peabody,MA,(978) 854-5990,42.5364856,-70.9896355,Restaurants
Stephi's In South,130,130 Dorchester St,South Boston,MA,(617) 345-5495,42.3345293,-71.0469728,Restaurants
Old Town Cafe,222,222 North Ave,Abington,MA,(781) 878-8046,42.128097,-70.941671,Restaurants
Popovers On The Square,11,11 Brickyard Sq Ste 23,Epping,NH,(603) 734-4724,43.02511235,-71.07575543,Restaurants
Red Raven Inc,3,3 Nagog Park,Acton,MA,(978) 274-2231,42.5218979,-71.4318947,Restaurants
French Fry Heaven,1245,1245 Worcester St,Natick,MA,(508) 545-0009,42.3004711,-71.3857931,Restaurants
Boloco,425,425 Market St,Lynnfield,MA,(781) 334-3706,42.51466287,-71.03396275,Restaurants
Redstone American Grill,20,20 3rd Ave,Burlington,MA,(781) 229-0330,42.488075,-71.224312,Restaurants
Wahlburgers,930,930 Market St,Lynnfield,MA,(781) 334-2560,42.5146862,-71.0344211,Restaurants
Bbs Bar and Grill,2424,2424 Cranberry Hwy,Wareham,MA,(774) 678-4215,41.7803659,-70.7429764,Restaurants
Carry Nation Cocktail Club,11,11 Beacon St,Boston,MA,(617) 227-3100,42.3583973,-71.0617812,Restaurants
Champions Sports Bar & Restaurant,110,110 Huntington Ave,Boston,MA,(617) 927-5304,42.3467446,-71.0780519,Restaurants
Farmstead Table,71,71 Union St,Newton Center,MA,(617) 928-6000,42.329771,-71.192672,Restaurants
Five Guys,263,263 Huntington Ave,Boston,MA,(617) 936-3657,42.342251,-71.086142,Restaurants
Granary Tavern,170,170 Milk St,Boston,MA,(617) 449-7110,42.358726,-71.052602,Restaurants
Hull Mason,1000,1000 Marriot Dr,Quincy,MA,(617) 774-2078,42.229433,-71.018228,Restaurants
La Brasa,124,124 Broadway,Somerville,MA,(617) 764-1412,42.3877062,-71.0846367,Restaurants
Farr's Famous Chicken,43,43 Ashworth Ave,Hampton,NH,(603) 926-2030,42.9110595,-70.81201991,Restaurants
Savenor Properties LLC,72,72 Kirkland St,Cambridge,MA,(617) 864-0343,42.3774404,-71.1091259,Restaurants
Kasey Diner Inc,36,36 South Ave,Natick,MA,(508) 655-3761,42.2857673,-71.344422,Restaurants
Wuburger,880,880 Main St,Woburn,MA,(781) 281-0277,42.506561,-71.160747,Restaurants
Trillium Brewing Company,50,50 Thomson Pl,Boston,MA,(857) 449-0083,42.35173893,-71.04730437,Restaurants
Maiden,28,28 W Broadway,South Boston,MA,(617) 315-7829,42.342722,-71.05651,Restaurants
CBS Scene Restaurant & Bar,200,200 Patriot Pl,Foxboro,MA,(508) 543-2905,42.0932093,-71.2651515,Restaurants
Black Bird Doughnuts,492,492 Tremont St,Boston,MA,(617) 482-9000,42.3458723,-71.0691112,Restaurants
Beat Brasserie,179,179 Massachusetts Ave,Boston,MA,(617) 499-0001,42.345709,-71.087308,Restaurants
Burtons Grille,43,43 Middlesex Tpke Ste 6,Burlington,MA,(781) 221-2281,42.471412,-71.209482,Restaurants
Earls Restaurant,698,698 Assembly Row,Somerville,MA,(617) 666-1790,42.395546,-71.0800486,Restaurants
Mystic Station LLC,139,139 Pleasant St,Malden,MA,(781) 480-3166,42.4273398,-71.0709229,Restaurants
Five Guys,1030,1030 Main St Ste 19,Waltham,MA,(781) 647-0555,42.375605,-71.252463,Restaurants
Social Restaurant & Bar,320,320 Washington St,Newton,MA,(617) 244-4800,42.356171,-71.186684,Restaurants
Cafe Madeleine,517,517 Columbus Ave,Boston,MA,(857) 239-8052,42.342211,-71.080107,Restaurants
Rapscallion,5,5 Strawberry Hill Rd,Acton,MA,(978) 429-8161,42.491691,-71.415863,Restaurants
Mindy's Breakfast,207,207 Belmont St,Brockton,MA,(508) 857-4425,42.07887396,-71.02831948,Restaurants
Five Guys,215,215 Needham St,Newton Upper Falls,MA,(617) 332-5555,42.3105625,-71.2148757,Restaurants
Lees Burger Brookline,1331,1331 Beacon St,Brookline,MA,(617) 383-5831,42.3416625,-71.1214747,Restaurants
Seasons 52,6,6 Wayside Rd Ste U,Burlington,MA,(781) 272-5552,42.486349,-71.1933754,Restaurants
PARK Restaurant & Bar,59,59 Jfk St,Cambridge,MA,(617) 491-9851,42.371886,-71.1211111,Restaurants
Maddies Bar and Grille,216,216 Rangeway Rd,North Billerica,MA,(978) 670-7777,42.568697,-71.3105623,Restaurants
Grille 705,705,705 Massachusetts Ave,Boston,MA,(617) 606-3522,42.334915,-71.07539,Restaurants
Tutto Bene,1050,1050 Pearl St Ste 1,Brockton,MA,(508) 583-1515,42.052437,-71.06632,Restaurants
Fairouz,5268,5268 Washington St,West Roxbury,MA,(617) 469-0000,42.2593522,-71.1588677,Restaurants
Alden and Harlow,40,40 Brattle St,Cambridge,MA,(617) 864-2100,42.373455,-71.1216785,Restaurants
Tapestry,69,69 Kilmarnock St,Boston,MA,(617) 421-4430,42.342462,-71.099482,Restaurants
Grass Fed,3698,3698 Washington St,Jamaica Plain,MA,(617) 942-8181,42.300583,-71.112757,Restaurants
Not Your Average Joe's,70,70 University Ave,Westwood,MA,(781) 355-4400,42.2095548,-71.1502791,Restaurants
Woods Hill Table,24,24 Commonwealth Ave,Concord,MA,(978) 254-1435,42.456666,-71.393177,Restaurants
Lulu's Allston,421,421 Cambridge St,Allston,MA,(215) 333-3300,42.3551403,-71.1340632,Restaurants
Iron-Town Diner,325,325 Main St,Saugus,MA,(781) 558-2070,42.4732202,-71.0355296,Restaurants
Terrace Cafe,36,36 South St,Wrentham,MA,(508) 384-3269,42.0661823,-71.3289699,Restaurants
Wheelhouse,63,63 Broad St,Boston,MA,(617) 422-0082,42.35775112,-71.05389985,Restaurants
Ittoku,1414,1414 Commonwealth Ave,Brighton,MA,(617) 608-3630,42.348539,-71.139133,Restaurants
Market Street South LLC,850,850 Market St,Lynnfield,MA,(781) 334-6259,42.51583947,-71.03495083,Restaurants
Wenrich Family LLC,184,184 Lafayette Rd,North Hampton,NH,(603) 379-2549,42.99398463,-70.81723729,Restaurants
Take Away 762,762,762 Pleasant St,Belmont,MA,(617) 932-1444,42.392847,-71.181808,Restaurants
IHOP,570,570 Lafayette Rd Unit 301,Seabrook,NH,(603) 474-0512,42.891533,-70.871415,Restaurants
Twk Restaurant,14,14 Thompson St,Winchester,MA,(781) 570-2338,42.45223543,-71.13661904,Restaurants
Jalapeno Enterprises,18,18 Mount Auburn St,Watertown,MA,(617) 744-6552,42.3658965,-71.1839599,Restaurants
Oak House LLC,110,110 Main St,Newmarket,NH,(603) 292-5893,43.079128,-70.936486,Restaurants
Roza Lyons,709,709 E Broadway,South Boston,MA,(857) 496-0199,42.335419,-71.037001,Restaurants
Maverick Marketplace Cafe,154,154 Maverick St,East Boston,MA,(617) 455-6232,42.369921,-71.0379314,Restaurants
Montecristo Mexican Grill,364,364 Broadway,Revere,MA,(781) 629-3727,42.40961,-71.012866,Restaurants
Scoreboard Sports Bar & Grill,15,15 Middlesex Canal Park,Woburn,MA,(781) 897-4000,42.497209,-71.158663,Restaurants
South Street Pizzeria,16,16 South St,Foxboro,MA,(508) 698-3999,42.0643567,-71.2494069,Restaurants
Legal Sea Foods,558,558 Washington St,Boston,MA,(617) 692-8888,42.353414,-71.061988,Restaurants
Vanderbilt Kitchen and Bar,105,105 Water St,Boston,MA,(617) 292-3355,42.357964,-71.054728,Restaurants
Sixteen C Restaurant,16,16 Cottage Ave,Quincy,MA,(617) 481-2170,42.248786,-71.001437,Restaurants
Christines Cafe,618,618 Salem St,Lynnfield,MA,(781) 596-2259,42.514812,-71.011416,Restaurants
Red Bird,361,361 Moody St,Waltham,MA,(781) 891-5486,42.36997,-71.237532,Restaurants
Revolution Cocktails Catering,161,161 Merrimac St,Woburn,MA,(781) 939-6977,42.51498,-71.148598,Restaurants
Dillons Local,21,21 S Park Ave,Plymouth,MA,(774) 404-7913,41.9603572,-70.6686552,Restaurants
Fridays Madness,616,616 Essex St,Lawrence,MA,(978) 984-7790,42.703904,-71.169622,Restaurants
Perkins Restaurant & Bakery,39,39 Perkins St,Lowell,MA,(855) 642-7427,42.6515437,-71.3149637,Restaurants
Kingston Grille & Bar,25,25 Kingston St,Boston,MA,(857) 233-4514,42.3537673,-71.0592512,Restaurants
Landmark Public House,772,772 Adams St,Dorchester Center,MA,(617) 982-3000,42.283418,-71.055455,Restaurants
Lexie's on State,88,88 State St,Newburyport,MA,(978) 465-6662,42.8091937,-70.8708676,Restaurants
Lincoln Bar & Grill,8,8 Lincoln St,Brighton,MA,(617) 787-3669,42.3588545,-71.1468486,Restaurants
Louis,1269,1269 Sea St,Quincy,MA,(617) 481-1980,42.27134,-70.951418,Restaurants
Lyonville Tavern,315,315 Plymouth St,Halifax,MA,(781) 754-0001,41.9947,-70.84667,Restaurants
Maggie's Farm,119,119 S Main St,Middleton,MA,(978) 539-8583,42.5862331,-71.0100274,Restaurants
McCabe's on Mass,2046,2046 Massachusetts Ave,Cambridge,MA,(617) 945-7115,42.3907611,-71.1226123,Restaurants
Mile Marker One,75,75 Essex Ave,Gloucester,MA,(978) 283-2122,42.6121549,-70.6813221,Restaurants
Ozone,1,1 Harborside Dr,East Boston,MA,(617) 719-2555,42.3634308,-71.0257061,Restaurants
Paramount,667,667 E Broadway,South Boston,MA,(617) 269-9999,42.3354066,-71.037871,Restaurants
Weston Hotel,70,70 3rd Ave,Waltham,MA,(781) 290-5674,42.395078,-71.259921,Restaurants
SORA,44,44 Middlesex Tpke,Bedford,MA,(781) 276-7565,42.5087172,-71.2360385,Restaurants
Sterling's,60,60 State St Lbby 5,Boston,MA,(617) 531-8200,42.359266,-71.056434,Restaurants
Five Guys,90,90 Drum Hill Rd Ste 2,Chelmsford,MA,(978) 454-4555,42.622548,-71.36235,Restaurants
Crows Landing,6,6 Crow Point Ln,Hingham,MA,(781) 749-2400,42.249828,-70.904061,Restaurants
Ward 8,90,90 N Washington St Fl 1,Boston,MA,(617) 823-4478,42.365406,-71.05866,Restaurants
Smashburger,495,495 Riverside Ave,Medford,MA,(781) 219-5110,42.41012734,-71.08613306,Restaurants
Keith's Kitchen,1794,1794 Bridge St,Dracut,MA,(978) 455-0000,42.6844366,-71.310869,Restaurants
Little Jjs On The Go,740,740 Waverley St,Framingham,MA,(508) 405-0902,42.2718579,-71.4290472,Restaurants
Mr Macs,2600,2600 Lafayette Rd,Portsmouth,NH,(603) 380-7916,43.030388,-70.788779,Restaurants
Riversbend,35,35 Dodge St,Essex,MA,(978) 890-7098,42.6332733,-70.7752116,Restaurants
Ritcey East,208,208 Waverley Ave,Watertown,MA,(617) 744-0122,42.37695046,-71.18839409,Restaurants
Chapel and Main,83,83 Main St,Dover,NH,(603) 842-5170,43.19796356,-70.87339692,Restaurants
Brick & Ash,10,10 Center St,Newburyport,MA,(978) 255-2642,42.811271,-70.868149,Restaurants
Five Guys,1250,1250 Hancock St,Quincy,MA,(617) 481-8635,42.2521773,-71.0037941,Restaurants
Art's Restaurant,2,2 A St,Hull,MA,(781) 773-1382,42.290961,-70.8831627,Restaurants
Oak + Rowan,321,321 A St,Boston,MA,(857) 284-7742,42.3489925,-71.0490327,Restaurants
Country Kitchen,838,838 Blue Hill Ave,Dorchester Center,MA,(617) 822-0500,42.2960712,-71.0872305,Restaurants
Milkweed,1508,1508 Tremont St,Roxbury Crossing,MA,(617) 516-8913,42.332137,-71.099532,Restaurants
Otis Restaurant,14,14 Front St Ste 11,Exeter,NH,(603) 580-1705,42.980395,-70.946544,Restaurants
Tavern In the Square Management LLC,810,810 Constitution Ave,Littleton,MA,(978) 339-5372,42.55202413,-71.4797526,Restaurants
Five Guys,86,86 Plaistow Rd,Haverhill,MA,(978) 361-2696,42.81325236,-71.10273434,Restaurants
Five Guys,65,65 Station Lndg,Medford,MA,(781) 874-1250,42.403028,-71.080816,Restaurants
Five Guys,1390,1390 Lafayette Rd,Portsmouth,NH,(603) 427-8931,43.0460902,-70.7726361,Restaurants
IHOP,10,10 Shops At 5 Way,Plymouth,MA,(774) 773-7193,41.9305629,-70.6577261,Restaurants
Red Robin Gourmet Burgers and Brews,201,201 Patriot Pl,Foxboro,MA,(508) 698-0030,42.0929824,-71.2656209,Restaurants
Smashburger,1298,1298 Worcester St,Natick,MA,(508) 720-0744,42.298482,-71.385426,Restaurants
110 Grill Woburn,373,373 Washington St,Woburn,MA,(781) 305-4355,42.50012462,-71.12564002,Restaurants
Bluebird,531,531 Federal Furnace Rd,Plymouth,MA,(508) 927-4991,41.913068,-70.710801,Restaurants
730 Tavern Kitchen Patio,730,730 Massachusetts Ave,Cambridge,MA,(617) 868-7300,42.365933,-71.105137,Restaurants
Dig Inn,277,277 Washington St,Boston,MA,(617) 276-1000,42.357616,-71.058386,Restaurants
Jersey Mike's Subs,55,55 Dodge St Ste A208,Beverly,MA,(978) 969-1395,42.575604,-70.889823,Restaurants
110 Grill - Braintree,170,170 Forbes Rd Ste 100,Braintree,MA,(781) 849-5980,42.2198349,-71.0345967,Restaurants
753 South,753,753 South St,Roslindale,MA,(617) 477-4686,42.2872137,-71.1292423,Restaurants
Cafe Soleil,241,241 Main St,Wareham,MA,(508) 364-0488,41.759075,-70.7158763,Restaurants
Dal Mar,24,24 West St,Beverly,MA,(978) 922-9221,42.5624753,-70.8135485,Restaurants
Dr mikhaila M georgo DDS,28,28 Riverside Ave,Medford,MA,N/A,42.41801108,-71.10842184,Restaurants
Michael L Dubois,144,144 S Main St,Rochester,NH,(603) 332-2546,43.2990933,-70.9694281,Restaurants
Dudley Plaza,57,57 Dudley St,Haverhill,MA,N/A,42.784351,-71.078054,Restaurants
Season's Restaurant,1,1 Willow Rd,Nahant,MA,(781) 581-9000,42.4216148,-70.9291916,Restaurants
Legal Sea Foods,4,4 S Market St,Boston,MA,(617) 896-5295,42.36001714,-71.05582181,Restaurants
Lily's at Lebaron Hills Country Club Restaurant,183,183 Rhode Island Rd,Lakeville,MA,(508) 923-5732,41.8653583,-70.9667049,Restaurants
Wahlburgers,9,9 District Ave,Dorchester,MA,(617) 282-5300,42.3258957,-71.0625768,Restaurants
Go Cafe LLC,1682,1682 Massachusetts Ave,Cambridge,MA,(617) 816-5040,42.382502,-71.120104,Restaurants
The Rising Eagle,505,505 Main St,Melrose,MA,(781) 590-4080,42.455262,-71.064994,Restaurants
Shake Shack,77,77 Seaport Blvd,Boston,MA,(617) 337-4699,42.3520353,-71.0466459,Restaurants
Kings Dining & Entertainment World Headquarters,35,35 Walnut St # 200,Wellesley Hills,MA,(855) 522-2695,42.32577086,-71.25319493,Restaurants
&pizza,3,3 Brattle St,Cambridge,MA,(202) 558-7549,42.373583,-71.119577,Restaurants
75 Chestnut,75,75 Chestnut St Ste 1,Boston,MA,(617) 227-2175,42.356935,-71.070976,Restaurants
The Hampstead House Restaurant,251,251 Hampstead St,Methuen,MA,(978) 655-4176,42.789729,-71.18335,Restaurants
Sher Mary,220,220 Boylston St,Chestnut Hill,MA,(617) 965-2854,42.3189463,-71.175797,Restaurants
Ninety Nine Restaurant & Pub,233,233 Broad St,Bridgewater,MA,(508) 279-2799,41.994113,-70.972845,Restaurants
Not Your Average Joe's,1265,1265 Main St,Waltham,MA,(781) 966-5637,42.37671205,-71.2641186,Restaurants
99 Restaurants LLC,14A,14a Gill St,Woburn,MA,(781) 933-8999,42.50930663,-71.14690716,Restaurants
Thornton's Fenway Grille,150A,150a Andover St Ste 3,Danvers,MA,(617) 421-0104,42.55765697,-70.97019223,Restaurants
Wahlburgers,300,300 Terminal St,Charlestown,MA,(617) 755-6144,42.38080177,-71.05147435,Restaurants
Loafers American Restaurant,43,43 Pelham Rd,Salem,NH,(603) 890-6363,42.774774,-71.251453,Restaurants
Double Horse Bistro,800,800 Brockton Ave Ste 5,Abington,MA,(339) 788-9859,42.092963,-70.968214,Restaurants
Finale Restaurant,13,13 Columbus,Boston,MA,(617) 423-3472,42.35153285,-71.06849833,Restaurants
Monument,251,251 Main St,Charlestown,MA,(617) 337-5191,42.3768945,-71.065956,Restaurants
Bartaco,25,25 Thomson Pl Ste 1,Boston,MA,(857) 277-0135,42.350966,-71.04729,Restaurants
Jersey Mike's Subs,425,425 Paradise Rd Ste 9,Swampscott,MA,(781) 299-7300,42.4811398,-70.9015637,Restaurants
90 Restaurant LLC,77,77 Revere St,Winthrop,MA,(617) 207-3261,42.382509,-70.979862,Restaurants
D'Family Restaurant,48,48 State St,Lynn,MA,(781) 584-7222,42.461185,-70.949805,Restaurants
Spinnaker Restaurant,575,575 Memorial Dr,Cambridge,MA,(617) 494-8259,42.3538991,-71.1054964,Restaurants
Five Guys,60,60 Bridle Path Cir,Randolph,MA,(781) 885-1054,42.163284,-71.050486,Restaurants
15 Walnut,15,15 Walnut Rd Ste 11,South Hamilton,MA,(978) 468-2434,42.609909,-70.8734971,Restaurants
Wonder Bar,186,186 Harvard Ave,Allston,MA,(617) 351-2665,42.3510201,-71.1311029,Restaurants
Fredas,105,105 Copeland St,West Bridgewater,MA,(508) 583-8217,42.038932,-71.015839,Restaurants
Commonwealth Restaurant & Lounge,79,79 Parkingway,Quincy,MA,(617) 773-3400,42.2475899,-71.0032465,Restaurants
Vintage Restaurant & Lounge,72,72 Broad St,Boston,MA,(617) 482-1900,42.357692,-71.053016,Restaurants
Bravo Restaurant,465,465 Huntington Ave,Boston,MA,(617) 369-3474,42.339408,-71.094214,Restaurants
Lorrys Bar-B-Q Beef,665,665 Chelmsford St,Lowell,MA,(978) 459-7251,42.6218764,-71.3241088,Restaurants
Sarahs Market & Cafe,200,200 Concord Ave,Cambridge,MA,(617) 876-5999,42.382154,-71.131023,Restaurants
Harry's Bar & Grill,1430,1430 Commonwealth Ave,Brighton,MA,(617) 738-9990,42.3491811,-71.1395925,Restaurants
Beantown Pub,100,100 Tremont St,Boston,MA,(617) 426-0111,42.3572499,-71.0609805,Restaurants
Harrows Chicken Pies,126,126 Main St,Reading,MA,(781) 944-0410,42.508132,-71.104673,Restaurants
Rudis Portsmouth,20,20 High St,Portsmouth,NH,(603) 430-7834,43.0769184,-70.75831394,Restaurants
Sammys Deli & Catering,59,59 Winn St,Burlington,MA,(781) 272-5955,42.49302638,-71.1763569,Restaurants
Sport Zone,1734,1734 Lakeview Ave Ste 4,Dracut,MA,(978) 957-4623,42.678376,-71.342202,Restaurants
Daedalus,45 1/2,45 1/2 Mount Auburn St,Cambridge,MA,(617) 349-0071,42.371361,-71.1164619,Restaurants
Cornwalls,654,654 Beacon St Ste 1,Boston,MA,(617) 262-3749,42.34933,-71.095866,Restaurants
Pilot House BBQ,3,3 Porter St,Gloucester,MA,(978) 283-0131,42.612098,-70.664447,Restaurants
Romys Bakery,39,39 Mechanic St,Marlborough,MA,(508) 485-7950,42.346917,-71.554228,Restaurants
Good Thymes Restaurant,1278,1278 Gorham St Ste 3,Lowell,MA,(978) 441-2799,42.6211367,-71.3050049,Restaurants
Granite Grill at 703 FX,703,703 Granite St Ste 2,Braintree,MA,(781) 848-4500,42.206817,-71.024284,Restaurants
Poor Boys,136,136 Rockingham Rd,Londonderry,NH,(603) 432-8990,42.916603,-71.368545,Restaurants
Luckys Lounge,355,355 Congress St Lbby,Boston,MA,(617) 357-5825,42.350055,-71.048486,Restaurants
Raffs Cafe,620,620 Primrose St Ste 5,Haverhill,MA,(978) 373-4376,42.7944184,-71.0897222,Restaurants
Marylou's,34,34 Whiting St Ste 3,Hingham,MA,(781) 740-4098,42.1750999,-70.888107,Restaurants
Isabellas Restaurant,566,566 High St,Dedham,MA,(781) 461-8485,42.247863,-71.172752,Restaurants
Boston Cavern,58,58 E Grove St,Middleboro,MA,(508) 923-0099,41.8827799,-70.9067305,Restaurants
New Bridge Cafe,650,650 Washington Ave,Chelsea,MA,(617) 884-0134,42.412661,-71.031424,Restaurants
Marias Restaurant,240,240 Quincy Ave,Braintree,MA,(781) 843-3730,42.229494,-70.971676,Restaurants
White Sport Restaurant,506,506 Medford St,Somerville,MA,(617) 776-0790,42.396105,-71.103675,Restaurants
Delucas Back Bay Market & Gift Baskets,239,239 Newbury St,Boston,MA,(617) 262-5990,42.3498383,-71.0824293,Restaurants
Nick's Place,171,171 Route 27,Raymond,NH,(603) 895-4114,43.0408029,-71.199198,Restaurants
Central The Kitchen,567,567 Massachusetts Ave,Cambridge,MA,(617) 491-5599,42.3649179,-71.1023705,Restaurants
Chicken Connection,242,242 Broadway,Haverhill,MA,(978) 373-4300,42.780423,-71.104631,Restaurants
Wardhurst Grille,31,31 Lynnfield St,Peabody,MA,(978) 531-9730,42.517179,-70.94629,Restaurants
Nahant Country Club,280,280 Nahant Rd,Nahant,MA,(781) 581-0515,42.42636,-70.918927,Restaurants
Red Wing Diner Inc,2235,2235 Providence Hwy,Walpole,MA,(508) 668-0453,42.1079017,-71.2502507,Restaurants
Bar 10,10,10 Huntington Ave,Boston,MA,(617) 424-7446,42.348298,-71.077612,Restaurants
Twenty8 Food & Spirits,28,28 Patriot Pl,Foxboro,MA,(508) 216-1668,42.0904376,-71.2685917,Restaurants
Generations Banquet Hall,81,81 Memorial Dr,Avon,MA,(508) 588-9955,42.118911,-71.032161,Restaurants
Grounder Cafe,394,394 Main St,Medford,MA,(781) 219-4929,42.40462923,-71.10750666,Restaurants
Bobbys,11,11 Washington St,Wellesley Hills,MA,(781) 235-2345,42.3253044,-71.259761,Restaurants
Super Chicken Beverly,289,289 Rantoul St,Beverly,MA,(978) 927-8884,42.5506663,-70.8829815,Restaurants
Modern Pastry Inc,257,257 Hanover St,Boston,MA,(617) 523-3783,42.363249,-71.054753,Restaurants
Neponset Cafe,497,497 Washington St,Canton,MA,(781) 828-9834,42.1516682,-71.1484536,Restaurants
Franklin Cafe Cape Ann,118,118 Main St,Gloucester,MA,(978) 283-7888,42.6126723,-70.6635781,Restaurants
Tinys Restaurant,2,2 Groton School Rd,Ayer,MA,(978) 772-2917,42.569335,-71.592961,Restaurants
Country Cafe Pizza & More,210,210 Pond St,East Bridgewater,MA,(781) 300-3491,42.0116408,-70.9174474,Restaurants
Five Guys,268,268 Franklin Village Dr,Franklin,MA,(508) 520-3911,42.08878,-71.4245798,Restaurants
Sharon's Restaurant,349,349 Washington St,Braintree,MA,(781) 843-2022,42.220506,-71.004143,Restaurants
Ruby Tuesday,1,1 Premium Outlet Blvd Ste 800,Wrentham,MA,(508) 384-5213,42.0386072,-71.3521664,Restaurants
Corrib Pub & Restaurant,396,396 Market St,Brighton,MA,(617) 782-4713,42.349875,-71.152766,Restaurants
Depot Diner,23,23 Enon St Ste 2,Beverly,MA,(978) 922-6200,42.5853157,-70.8841978,Restaurants
Owen & Ollis Restaurant & Pub,91,91 Mill St,Dracut,MA,(978) 957-4400,42.681948,-71.3503011,Restaurants
Black Water Grill,43,43 Pelham Rd,Salem,NH,(603) 328-9013,42.774774,-71.251453,Restaurants
Newtowne Grill of Billerica,838,838 Boston Rd,Billerica,MA,(978) 667-0021,42.530338,-71.228091,Restaurants
Warrens Place,27,27 Pleasant St,South Weymouth,MA,(781) 331-7575,42.172185,-70.954443,Restaurants
Barking Dog Bar & Grill,21,21 Friend St,Amesbury,MA,(978) 388-9537,42.8571983,-70.9316658,Restaurants
Olde Hitching Post Restaurant,48,48 Spring St,Hanson,MA,(781) 447-2592,42.0758205,-70.8836007,Restaurants
Heberts Seafood & Steak Restaurant,1500,1500 Lafayette Rd Ste 8,Portsmouth,NH,(603) 431-5882,43.0449239,-70.7743385,Restaurants
Captain Marden's,279,279 Linden St,Wellesley,MA,(781) 235-3737,42.301972,-71.288048,Restaurants
Porters Bar & Grill,173,173 Portland St,Boston,MA,(617) 742-7678,42.364427,-71.061611,Restaurants
Bartleys Burger Cottage,1246,1246 Massachusetts Ave,Cambridge,MA,(617) 354-6559,42.372454,-71.116301,Restaurants
Blu Restaurant,4,4 Avery St,Boston,MA,(617) 375-8550,42.3530863,-71.0629214,Restaurants
TGI Fridays,601,601 Donald Lynch Blvd,Marlborough,MA,(508) 303-0996,42.356322,-71.612636,Restaurants
TGI Fridays,49,49 Newbury St,Danvers,MA,(978) 777-7483,42.558359,-70.977685,Restaurants
Dorsis Bakery,197,197 Washington St Ste 2,Peabody,MA,(978) 532-0102,42.5211534,-70.9349823,Restaurants
Ruth's Chris Steak House,45,45 School St Ste 1d,Boston,MA,(617) 742-8401,42.3580551,-71.0593757,Restaurants
The Capital Grille,10,10 Wayside Rd,Burlington,MA,(781) 505-4130,42.4858505,-71.1911411,Restaurants
80 Thoreau,84,84 Thoreau St,Concord,MA,(978) 318-0008,42.456868,-71.358053,Restaurants
Quebrada Baking Co,272,272 Washington St,Wellesley Hills,MA,(781) 237-2111,42.3128288,-71.2735309,Restaurants
Chili's Grill & Bar,170,170 Pearl St,Braintree,MA,(781) 849-6151,42.203649,-71.000744,Restaurants
TGI Fridays,33,33 Mystic View Rd,Everett,MA,(617) 387-5226,42.400838,-71.068759,Restaurants
TGI Fridays,1,1 Worcester Rd,Framingham,MA,(508) 875-7735,42.3019866,-71.394939,Restaurants
At Union,174,174 Harvard Ave,Allston,MA,(617) 779-0077,42.351312,-71.131341,Restaurants
Mother Anna's,211,211 Hanover St,Boston,MA,(617) 523-8496,42.362755,-71.055314,Restaurants
Fuel America,152,152 Chestnut Hill Ave,Brighton,MA,(617) 782-0999,42.341558,-71.154256,Restaurants
Locals North Hill Restaurant & Pub,215,215 Lafayette Rd,North Hampton,NH,(603) 379-2729,42.9989375,-70.8123118,Restaurants
Mia Regazza,268,268 Washington St,Abington,MA,(781) 871-5800,42.1005806,-70.9502282,Restaurants
Persys Place,43,43 Bedford St,Middleboro,MA,(508) 946-0022,41.9043598,-70.9593916,Restaurants
Bickford's,20,20 Nagog Park,Acton,MA,(978) 263-0442,42.5225363,-71.4336854,Restaurants
Kashmir Indian Restaurant,71,71 Alleghany St,Roxbury Crossing,MA,(617) 536-1695,42.3313446,-71.1007825,Restaurants
O'Malleys,201,201 Harvard St,Brookline,MA,(617) 232-8787,42.339669,-71.120765,Restaurants
Abington Depot,101,101 Railroad St,Abington,MA,(781) 871-3232,42.1291639,-70.9417925,Restaurants
T J Smith Victorian House,13,13 Cross St,East Bridgewater,MA,(508) 378-7436,42.034188,-70.969848,Restaurants
TGI Fridays,60,60 Forbes Rd,Braintree,MA,(781) 848-3133,42.2207462,-71.0298171,Restaurants
Nate's at Front Beach,18,18 Beach St,Rockport,MA,(978) 546-0055,42.6592069,-70.6221437,Restaurants
Methuen Family Restaurant,246,246 Broadway,Methuen,MA,(978) 683-7050,42.72545,-71.186185,Restaurants
Kings Bowl of Burlington LLC,52,52 2nd Ave,Burlington,MA,(781) 221-8481,42.486329,-71.224256,Restaurants
Townshend,1250,1250 Hancock St,Quincy,MA,(617) 481-9694,42.2521773,-71.0037941,Restaurants
Kkaties Burger Bar Marshfield,1899,1899 Ocean St,Marshfield,MA,(781) 837-0012,42.091775,-70.70517,Restaurants
Common Ground,85,85 Harvard Ave,Allston,MA,(617) 783-2071,42.3535016,-71.1324465,Restaurants
Florian Hall,55,55 Hallet St,Dorchester Center,MA,(617) 288-6666,42.281802,-71.04778,Restaurants
Clipper Tavern,75,75 Pleasant St,Portsmouth,NH,(603) 501-0109,43.0757819,-70.756782,Restaurants
Lucky's,100,100 Terminal A,East Boston,MA,(617) 567-2299,42.36466337,-71.02033393,Restaurants
Deep Ellum Bar,477,477 Cambridge St,Allston,MA,(617) 787-2337,42.353898,-71.137195,Restaurants
Ninety Nine Restaurant & Pub,847,847 W Central St,Franklin,MA,(508) 520-9909,42.090783,-71.431641,Restaurants
Youngs Restaurant & Coffee Shop,48,48 Main St,Durham,NH,(603) 868-2688,43.13438,-70.9259857,Restaurants
Courtside Restaurant,291,291 Cambridge St,Cambridge,MA,(617) 547-4374,42.37132,-71.080902,Restaurants
Mission Oak Grill,26,26 Green St,Newburyport,MA,(978) 463-9009,42.810625,-70.873033,Restaurants
Winthrop Center Cafe,36,36 Woodside Ave,Winthrop,MA,(617) 846-6411,42.375076,-70.98678,Restaurants
Marylous Coffee Hanover,211,211 Washington St,Hanover,MA,(781) 826-4889,42.1136359,-70.813203,Restaurants
Ninety Nine Restaurant & Pub,166,166 Church St,Pembroke,MA,(781) 829-9912,42.1084033,-70.7685508,Restaurants
Angelinas Pizzaria,419,419 Elm St,Braintree,MA,(781) 843-7827,42.226297,-70.992458,Restaurants
Weeksies Pizza,66,66 3rd St,Dover,NH,(603) 742-5055,43.1985823,-70.8780496,Restaurants
Fores Restaurant,822,822 Lafayette Rd,Hampton,NH,(603) 601-7492,42.950304,-70.832638,Restaurants
Lilac City Grille,103,103 N Main St,Rochester,NH,(603) 332-3984,43.3054758,-70.9791776,Restaurants
Tu Metapan Restaurant,295,295 Bennington St,East Boston,MA,(617) 418-7383,42.378741,-71.028116,Restaurants
Artisan Bistro,12,12 Avery St,Boston,MA,(617) 574-7176,42.3531073,-71.0634412,Restaurants
Take Away,82,82 Chapel St,Norwood,MA,(781) 769-1395,42.1825844,-71.208495,Restaurants
Rancho Las Pupusas,36,36 2nd St,Chelsea,MA,(617) 884-1893,42.390386,-71.039957,Restaurants
Purple Cactus Barito & Wrap,674,674 Centre St,Jamaica Plain,MA,(617) 522-7422,42.312144,-71.113947,Restaurants
Demeter's Steakhouse,3612,3612 Lafayette Rd,Portsmouth,NH,(603) 766-0001,43.018495,-70.80159,Restaurants
Five Guys,104,104 Providence Hwy,East Walpole,MA,(508) 660-9850,42.1564725,-71.2018662,Restaurants
All American Tavern,34,34 Bridge Rd,Salisbury,MA,(978) 499-7100,42.836884,-70.861624,Restaurants
Abby Park,550,550 Adams St,Milton,MA,(617) 696-8700,42.258331,-71.040512,Restaurants
My Thai Cafe,3,3 Beach St Fl 2,Boston,MA,(617) 451-2395,42.3514555,-71.0625451,Restaurants
Scoozi Kenmore,580,580 Commonwealth Ave Unit 1,Boston,MA,(617) 536-7777,42.348792,-71.099423,Restaurants
Canary Square,435,435 S Huntington Ave,Jamaica Plain,MA,(617) 524-2500,42.3197951,-71.1119846,Restaurants
Wellys Restaurant,153,153 Main St Ste A,Marlborough,MA,(508) 281-2091,42.346956,-71.548369,Restaurants
Mike & Pattys,12,12 Church St,Boston,MA,(617) 423-3447,42.348461,-71.067892,Restaurants
Oneills Pub & Restaurant,120,120 Washington St,Salem,MA,(978) 740-8811,42.521034,-70.895793,Restaurants
Boloco,283,283 Longwood Ave Ste 1,Boston,MA,(617) 232-2166,42.337992,-71.104476,Restaurants
Menotomy Grill & Tavern,25,25 Massachusetts Ave,Arlington,MA,(781) 648-1775,42.4016379,-71.13681,Restaurants
Cobblestone Cafe,227,227 Hanover St,Boston,MA,(857) 263-8057,42.3629898,-71.0550907,Restaurants
Passports,110,110 Main St,Gloucester,MA,(978) 281-3680,42.612535,-70.663738,Restaurants
Ye Olde Standish Grille,175,175 N Bedford St,East Bridgewater,MA,(508) 378-3682,42.038196,-70.957194,Restaurants
Red Robin Gourmet Burgers and Brews,250,250 Granite St,Braintree,MA,(781) 348-6103,42.2220443,-71.0227762,Restaurants
One Ten Grill Hopkinton,1,1 Lumber St,Hopkinton,MA,(508) 625-2141,42.21751734,-71.54101382,Restaurants
Down Ultra Lounge,184,184 High St,Boston,MA,(617) 292-4650,42.356676,-71.052569,Restaurants
Not Your Average Joe's,90,90 Pleasant Valley St Ste 200,Methuen,MA,(978) 974-0015,42.7436254,-71.1583764,Restaurants
Shabu Village,417,417 Harvard St,Brookline,MA,(617) 566-0888,42.3454884,-71.1268319,Restaurants
Jake N Joes Sports Grill-Braintree,551,551 John Mahar Hwy,Braintree,MA,(781) 843-3828,42.198784,-71.000159,Restaurants
Texas Roadhouse,20,20 Shops At 5 Way,Plymouth,MA,(508) 746-7700,41.9306192,-70.6567258,Restaurants
Boloco,133,133 Federal St Ste 102,Boston,MA,(617) 357-9727,42.3542265,-71.0564904,Restaurants
Central America Restauarant,172,172 Main St,Hudson,MA,(978) 310-7180,42.391505,-71.564592,Restaurants
Anthony's On The Green,212,212 Prentice St,Holliston,MA,(508) 429-4848,42.2033372,-71.4545717,Restaurants
Brothers Roast Beef Co,356,356 Bridge St,Dedham,MA,(781) 686-1404,42.259174,-71.178118,Restaurants
Frogmore LLC,365,365 Centre St,Jamaica Plain,MA,(857) 203-9462,42.322657,-71.108212,Restaurants
Sulmona Restaurant Group LLC,608,608 Main St,Cambridge,MA,(617) 714-3450,42.3628465,-71.093902,Restaurants
Red Robin Gourmet Burgers and Brews,369,369 Washington St,Woburn,MA,(339) 298-7668,42.500251,-71.123761,Restaurants
110 Grill,1175,1175 Main St,Haverhill,MA,(978) 641-3999,42.808697,-71.101769,Restaurants
Fritay Restaurant,604,604 Blue Hill Ave,Dorchester,MA,(617) 524-5800,42.303727,-71.084738,Restaurants
Wingstop,958,958 American Legion Hwy,Roslindale,MA,(617) 327-2410,42.27574169,-71.11553778,Restaurants
Jersey Mike's Subs,1810,1810 Washington St Ste C,Hanover,MA,(781) 924-0094,42.14844,-70.8463349,Restaurants
Ruth's Chris Steak House,500,500 Totten Pond Rd,Waltham,MA,(781) 622-9775,42.39690441,-71.25686218,Restaurants
Smashburger,545,545 Boylston Boston,Boston,MA,(617) 655-0351,42.3508,-71.07462,Restaurants
Dig Inn,82,82 Mount Auburn St,Cambridge,MA,(617) 904-4344,42.3721825,-71.1195982,Restaurants
Melting Pot,344,344 Huron Ave,Cambridge,MA,(617) 945-1485,42.381098,-71.138039,Restaurants
Ninety Nine Restaurant & Pub,100,100 Macy St,Amesbury,MA,(978) 378-5699,42.847264,-70.911472,Restaurants
Not Your Average Joe's,1138,1138 Worcester Rd,Framingham,MA,(508) 875-9929,42.29857,-71.443682,Restaurants
Legal Sea Foods,15,15 Columbus,Boston,MA,(617) 426-7777,42.35149369,-71.06850545,Restaurants
Brewer's Coalition Waltham Pubs Inc,344,344 Walnut St,Newtonville,MA,(617) 467-4691,42.349248,-71.206641,Restaurants
Legal Sea Foods,55,55 Boylston St,Brookline,MA,(617) 735-1858,42.3315478,-71.1191653,Restaurants
The Brown Dog,14,14 Central St,Ipswich,MA,(978) 312-6362,42.680258,-70.838289,Restaurants
110 Grill,19,19 Portsmouth Ave,Stratham,NH,(603) 777-5110,42.99695782,-70.92430242,Restaurants
Chart House,77,77 Warren St,Brighton,MA,(617) 254-5636,42.3490373,-71.1426612,Restaurants
Yard House,108,108 Middlesex Tpke,Burlington,MA,(781) 229-3911,42.4802596,-71.2175245,Restaurants
Five Guys,291,291 S Broadway,Salem,NH,(603) 824-6945,42.758793,-71.211351,Restaurants
Harbor Grill,180,180 Water St,Plymouth,MA,(508) 747-4900,41.9622136,-70.6703671,Restaurants
Library Restaurant at the Rockingham House,401,401 State St Unit 5,Portsmouth,NH,(603) 431-5202,43.0753156,-70.7596877,Restaurants
Blue Ribbon Barbecue Inc,1375,1375 Washington St,West Newton,MA,(617) 332-2583,42.3487164,-71.2293325,Restaurants
Colonial Bar & Grill,1,1 Audubon Rd Ste 1,Wakefield,MA,(781) 245-9300,42.5161267,-71.0391422,Restaurants
Dolphin Striker,15,15 Bow St,Portsmouth,NH,(603) 431-5222,43.07843792,-70.75734271,Restaurants
T W's Pub,1794,1794 Bridge St Ste 1a,Dracut,MA,(978) 458-0555,42.6844366,-71.310869,Restaurants
Ducali Pizzeria & Bar,289,289 Causeway St,Boston,MA,(617) 742-4144,42.367068,-71.058082,Restaurants
Reds Sandwich Shop,15,15 Central St,Salem,MA,(978) 745-3527,42.521114,-70.893372,Restaurants
Riverbend Bar & Grill,2345,2345 Commonwealth Ave,Auburndale,MA,(617) 969-1000,42.3463801,-71.2582198,Restaurants
Stacey Jane's Restaurant,9,9 Ocean Blvd Ste A,Hampton,NH,(603) 929-9005,42.9009609,-70.8149685,Restaurants
Modern Underground Bar & Grill,263,263 Hanover St,Boston,MA,(617) 756-1365,42.363313,-71.054679,Restaurants
Johns Roast Beef,111,111 Western Ave,Lynn,MA,(781) 595-6105,42.48112,-70.945508,Restaurants
Chip Shots,245,245 Ayer Rd,Littleton,MA,(978) 772-0072,42.5520042,-71.5348127,Restaurants
Bradford Seafood Restaurant & Fish Market,124,124 Winter St,Haverhill,MA,(978) 373-6597,42.777598,-71.082054,Restaurants
Essex Street Grille,2,2 Shady Ln,Haverhill,MA,(978) 372-4477,42.768558,-71.13494,Restaurants
River Club,78,78 Border St,Scituate,MA,(781) 545-1330,42.228375,-70.780031,Restaurants
Mikes City Diner,1714,1714 Washington St,Boston,MA,(617) 267-9393,42.336915,-71.07599,Restaurants
Draft,34,34 Harvard Ave,Brookline,MA,(617) 783-9400,42.3356932,-71.1227718,Restaurants
Paulies,65,65 Salem St,Boston,MA,(857) 284-7064,42.363264,-71.055907,Restaurants
Black Raspberry Pub,36,36 Cordage Park Cir Ste 111,Plymouth,MA,(508) 830-0022,41.9793881,-70.6881959,Restaurants
Blue Ribbon Barbecue,910,910 Massachusetts Ave,Arlington,MA,(781) 648-7427,42.41773285,-71.16495409,Restaurants
My Place By The Sea Bear Skin Neck,68,68 Bearskin Nck,Rockport,MA,(978) 546-9667,42.6608503,-70.6145212,Restaurants
Calas,7,7 Beach St,Manchester,MA,(978) 525-3304,42.5747788,-70.7703526,Restaurants
Mocking Bird,838,838 N Bedford St,East Bridgewater,MA,(508) 378-4911,42.056563,-70.952877,Restaurants
Jimmys Roast Beef,435,435 Boston St,Lynn,MA,(781) 592-8242,42.466396,-70.968109,Restaurants
Halfway Cafe,394,394 Main St,Watertown,MA,(617) 926-3595,42.3699622,-71.193583,Restaurants
Bubbling Brook Restaurant,1652,1652 High St,Westwood,MA,(781) 762-9860,42.20144,-71.250051,Restaurants
Clam Box,789,789 Quincy Shore Dr,Quincy,MA,(617) 773-6677,42.276266,-71.009298,Restaurants
Blue Shamrock,105,105 Market St,Lowell,MA,(978) 458-1288,42.6446604,-71.3105479,Restaurants
Bestro Restaurant,225,225 William F Mcclellan Hwy,East Boston,MA,(617) 569-5250,42.387276,-71.016269,Restaurants
Ale House,33,33 Main St,Amesbury,MA,(978) 388-1950,42.857371,-70.931072,Restaurants
Saltwater Diner,512,512 Nantasket Ave,Hull,MA,(781) 925-9099,42.282393,-70.873221,Restaurants
Peppys Pizzeria,165,165 Fort Ave,Salem,MA,(978) 744-9444,42.534633,-70.869762,Restaurants
Rollys Tavern On The Square,338,338 Broadway,Lynn,MA,(781) 599-2160,42.4850384,-70.9597526,Restaurants
Stop & Taste,667,667 North St,Randolph,MA,(781) 963-4580,42.182863,-71.0270309,Restaurants
Ansel S Gurney House,403,403 County Rd,Marion,MA,(508) 748-1111,41.751837,-70.782157,Restaurants
Coda Kitchen & Bar,329,329 Columbus Ave Ste 1,Boston,MA,(617) 536-2632,42.34627,-71.075055,Restaurants
American Pizza & Grill,2360,2360 Cranberry Hwy,West Wareham,MA,(508) 273-0501,41.788963,-70.750377,Restaurants
Penguin Pizza,735,735 Huntington Ave,Boston,MA,(617) 277-9200,42.334057,-71.105575,Restaurants
Glenns Restaurant & Cool Bar,50,50 Water St Ste 304,Newburyport,MA,(978) 465-3811,42.8102552,-70.8660275,Restaurants
Frenchs Restaurant,825,825 Main St,Tewksbury,MA,(978) 851-2111,42.614854,-71.241923,Restaurants
Charlies Kitchen,10,10 Eliot St,Cambridge,MA,(617) 492-9646,42.372377,-71.121454,Restaurants
Woodys Grill & Tap,58,58 Hemenway St,Boston,MA,(617) 375-9663,42.3448173,-71.0894412,Restaurants
Maxs Deli Cafe,151,151 Milk St,Boston,MA,(617) 330-9790,42.3577116,-71.0540807,Restaurants
Fantail Restaurant Inc,228,228 Faneuil Hall Market Pl,Boston,MA,(617) 227-8180,42.36024367,-71.05392646,Restaurants
IHOP,16,16 Eliot St Ste 18,Cambridge,MA,(617) 354-0999,42.372072,-71.121484,Restaurants
Seacoast Taekwondo,9,9 Smiths Ln,Seabrook,NH,(603) 474-8888,42.87522662,-70.8724203,Restaurants
Mary Lous Coffee Rockland,200,200 Webster St,Rockland,MA,(781) 878-4471,42.1338819,-70.9094251,Restaurants
Navy Yard Bistro & Wine Bar,1,1 1st Ave,Charlestown,MA,(617) 242-0036,42.3752877,-71.0544756,Restaurants
Mccormick & Schmicks Seafood,1,1 Faneuil Hall Market Pl,Boston,MA,(617) 720-5522,42.35976723,-71.05346139,Restaurants
Little Sammis,1145,1145 W Chestnut St,Brockton,MA,(508) 436-4766,42.054018,-71.063176,Restaurants
Willow Rest,1,1 Holly St,Gloucester,MA,(978) 283-2417,42.6423245,-70.6700862,Restaurants
Neapoli Cafe & Pizzeria,43,43 Lebanon St,Malden,MA,(781) 321-0300,42.434356,-71.0455659,Restaurants
Riverside Pizza,7,7 Needham St,Dedham,MA,(781) 329-3329,42.270409,-71.174315,Restaurants
Casa-Bella Pizza,454,454 Main St,Medfield,MA,(508) 359-4040,42.186782,-71.304432,Restaurants
Choate Bridge Restaurant,3,3 S Main St,Ipswich,MA,(978) 356-2931,42.6797903,-70.8374571,Restaurants
American Barbecue,5,5 Railroad Ave,Rowley,MA,(978) 948-2626,42.724819,-70.864997,Restaurants
Firehouse Subs,103,103 Commerce Way Ste C1,Woburn,MA,(781) 938-7827,42.5175483,-71.1372614,Restaurants
District,103,103 Congress St,Portsmouth,NH,(603) 501-0586,43.0763245,-70.75976,Restaurants
L St Diner & Pizzeria,108,108 L St,South Boston,MA,(617) 268-1155,42.334047,-71.035114,Restaurants
Royal Pizza,483,483 Main St,Medfield,MA,(508) 359-2424,42.186109,-71.306269,Restaurants
Patio Restaurant of Magnolia,12,12 Lexington Ave,Gloucester,MA,(978) 525-3230,42.5768903,-70.7115413,Restaurants
Commercial Club-E Bridgewater,1,1 Neilson Ave,East Bridgewater,MA,(508) 378-2032,42.038442,-70.960872,Restaurants
Aura Restaurant,1,1 Seaport Ln,Boston,MA,(617) 385-4300,42.349316,-71.041742,Restaurants
Royal Roast Beef & Seafood II,475,475 Main St,Stoneham,MA,(781) 438-7779,42.475759,-71.100956,Restaurants
Sunnycrest Farms Inc,59,59 High Range Rd,Londonderry,NH,(603) 432-9652,42.84494365,-71.39883889,Restaurants
Pizzeria 260,260,260 W Broadway,South Boston,MA,(617) 268-9600,42.339407,-71.051422,Restaurants
Manjia Neapolitan Pizza,7,7 Ellery St,South Boston,MA,(857) 496-1581,42.330283,-71.058569,Restaurants
InBoston,175,175 Massachusetts Ave,Boston,MA,(617) 982-7118,42.345828,-71.087367,Restaurants
Crown Pizza Grill,2,2 Elm St,Braintree,MA,(781) 849-3354,42.221266,-71.004004,Restaurants
Depasquales at Night Cap Corner,339,339 River St,West Newton,MA,(617) 916-1842,42.357967,-71.239305,Restaurants
Primo Pizza and Roast Beef,783,783 Main St,Cambridge,MA,(617) 945-0878,42.363386,-71.096885,Restaurants
Glass House,450,450 Kendall St,Cambridge,MA,(617) 945-1106,42.3633642,-71.0815177,Restaurants
Cambridge One,27,27 Church St,Cambridge,MA,(617) 576-1111,42.374491,-71.119993,Restaurants
Prime Deli Inc,580,580 South St,Waltham,MA,(781) 893-4344,42.3606459,-71.2613811,Restaurants
Flat Top Johnnys,1,1 Kendall Sq Ste B2104,Cambridge,MA,(617) 494-9565,42.3670663,-71.0905674,Restaurants
Demainos Restaurant,14,14 Malden St,Revere,MA,(781) 284-8110,42.416453,-71.008885,Restaurants
Hidden Kitchen,535,535 Albany St Ste 2a,Boston,MA,(617) 426-1544,42.3384205,-71.0669404,Restaurants
A-1 Deli Inc,92,92 Merrimack St,Haverhill,MA,(978) 372-7951,42.7744237,-71.0787913,Restaurants
Sissy K's,6,6 Commercial St,Boston,MA,(617) 248-6511,42.3595973,-71.0540411,Restaurants
Bar Harbor Golf Course,51,51 Jordan River Rd,Ellsworth,ME,(207) 667-7505,44.489165,-68.3658256,Restaurants
Luciano's at Lake Pearl,299,299 Creek St,Wrentham,MA,(508) 384-3003,42.0655343,-71.3439303,Restaurants
Beni Cafe,405,405 Hancock St,Quincy,MA,(617) 657-0008,42.2735239,-71.025789,Restaurants
Witches Brew Cafe,156,156 Derby St Ste 1,Salem,MA,(978) 745-8717,42.5219263,-70.8861633,Restaurants
In A Pigs Eye Restaurant,148,148 Derby St,Salem,MA,(978) 741-4436,42.52215,-70.885791,Restaurants
Cranberry Cottage,246,246 Marion Rd,Wareham,MA,(774) 678-4593,41.753124,-70.733437,Restaurants
Capri,6,6 Driftway,Salisbury,MA,(978) 462-7543,42.84283423,-70.81790929,Restaurants
Rhythm Cafe Inc,12,12 School St,Merrimac,MA,(978) 346-0444,42.833263,-71.001711,Restaurants
Petes Place,614,614 Washington St,Canton,MA,(781) 828-6960,42.154148,-71.146101,Restaurants
Orinoco,22,22 Harvard St,Brookline,MA,(617) 232-9505,42.3338119,-71.1190353,Restaurants
People Republic,878,878 Massachusetts Ave,Cambridge,MA,(617) 491-6969,42.367622,-71.107939,Restaurants
Annaa Country Kitchen,1899,1899 Ocean St Ste K,Marshfield,MA,(781) 834-8888,42.091775,-70.70517,Restaurants
Cooking From The Heart 4 School,4,4 School St,Pembroke,MA,(781) 293-8422,42.0437208,-70.8413947,Restaurants
Paddy O's,33,33 Union St Ste A,Boston,MA,(617) 263-7771,42.360633,-71.056633,Restaurants
Tresca's Eating Place,25,25 Church St,Watertown,MA,(617) 924-9600,42.3669053,-71.1850059,Restaurants
Viga,133,133 Pearl St Ste 1,Boston,MA,(617) 482-1112,42.354735,-71.053838,Restaurants
Legal Sea Foods,96,96 Derby St,Hingham,MA,(781) 556-0010,42.18001425,-70.90918827,Restaurants
Lee Circle Grocery,87,87 Calef Hwy,Lee,NH,(603) 868-3040,43.15096021,-71.00585026,Restaurants
Speed Well Tavern,47,47 Main St,Plymouth,MA,(508) 927-4724,41.9567252,-70.6643372,Restaurants
Bar Louie,121,121 Brookline Ave,Boston,MA,(617) 449-7010,42.3462145,-71.1008703,Restaurants
Liberty Bell Roast Beef,886,886 Main St,Melrose,MA,(781) 662-6900,42.46506893,-71.06185546,Restaurants
Raider Tavern,208,208 Waverley Ave,Watertown,MA,(617) 744-0300,42.37695046,-71.18839409,Restaurants
River Bar,661,661 Assembly Row,Somerville,MA,(617) 616-5561,42.39562208,-71.07913044,Restaurants
Red Heat Tavern,300,300 Lowell St,Wilmington,MA,(978) 447-5669,42.5395212,-71.1410704,Restaurants
Ninety Nine Restaurant & Pub,659,659 Worcester Rd,Framingham,MA,(508) 626-3639,42.299191,-71.42439,Restaurants
Haven Restaurant,272,272 Calef Hwy,Epping,NH,(603) 679-1427,43.04280069,-71.06310916,Restaurants
My Cousins Place Coffee Shop,396,396 Hanover St,Boston,MA,(857) 350-3029,42.366026,-71.052953,Restaurants
Skybokx 109,319,319 Speen St,Natick,MA,(508) 903-1600,42.3025921,-71.3777492,Restaurants
Waterfall Bar & Grille Ltd,2,2 Forge Pond,Canton,MA,(781) 821-2313,42.1545579,-71.1450389,Restaurants
Rosebud American Kitchen & Bar,381,381 Summer St,Somerville,MA,(617) 629-9500,42.394439,-71.120835,Restaurants
Abbey,1755,1755 Massachusetts Ave,Cambridge,MA,(617) 714-4781,42.385211,-71.1190632,Restaurants
Oak Lounge,810,810 N Montello St,Brockton,MA,(508) 588-9798,42.10504366,-71.0219237,Restaurants
Thirsty Scholar Pub,70,70 Beacon St,Somerville,MA,(617) 497-2294,42.376358,-71.104308,Restaurants
Good Days Restaurant,99,99 S Main St,West Bridgewater,MA,(508) 584-0077,42.0167254,-71.0031723,Restaurants
Galley Diner,11,11 P St,South Boston,MA,(617) 464-1024,42.3377975,-71.0273543,Restaurants
Jo Jo Tai Pei,103,103 Brighton Ave,Allston,MA,(617) 254-8889,42.3530373,-71.1305212,Restaurants
Legal Test Kitchen,12,12 Harborside Dr,East Boston,MA,(617) 568-1888,42.36298491,-71.02510069,Restaurants
Finnegans Wake,1034,1034 East St Ste 2,Walpole,MA,(508) 668-1189,42.146293,-71.255425,Restaurants
A Tabola,34,34 Church St,Winchester,MA,(781) 729-1040,42.451395,-71.138736,Restaurants
El Jardin Restaurant,15,15 Central Sq,East Boston,MA,(617) 569-6508,42.374334,-71.038652,Restaurants
Otto Pizza,888,888 Commonwealth Ave,Boston,MA,(617) 232-0447,42.350619,-71.115272,Restaurants
Blue House,21,21 Birch St,Derry,NH,(603) 818-4363,42.879955,-71.322648,Restaurants
Georges Roast Beef Inc,124,124 Broad St,Lynn,MA,(781) 599-2209,42.463108,-70.940286,Restaurants
Mickey Cassidy's,116,116 Main St Ste 5,Medway,MA,(508) 533-1343,42.1507497,-71.4173589,Restaurants
Centre Street Cafe,669,669 Centre St Ste A,Jamaica Plain,MA,(617) 524-9217,42.3125204,-71.1143718,Restaurants
Hennessys,25,25 Union St,Boston,MA,(617) 742-2121,42.365213,-71.049789,Restaurants
Washington Square Tavern,714,714 Washington St,Brookline,MA,(617) 232-8989,42.3389773,-71.1350543,Restaurants
Kennedy's Pub Inc,247,247 Maple St Ste A,Marlborough,MA,(508) 485-5800,42.338699,-71.542359,Restaurants
West Roxbury Pub & Restaurant Inc,1885,1885 Centre St,West Roxbury,MA,(617) 469-2624,42.285947,-71.15579,Restaurants
Tossed,1,1 Post Office Sq Rear 3,Boston,MA,(617) 423-0700,42.35682803,-71.05588622,Restaurants
Wingstop,173,173 Border St,East Boston,MA,(617) 569-9464,42.3741588,-71.0400594,Restaurants
Johnny Rockets,300,300 Terminal C Ste 28,East Boston,MA,(617) 634-6031,42.3666773,-71.0164311,Restaurants
Himalayan Bistro Indian & Nepalese Food,1735,1735 Centre St,West Roxbury,MA,(617) 325-3500,42.287408,-71.149759,Restaurants
Cafe Nostimo,72,72 Mirona Rd Ste 21,Portsmouth,NH,(603) 436-3100,43.048111,-70.7747264,Restaurants
Vee Vee,763,763 Centre St,Jamaica Plain,MA,(617) 522-0145,42.3104299,-71.115181,Restaurants
Cherry Tree,1349,1349 Washington St,West Newton,MA,(617) 965-9796,42.349007,-71.228637,Restaurants
Fast Eddies Dinner,320,320 Lafayette Rd,Hampton,NH,(603) 926-2314,42.937211,-70.838641,Restaurants
Marylous News,248,248 Atlantic Ave,Hull,MA,(781) 925-1047,42.2657311,-70.8453828,Restaurants
Victory Lane,32,32 Exchange St,Millis,MA,(508) 376-2595,42.166869,-71.361599,Restaurants
Phoenician Restaurant,12,12 Alpha St,Haverhill,MA,(978) 373-1714,42.775859,-71.130218,Restaurants
Chefs Table,201,201 Oak St Ste 1,Pembroke,MA,(781) 826-3320,42.1020451,-70.764065,Restaurants
Ts Pub,973,973 Commonwealth Ave,Boston,MA,(617) 254-0807,42.3520073,-71.1196912,Restaurants
Ninety Nine Restaurant & Pub,59,59 Newport Ave,Quincy,MA,(617) 472-5000,42.2728958,-71.0285736,Restaurants
Polish Russian Lith Amer Club,12,12 Cheever St,Danvers,MA,(978) 774-9815,42.554185,-70.92676,Restaurants
Fury's Public House,1,1 Washington St,Dover,NH,(603) 617-3633,43.1948345,-70.8709493,Restaurants
Uburger,636,636 Beacon St Ste 3,Boston,MA,(617) 536-0448,42.349562,-71.095286,Restaurants
Noel's Water Hole,274,274 South St,Hingham,MA,(781) 749-1720,42.2365172,-70.900521,Restaurants
Bill & Bobs Roast Beef,57,57 Main St,Woburn,MA,(781) 935-9842,42.467955,-71.146811,Restaurants
Chickie Flynns,94,94 Washington St,Foxboro,MA,(508) 203-9471,42.0846177,-71.2756954,Restaurants
Als South Street Cafe,179,179 Essex St,Boston,MA,(617) 330-1002,42.351888,-71.0575,Restaurants
Bobs Broiled Chicken,801,801 Islington St Ste 16,Portsmouth,NH,(603) 433-6355,43.068983,-70.772991,Restaurants
North Beach Bar & Grille,931,931 Ocean Blvd,Hampton,NH,(603) 967-4884,42.94158,-70.794456,Restaurants
Marylous News,1212,1212 Washington St,East Weymouth,MA,(781) 340-9529,42.196265,-70.926684,Restaurants
Squealing Pig,134,134 Smith St,Roxbury Crossing,MA,(617) 566-6651,42.334738,-71.102102,Restaurants
Biltmore,1205,1205 Chestnut St,Newton Upper Falls,MA,(617) 527-2550,42.30919,-71.221346,Restaurants
La Reina Cafeteria,80,80 Bennington St,East Boston,MA,(617) 567-0034,42.3760992,-71.0361207,Restaurants
Bollywood Grill,350,350 Winthrop Ave Ste 3,North Andover,MA,(978) 689-7800,42.6841441,-71.13855652,Restaurants
Sunnyside Diner,639,639 Broadway,Lawrence,MA,(978) 687-9057,42.717448,-71.178229,Restaurants
Chestnut Hill Restaurant,616,616 Hammond St,Chestnut Hill,MA,(617) 738-8654,42.323077,-71.163217,Restaurants
Bell In Hand Tavern,45,45 Union St,Boston,MA,(617) 227-2098,42.3615167,-71.0570482,Restaurants
Halfway Cafe,174,174 Washington St,Dedham,MA,(781) 326-3336,42.2531,-71.166947,Restaurants
J & R Indian Head Pub,278,278 Main St,Hanson,MA,(781) 294-8592,42.0428371,-70.8523749,Restaurants
T J Spirits South,355,355 W Union St,Ashland,MA,(508) 881-1565,42.24152165,-71.48600548,Restaurants
C & K Restaurant,3,3 E Broadway,Derry,NH,(603) 432-9875,42.880798,-71.32585,Restaurants
Boloco,50,50 Congress St Ste L1,Boston,MA,(617) 357-9013,42.35798,-71.055988,Restaurants
8 10 Bar & Grille,8,8 Norwood St,Everett,MA,(617) 387-9810,42.4071116,-71.0561931,Restaurants
Chucks Restaurant,68,68 Maple St,Danvers,MA,(978) 774-9714,42.566958,-70.937173,Restaurants
McKays Breakfast & Lunch,144,144 Franklin St,Quincy,MA,(617) 773-0099,42.2388342,-71.0030938,Restaurants
Garys Restaurant & Sports Bar,38,38 Milton Rd,Rochester,NH,(603) 335-4279,43.3274517,-70.9768945,Restaurants
Boston Market Strategies Inc,333,333 North Ave,Wakefield,MA,(781) 245-7773,42.5045058,-71.0770481,Restaurants
Pastry Box,3,3 Man Mar Dr Unit 11,Plainville,MA,(508) 695-5094,42.008104,-71.305849,Restaurants
FB Luncheonette,142,142 Bowdoin St,Boston,MA,(617) 523-8164,42.358546,-71.062461,Restaurants
Skewers Wood Grill,150F,150f New Boston St,Woburn,MA,(978) 863-0111,42.50751093,-71.14498272,Restaurants
Simards Super Roast Beef,279,279 Main St,Wilmington,MA,(978) 658-9331,42.553429,-71.179562,Restaurants
Mela Restaurant,578,578 Tremont St,Boston,MA,(617) 859-4805,42.343297,-71.072458,Restaurants
Karibu Restaurant,10,10 Crescent St,Waltham,MA,(781) 899-7444,42.37164,-71.237342,Restaurants
Black Horse Tavern,32,32 Waterfield Rd,Winchester,MA,(781) 369-1620,42.45144135,-71.1374066,Restaurants
Costellos Tavern,723,723 Centre St,Jamaica Plain,MA,(617) 522-9263,42.3112573,-71.1147312,Restaurants
Thorntons Restaurant,150,150 Huntington Ave,Boston,MA,(617) 267-6336,42.3449273,-71.0817911,Restaurants
Lloyds Diner,184,184 Fountain St,Framingham,MA,(508) 879-8750,42.27529,-71.431731,Restaurants
Roy Moore Lobster Co See Moore Roy Lobster Co,39,39 Bearskin Nck,Rockport,MA,(978) 546-6696,42.6596641,-70.6157018,Restaurants
Harrows Chicken Pies,275,275 Mystic Ave Ste 2,Medford,MA,(781) 306-0410,42.405452,-71.101639,Restaurants
Fast Eddies Pizza,1696,1696 Commonwealth Ave,Brighton,MA,(617) 277-0324,42.341242,-71.146507,Restaurants
Porter Bellys,338,338 Washington St,Brighton,MA,(617) 254-3300,42.3489099,-71.15253,Restaurants
Dandi-Lyons,1331,1331 Main St,Reading,MA,(781) 942-2049,42.5538685,-71.1046225,Restaurants
Inbound Pizza,1232,1232 Commonwealth Ave,Allston,MA,(617) 566-1617,42.34981,-71.130905,Restaurants
Ember,459,459 Plain St,Marshfield,MA,(781) 834-9159,42.103909,-70.734588,Restaurants
Cronins Public House,23,23 Desmoines Rd,Quincy,MA,(617) 786-9804,42.242018,-70.979971,Restaurants
Goal Post Bar & Grille,226,226 Water St,Quincy,MA,(617) 471-6306,42.2403978,-71.0071068,Restaurants
Grass Roots Cafe,101,101 Arch St Ste 110,Boston,MA,(617) 951-2124,42.354954,-71.059085,Restaurants
Norms White Horse Inc,510,510 Lowell St,Methuen,MA,(978) 687-1211,42.700307,-71.221683,Restaurants
NY Pie,934,934 Moody St,Waltham,MA,(781) 373-1548,42.360278,-71.239111,Restaurants
Joe Sent Me,849,849 Main St,Waltham,MA,(781) 894-3153,42.3764185,-71.2447548,Restaurants
Baystate Chowda,109,109 Main St,North Andover,MA,(978) 685-9610,42.702742,-71.131791,Restaurants
Gracies Bar and Grill,5,5 Broadway,Salisbury,MA,(978) 358-8672,42.842777,-70.817917,Restaurants
Shamrock Pub,175,175 Railroad Ave,Norwood,MA,(781) 352-3591,42.1963952,-71.1988997,Restaurants
Porter Cafe,1723,1723 Centre St,West Roxbury,MA,(617) 942-2579,42.287382,-71.149201,Restaurants
Jon Ryan's Pubs,1795,1795 Main St,Tewksbury,MA,(978) 455-5197,42.592085,-71.208913,Restaurants
Tasting Counter,14,14 Tyler St Ste A,Somerville,MA,(617) 299-6362,42.3815434,-71.1055729,Restaurants
Five Guys,20,20 Rosebrook Pl Unit 3,Wareham,MA,(508) 273-7156,41.77388718,-70.73541074,Restaurants
Quarry Restaurant and Lounge,415,415 Whiting St,Hingham,MA,(781) 340-7300,42.192726,-70.917057,Restaurants
IHOP,17,17 Edgell Rd,Framingham,MA,(508) 270-2694,42.3005205,-71.4336433,Restaurants
Keltic American Assn,233,233 Lawrence St,Lawrence,MA,(978) 208-0030,42.7179339,-71.1668953,Restaurants
Dig Inn,557,557 Boylston St,Boston,MA,(617) 904-3711,42.350711,-71.076194,Restaurants
Blue Moon Restaurant,707,707 Western Ave,Lynn,MA,(781) 584-6153,42.463696,-70.964647,Restaurants
Sheesha Lounge,139,139 Magazine St Apt 2,Cambridge,MA,(617) 782-7433,42.358618,-71.111907,Restaurants
JJ Foleys Bar & Grill,21,21 Kingston St,Boston,MA,(617) 695-2529,42.353811,-71.059169,Restaurants
Canoe Club,2,2 South St,West Bridgewater,MA,(508) 588-4747,42.014922,-71.012082,Restaurants
Cambridge Brewing Co Inc,1,1 Kendall Sq Ste B1102,Cambridge,MA,(617) 494-1994,42.3670663,-71.0905674,Restaurants
Plough & Stars,912,912 Massachusetts Ave,Cambridge,MA,(617) 576-0032,42.3682163,-71.1087886,Restaurants
Summer Street Grille,653,653 Summer St,Boston,MA,(617) 269-2200,42.3403941,-71.0431418,Restaurants
Great Scotts,1222,1222 Commonwealth Ave,Allston,MA,(617) 566-9014,42.3507453,-71.1309713,Restaurants
Abbey,1657,1657 Beacon St,Brookline,MA,(617) 730-8040,42.338658,-71.136769,Restaurants
C & L Frosty,27,27 N Main St,Sherborn,MA,(508) 655-7570,42.2461068,-71.3697268,Restaurants
Carry Out Cafe,155,155 State St Ste 4,Newburyport,MA,(978) 499-2240,42.8008288,-70.8739102,Restaurants
Village Pizza & Grill,56,56 L St,South Boston,MA,(617) 269-9421,42.336371,-71.035267,Restaurants
Nine Lion Tavern,4,4 North Rd,Deerfield,NH,(603) 463-7374,43.133182,-71.240479,Restaurants
Burtons Grill,1,1 Cornerstone Sq,Westford,MA,(978) 692-1220,42.566971,-71.42563,Restaurants
Chicken Connection,37,37 Plaistow Rd Unit 11,Plaistow,NH,(603) 382-5150,42.82258,-71.103866,Restaurants
Capri Pizza,355,355 Main St,Reading,MA,(781) 944-9898,42.5184237,-71.1028914,Restaurants
Claddagh Restaurant & Pub,399,399 Canal St,Lawrence,MA,(978) 688-8337,42.7066848,-71.1622215,Restaurants
Dave & Buster's,271,271 Mishawum Rd,Woburn,MA,(781) 496-4900,42.50284749,-71.13950617,Restaurants
Bison Burger,22,22 South St Ste 102,Hopkinton,MA,(508) 435-5100,42.210561,-71.549947,Restaurants
Glenville Stops,87,87 Glenville Ave,Allston,MA,(617) 903-3638,42.3495773,-71.1349112,Restaurants
Eureka!,50,50 Water St Ste 24,Newburyport,MA,(978) 465-9359,42.8102552,-70.8660275,Restaurants
Soco Rose Bar & Grill,338,338 Union St,Franklin,MA,(508) 528-7626,42.077103,-71.403414,Restaurants
Hillside Pub,2,2 Royall St,Canton,MA,(781) 828-7778,42.2075948,-71.1204317,Restaurants
Dons Diner,121,121 South St Unit 7,Plainville,MA,(508) 695-7036,42.004903,-71.335938,Restaurants
Cafe Paradiso,255,255 Hanover St,Boston,MA,(617) 742-1768,42.363227,-71.054783,Restaurants
Square Deli,421A,421a Broadway,Everett,MA,(617) 389-9489,42.40637375,-71.05591498,Restaurants
Charlies Deli Inc,366,366 S Main St,Sharon,MA,(781) 784-5842,42.1076674,-71.1983779,Restaurants
Scali Cafe,147,147 Pearl St,Boston,MA,(617) 542-1965,42.3545874,-71.053681,Restaurants
Oregon Club,117,117 Oregon Rd,Ashland,MA,(508) 875-9030,42.2847,-71.490808,Restaurants
Jims Deli & Restaurant,371,371 Washington St,Brighton,MA,(617) 787-2626,42.349278,-71.154177,Restaurants
Flann Obriens,1619,1619 Tremont St,Roxbury Crossing,MA,(617) 566-7744,42.3338594,-71.1033423,Restaurants
Bukowskis,50,50 Dalton St Ste 4,Boston,MA,(617) 437-9999,42.3471049,-71.0858015,Restaurants
Franz's Food,46,46 Main St,Durham,NH,(603) 868-3800,43.1343013,-70.9258603,Restaurants
Jeanie Johnston Pub,144,144 South St,Jamaica Plain,MA,(617) 983-9432,42.3050841,-71.1144503,Restaurants
Persys Place,117,117 Main St,Kingston,MA,(781) 585-5464,41.9877312,-70.7127287,Restaurants
Phat Cats,65,65 Market St,Amesbury,MA,(978) 388-2777,42.860401,-70.929251,Restaurants
River Street Grill II,1263,1263 River St,Hyde Park,MA,(617) 364-6600,42.256025,-71.123712,Restaurants
Bovas Bakery,134,134 Salem St,Boston,MA,(617) 523-5601,42.365187,-71.0556006,Restaurants
Biddy Earlys,141,141 Pearl St Ste 1,Boston,MA,(617) 654-9944,42.354635,-71.053742,Restaurants
Galway Pub,58,58 Court St,Plymouth,MA,(508) 746-6452,41.9584527,-70.667919,Restaurants
Copper Lantern,54,54 Lafayette Rd,North Hampton,NH,(603) 964-5008,42.969623,-70.8361369,Restaurants
Tremont Mill Pond Diner,2571,2571 Cranberry Hwy,Wareham,MA,(508) 295-9688,41.767015,-70.724209,Restaurants
My Sister & I Restaurant,42,42 Central Sq,Bridgewater,MA,(508) 697-9544,41.989197,-70.9757,Restaurants
Silver Fox Banquet & Function Rooms,530,530 2nd St,Everett,MA,(617) 387-1860,42.403655,-71.054898,Restaurants
Timothy's,225,225 Newbury St,Danvers,MA,(978) 774-7270,42.5792274,-70.9674895,Restaurants
Stillwell's Country Ice Cream,518,518 Main St,Fremont,NH,(603) 895-4009,42.98094311,-71.12445342,Restaurants
Cornerstone Cafe,65,65 Main St,Plymouth,MA,(508) 746-7773,41.957152,-70.664665,Restaurants
Martini's Bar & Grill,50,50 Court St,Plymouth,MA,(774) 773-9782,41.958186,-70.6674927,Restaurants
Darwins Ltd,313,313 Massachusetts Ave,Cambridge,MA,(617) 497-1000,42.3625397,-71.0984529,Restaurants
Windham Juction Country Store,128,128 N Lowell Rd,Windham,NH,(603) 434-7467,42.8422,-71.299275,Restaurants
Avocados Mexican Taquerias,372,372 South Ave,Whitman,MA,(781) 447-3232,42.083211,-70.9245408,Restaurants
Durty Nellys,108,108 Blackstone St,Boston,MA,(617) 742-2090,42.361756,-71.056629,Restaurants
Chris Famous Pizza,124,124 Lowell St,Methuen,MA,(978) 687-2333,42.720306,-71.195599,Restaurants
Coops Bar & Grill,520,520 Washington St,Quincy,MA,(617) 472-2667,42.247677,-70.980064,Restaurants
Major Magleashes Pub,268,268 Washington St,Salem,MA,(978) 744-2328,42.517373,-70.893924,Restaurants
Lucky Dawg Tavern & Grill,242,242 Mattakeesett St,Pembroke,MA,(781) 293-3600,42.06057496,-70.82847068,Restaurants
2nd Street Cafe,89,89 2nd St Ste 1,Cambridge,MA,(617) 661-1311,42.3685344,-71.079313,Restaurants
Hancock Tavern,668,668 Hancock St,Quincy,MA,(617) 472-5554,42.2678315,-71.015969,Restaurants
Not Your Average Joe's,210,210 Andover St Ste E139,Peabody,MA,(978) 531-6868,42.5413325,-70.9439351,Restaurants
Three Cod Tavern,141,141 Pleasant St,Marblehead,MA,(781) 639-3263,42.500849,-70.858123,Restaurants
Pub at Widows Walk,250,250 Driftway,Scituate,MA,(781) 544-0032,42.1771,-70.736624,Restaurants
Cracker Barrel Old Country Store,613,613 Main St,Hingham,MA,(781) 749-5001,42.215443,-70.885123,Restaurants
Jokers Lounge,135,135 Stewart St,Dracut,MA,(978) 957-7711,42.6810629,-71.3740994,Restaurants
Brewe'd Awakening Coffeehaus,61,61 Market St Unit 1,Lowell,MA,(978) 454-2739,42.6446112,-71.3097367,Restaurants
Sabatino's Italian Kitchen,1443,1443 Commonwealth Ave,Brighton,MA,(617) 787-9393,42.348935,-71.140288,Restaurants
Stonebridge Bistro,5,5 East Blvd,Onset,MA,(508) 291-2229,41.7426698,-70.6546052,Restaurants
Metropolitan Bar & Grill,1245,1245 Worcester St Ste 3009,Natick,MA,(508) 651-0003,42.3004711,-71.3857931,Restaurants
Kastore Restaurant,100,100 Tyngsboro Rd,North Chelmsford,MA,(978) 251-4020,42.644464,-71.391492,Restaurants
103 Merrimack Street Inc,103,103 Merrimack St,Haverhill,MA,(978) 374-4370,42.7746723,-71.079222,Restaurants
Oasis Restaurant,373,373 Main St,Medford,MA,(781) 396-8337,42.405291,-71.108266,Restaurants
Theos Restaurant,122,122 W Main St Apt 9,Georgetown,MA,(978) 352-6171,42.729586,-70.99737,Restaurants
Bucks Bar & Grill,416,416 Middle St,East Weymouth,MA,(781) 337-9905,42.209879,-70.943216,Restaurants
New Old Oak,74,74 E Main St,Merrimac,MA,(978) 346-9997,42.8367239,-70.992296,Restaurants
Cafe Costa Del Sol,366,366 Broadway,Revere,MA,(781) 485-0555,42.40964,-71.012751,Restaurants
Boyles Market,64,64 Broadway,Arlington,MA,(781) 646-1188,42.408714,-71.137742,Restaurants
Pickled Onion Inc,355,355 Rantoul St,Beverly,MA,(978) 232-3973,42.552307,-70.882399,Restaurants
Tremonte Pizzaria and Pub,44,44 Palmer St,Lowell,MA,(978) 453-1110,42.645015,-71.310558,Restaurants
Plum Island Beach Comber,23,23 Plum Island Blvd,Newbury,MA,(978) 358-8218,42.798824,-70.810261,Restaurants
River Bend Variety,31,31 George St,Dover,NH,(603) 749-6249,43.192908,-70.87168,Restaurants
21st Amendment,150,150 Bowdoin St,Boston,MA,(617) 227-7101,42.3583536,-71.0625823,Restaurants
Squires of Hanover,1202,1202 Washington St,Hanover,MA,(781) 826-3360,42.1376009,-70.842363,Restaurants
Early American Restaurant,1054,1054 Hancock St,Quincy,MA,(617) 328-8225,42.256381,-71.007025,Restaurants
Wings Express of Brighton,563,563 Washington St,Brighton,MA,(617) 783-9464,42.349936,-71.164393,Restaurants
Pomodori Georgetown,42,42 Central St,Georgetown,MA,(978) 769-5623,42.721871,-70.992241,Restaurants
Osborn Tavern,49,49 Maple St Ste 1b,Danvers,MA,(978) 304-4728,42.566924,-70.936385,Restaurants
Cafe Utec,41,41 Warren St,Lowell,MA,(978) 856-3974,42.64316998,-71.30727865,Restaurants
Legal Sea Foods,10,10 City Sq,Charlestown,MA,(617) 712-1988,42.372293,-71.0616905,Restaurants
Legal Sea Foods,30,30 Forbes Rd,Braintree,MA,(781) 817-1292,42.220455,-71.030511,Restaurants
Legal Sea Foods,301,301 Great River Rd,Somerville,MA,(617) 337-4088,42.39589268,-71.08104896,Restaurants
Sunset Tiki Bar and Grill,79,79 Powers Rd,Westford,MA,(978) 692-5700,42.54242687,-71.44064727,Restaurants
Earls Kitchen and Bar,800,800 Boylston St,Boston,MA,(857) 957-0949,42.34829638,-71.08342828,Restaurants
Michael's Restaurant,208,208 Fitchburg Tpke,Concord,MA,(978) 371-1114,42.4217748,-71.3722896,Restaurants
Zeke's Place,66,66 E Main St,Gloucester,MA,(978) 283-7817,42.614467,-70.647751,Restaurants
Moogys Sandwich Shop,154,154 Chestnut Hill Ave,Brighton,MA,(617) 254-8114,42.341551,-71.1542599,Restaurants
One Cup Coffee,224,224 Dedham St Ste 2,Norfolk,MA,(508) 384-0111,42.0903402,-71.300294,Restaurants
Five Guys,197,197 Boston Post Rd W Ste K1,Marlborough,MA,(508) 281-4855,42.3391594,-71.5905116,Restaurants
El Santaneco,24,24 5th St,Chelsea,MA,(617) 884-5005,42.393257,-71.03493,Restaurants
Cornucopia Foods,61,61 Pleasant St,Malden,MA,(781) 321-3890,42.4270225,-71.0686801,Restaurants
New London Style Pizza of Concord,71,71 Thoreau St,Concord,MA,(978) 369-7053,42.457211,-71.357677,Restaurants
Nicks Roast Beef,139,139 Dodge St Ste 2,Beverly,MA,(978) 927-6029,42.582632,-70.884186,Restaurants
Haleys Package Store,112,112 Washington St,Marblehead,MA,(781) 631-0169,42.504659,-70.849825,Restaurants
Brads Gourmet Deli,234,234 Washington St Ste 11,Hudson,MA,(978) 562-5293,42.3803415,-71.5656351,Restaurants
Prospector East Saloon,520,520 Lincoln St,Marlborough,MA,(508) 485-9072,42.344134,-71.562538,Restaurants
Punjabi Dhaba Restaurant,225,225 Hampshire St,Cambridge,MA,(617) 547-8272,42.373903,-71.100789,Restaurants
Three Ponds Tavern Inc,881,881 White Mountain Hwy,Milton,NH,(603) 652-7743,43.43510635,-70.98832291,Restaurants
La Pupusa Loca Restaurant,144,144 Waverley St,Framingham,MA,(774) 777-5960,42.27896518,-71.40587931,Restaurants
Canton Eatery,339,339 Meridian St,East Boston,MA,(617) 569-2078,42.378309,-71.038978,Restaurants
Bracketts Oceanview Restaurant,25,25 Main St,Rockport,MA,(978) 546-2797,42.658468,-70.618477,Restaurants
North Street Grille,229,229 North St,Boston,MA,(617) 720-2010,42.363395,-71.052521,Restaurants
All American Diner,60,60 Court St,Plymouth,MA,(508) 747-4763,41.9584801,-70.6678747,Restaurants
Beverly Jade Inc,277,277 Rantoul St,Beverly,MA,(978) 927-1109,42.5505054,-70.8829979,Restaurants
Kellys Restaurant Inc,75,75 S Main St,Haverhill,MA,(978) 374-0132,42.771602,-71.076002,Restaurants
Sidewalk Cafe,764,764 E 4th St,South Boston,MA,(617) 464-1977,42.334972,-71.033543,Restaurants
Pleasant Cafe Inc,36,36 Main St,Maynard,MA,(978) 897-4511,42.4324122,-71.4516518,Restaurants
Plane Janes Place,246,246 S Meadow Rd Ste 30,Plymouth,MA,(508) 747-9396,41.9096473,-70.7314792,Restaurants
KCS Pub & Grill,1284,1284 Washington St,East Weymouth,MA,(781) 340-6666,42.195156,-70.924043,Restaurants
Hoshi,529,529 Washington St,Brighton,MA,(617) 254-8808,42.349164,-71.1628829,Restaurants
Patricks,40,40 Lebanon St,Malden,MA,(781) 324-3418,42.434315,-71.046028,Restaurants
Andres Cafe,811,811 Harrison Ave,Boston,MA,(617) 267-9599,42.335784,-71.074295,Restaurants
Natalie's Roastery,35,35 Manchester Rd Ste 11a,Derry,NH,(603) 437-9951,42.900371,-71.33503,Restaurants
Halin Restaurant Inc,64,64 Market Sq,Lynn,MA,(781) 581-2255,42.4621925,-70.9653855,Restaurants
Beach Street Cafe,35,35 Beach St,Manchester,MA,(978) 704-9571,42.5738076,-70.7705108,Restaurants
Go Fresh-M,10,10 North St,Medfield,MA,(508) 359-9944,42.1868423,-71.3060483,Restaurants
Beachmont Roast Beef,629,629 Winthrop Ave,Revere,MA,(781) 289-7968,42.39752714,-70.99230901,Restaurants
Freddys Place,214,214 S Main St,Middleton,MA,(978) 774-4071,42.579688,-70.99979,Restaurants
Joe Sent Me,2388,2388 Massachusetts Ave,Cambridge,MA,(617) 492-1116,42.396902,-71.129973,Restaurants
Wine Bottega,341,341 Hanover St,Boston,MA,(617) 227-6607,42.364471,-71.053587,Restaurants
D's Omelet Shoppe,128,128 Main St Ste 2,Carver,MA,(508) 866-7851,41.8862572,-70.7664843,Restaurants
Burnams Supper House Restaurant,366,366 Pleasant St,Ashland,MA,(508) 881-1742,42.2618374,-71.4807124,Restaurants
Carlins Tavern,7,7 Depot Sq,Ayer,MA,(978) 772-5360,42.55938,-71.589298,Restaurants
Uncommon Grounds,575,575 Mount Auburn St,Watertown,MA,(617) 924-9625,42.370192,-71.159404,Restaurants
J & J Irish Pub & Grille,1130,1130 Dorchester Ave,Dorchester,MA,(617) 282-5919,42.312232,-71.0571925,Restaurants
Hing Shing Pastry Inc,67,67 Beach St,Boston,MA,(617) 451-1162,42.351099,-71.060036,Restaurants
Lobster Barn,996,996 Hancock St,Abington,MA,(781) 871-2433,42.1348975,-70.9759009,Restaurants
Easter Country Kitchen,1385,1385 Washington St,East Weymouth,MA,(781) 337-4123,42.19344,-70.919667,Restaurants
Broken Yolk Restaurant,251,251 Broadway Ste 5,Malden,MA,(781) 397-0628,42.431848,-71.039299,Restaurants
Passage To India,1900,1900 Massachusetts Ave,Cambridge,MA,(617) 497-6113,42.388779,-71.119846,Restaurants
Beach Deck BBQ,207,207 Ocean Blvd Unit B,Seabrook,NH,(603) 760-2735,42.8806,-70.81807286,Restaurants
IV Seasons Restaurant,373,373 Central St,Lowell,MA,(978) 452-9044,42.6404085,-71.3077543,Restaurants
Delicia's Restaurant,149,149 Stoughton St,Dorchester,MA,(617) 533-8298,42.3146432,-71.0602274,Restaurants
Eastern Standard,528,528 Commonwealth Ave,Boston,MA,(617) 532-9100,42.348478,-71.095651,Restaurants
O'Brien's Pub,128,128 Broad St,Bridgewater,MA,(508) 697-6674,41.993396,-70.974548,Restaurants
Angels Cafe,10,10 Post Office Sq Unit 1,Sharon,MA,(781) 784-8184,42.123638,-71.178063,Restaurants
Merchant,60,60 Franklin St,Boston,MA,(617) 482-6060,42.355816,-71.058521,Restaurants
Scotch Pine Farm,34,34 Shirley St,Pepperell,MA,(978) 433-9103,42.649594,-71.599692,Restaurants
Sophias Breakfast & Lunch,39,39 Market St,Ipswich,MA,(978) 356-4554,42.678943,-70.839698,Restaurants
Stelios Restaurant,293,293 Boston Rd,North Billerica,MA,(978) 528-5778,42.573412,-71.279753,Restaurants
Great Barbecu,15,15 Hudson St,Boston,MA,(617) 728-8699,42.350743,-71.060227,Restaurants
Ned Devines,1,1 Faneuil Hall Market Pl,Boston,MA,(617) 248-8800,42.35976723,-71.05346139,Restaurants
JJ Foleys Cafe,117,117 E Berkeley St,Boston,MA,(617) 728-0315,42.343614,-71.06529,Restaurants
Sweetheart Inn,80,80 Myrtle St,Methuen,MA,(978) 682-7012,42.715612,-71.242733,Restaurants
Smiths Catering,220,220 S Franklin St,Holbrook,MA,(781) 767-2355,42.148258,-71.009161,Restaurants
Flat Breads Cafe,11,11 Commonwealth Ave,Chestnut Hill,MA,(617) 964-8484,42.340051,-71.1672559,Restaurants
Sky Box,553,553 Main St Ste 9,Tewksbury,MA,(978) 851-4818,42.6185391,-71.2547825,Restaurants
Windward Grille Restaurant,109,109 Eastern Ave,Essex,MA,(978) 768-0050,42.63076,-70.760224,Restaurants
Cellar Tavern,221,221 North Ave,Abington,MA,(781) 878-9800,42.1278148,-70.941558,Restaurants
Four Winds Bar & Grille,266,266 Commercial St,Boston,MA,(617) 742-3922,42.3643044,-71.0512862,Restaurants
Red Rose Cafe,800,800 Broad St,East Weymouth,MA,(781) 337-3322,42.2161892,-70.9263328,Restaurants
Schoolhouse Ice Cream,216,216 Cambridge St,Burlington,MA,(781) 221-0338,42.512041,-71.201579,Restaurants
Kellys Diner,674,674 Broadway,Somerville,MA,(617) 623-8102,42.399543,-71.111616,Restaurants
Donnas Restaurant,980,980 Saratoga St,East Boston,MA,(617) 568-9314,42.387003,-71.007175,Restaurants
Auntie BS Place,1881,1881 Centre St,West Roxbury,MA,(617) 327-1909,42.2860611,-71.1556694,Restaurants
Rock Bottom Gally,2298,2298 State Rd,Plymouth,MA,(508) 833-0442,41.81829812,-70.55204761,Restaurants
Redhook Ale Brewery Inc,1,1 Redhook Way,Portsmouth,NH,(603) 430-8600,43.08613596,-70.80457759,Restaurants
Riverview Restaurant,263,263 Nashua Rd,North Billerica,MA,(978) 663-2515,42.535208,-71.300383,Restaurants
Paul Revere Restaurant,447,447 High St,Medford,MA,(781) 395-9867,42.421246,-71.131644,Restaurants
Marios Restaurant,223,223 Groton Rd,Westford,MA,(978) 392-9360,42.611642,-71.456622,Restaurants
Beantown Hoagie,6,6 Plimpton Rd,Sharon,MA,(617) 624-0300,42.108927,-71.236366,Restaurants
Country Butcher & Deli,68,68 Boston Rd,Groton,MA,(978) 448-9300,42.597421,-71.562776,Restaurants
Corporate Kitchen,67,67 S Bedford St Ste 120w,Burlington,MA,(781) 272-1400,42.4843165,-71.2006865,Restaurants
Nicholson Hall,9,9 Harris St,Newburyport,MA,(978) 499-0048,42.80882063,-70.87216921,Restaurants
Stan Hope Grill,154,154 Berkeley St,Boston,MA,(617) 532-3827,42.349215,-71.07239,Restaurants
Sabor Special Restaurant,83,83 Williams St,Chelsea,MA,(617) 884-8900,42.389881,-71.041515,Restaurants
Coffee Milano The New Flavor,58,58 Centre St,Middleboro,MA,(508) 946-4006,41.8926362,-70.9101785,Restaurants
Callahans Bar,296,296 Copeland St,Quincy,MA,(617) 773-0808,42.245203,-71.028003,Restaurants
On The Rocks Tavern,42,42 Court St,Plymouth,MA,(508) 732-8919,41.9580998,-70.6672614,Restaurants
Tavern In The Square,189,189 Washington St,Salem,MA,(978) 740-2337,42.51960486,-70.89521508,Restaurants
Country View Diner,171,171 Middlesex Rd,Tyngsboro,MA,(978) 649-1396,42.670843,-71.419861,Restaurants
Mr Dooleys Boston Tavern,77,77 Broad St,Boston,MA,(617) 338-5656,42.3576607,-71.0536408,Restaurants
Boston Tavern,389,389 W Center St,West Bridgewater,MA,(508) 583-0013,42.016328,-71.033232,Restaurants
Corner Tavern,421,421 Marlborough St,Boston,MA,(617) 262-5555,42.350113,-71.089361,Restaurants
Bukowskis Tavern,1281,1281 Cambridge St,Cambridge,MA,(617) 497-7077,42.3736865,-71.0987712,Restaurants
Ashleys Inc,916,916 Washington St,Braintree,MA,(781) 848-8895,42.202707,-71.004811,Restaurants
Shucks Inc,62,62 Beach St,Marshfield,MA,(781) 837-1107,42.07951817,-70.65178273,Restaurants
Dracut Family Diner,1734,1734 Lakeview Ave Ste 10,Dracut,MA,(978) 674-9970,42.678376,-71.342202,Restaurants
Tango Restaurant,464,464 Massachusetts Ave,Arlington,MA,(781) 443-9000,42.41479,-71.152094,Restaurants
Gerrys Italian Kitchen,1074,1074 Belmont St,Watertown,MA,(617) 484-0606,42.382306,-71.197854,Restaurants
Alexanders Pizza,180,180 Bedford St,Lexington,MA,(781) 862-3312,42.4589339,-71.2386442,Restaurants
Dempseys Muffins Bagels & Breakfast,64,64 Lambert St,Medford,MA,(781) 396-7723,42.423466,-71.091102,Restaurants
June's Place,122,122 Main St,Medway,MA,(508) 533-5037,42.1498058,-71.4189859,Restaurants
Riva Restaurant,116,116 Front St,Scituate,MA,(781) 545-5881,42.195112,-70.724842,Restaurants
Jimmys Famous Beef & Seafood,71,71 High St,Danvers,MA,(978) 774-9748,42.5618074,-70.9329269,Restaurants
Gregorys Lounge,50,50 Walnut St,Peabody,MA,(978) 531-7773,42.5265978,-70.9226943,Restaurants
Stubbys Place,26,26 Old Manchester Rd,Candia,NH,(603) 483-5581,43.04094,-71.311743,Restaurants
Cornells,231,231 Hayden Rowe St,Hopkinton,MA,(508) 435-6191,42.200077,-71.507433,Restaurants
Rail Trail Flatbread Co,33,33 Main St,Hudson,MA,(978) 293-3552,42.3910347,-71.569257,Restaurants
MI Rancho Restaurant,45,45 Meridian St,East Boston,MA,(617) 561-0205,42.3715213,-71.0388269,Restaurants
Liberty Diner,1003,1003 Massachusetts Ave,Boston,MA,(617) 442-9262,42.328064,-71.068309,Restaurants
Turnpike Cafe,958,958 Turnpike St,Canton,MA,(781) 828-8231,42.1534646,-71.1054315,Restaurants
Old Corner Inn,2,2 Harbor St,Manchester,MA,(978) 526-4996,42.5687696,-70.785331,Restaurants
Mee King Garden,187,187 Crescent St,Brockton,MA,(508) 588-1311,42.080522,-71.014188,Restaurants
Colonial Spa,9,9 Franklin St,Brockton,MA,(508) 583-9582,42.085159,-71.019594,Restaurants
Grill & I,186,186 Washington St,Weymouth,MA,(781) 337-8678,42.216768,-70.963761,Restaurants
Braintree House of Pizza,970,970 Washington St,Braintree,MA,(781) 843-6353,42.201974,-71.005998,Restaurants
Olde Post Restaurant,15,15 Chester St,Chester,NH,(603) 887-9971,42.9576629,-71.258176,Restaurants
Cafe Azteca,180,180 Common St,Lawrence,MA,(978) 689-7393,42.708294,-71.158295,Restaurants
Chit Chat Lounge,103,103 Washington St,Haverhill,MA,(978) 374-9710,42.7730379,-71.085384,Restaurants
Talk of The Town Diner,11,11 N Beacon St,Watertown,MA,(617) 923-2369,42.364851,-71.183176,Restaurants
Scotty Dog,437,437 Rantoul St,Beverly,MA,(978) 969-3487,42.5545668,-70.8812895,Restaurants
Servizio,1,1 Wall St Ste 103,Burlington,MA,(781) 272-4100,42.486258,-71.189198,Restaurants
Tenoch,24,24 Riverside Ave,Medford,MA,(781) 395-2221,42.4180349,-71.10850629,Restaurants
Peephuptmei Restaurant,278,278 Branch St,Lowell,MA,(978) 937-2919,42.638264,-71.330941,Restaurants
Retro Burger and Ice Cream,795,795 Massachusetts Ave,Arlington,MA,(781) 777-2139,42.416685,-71.158839,Restaurants
Farmer in the Dell,935,935 East St,Walpole,MA,(508) 921-3647,42.1472832,-71.2512534,Restaurants
H E Fletcher Social & Athletic,11,11 Brookside Rd,Westford,MA,(978) 692-7079,42.609097,-71.409947,Restaurants
Essex Room,125,125 Main St,Essex,MA,(978) 768-7335,42.630524,-70.774219,Restaurants
Giorgio's,641,641 Washington St,Norwood,MA,(781) 762-7760,42.1936674,-71.2014149,Restaurants
Muqueca Restaurant,1008,1008 Cambridge St,Cambridge,MA,(617) 354-3296,42.37268625,-71.09390025,Restaurants
Bobolas Family Restaurant,1420,1420 Lakeview Ave,Dracut,MA,(978) 957-0065,42.672485,-71.33217,Restaurants
Vine Ripe Grill,1281,1281 W Roxbury Pkwy,Chestnut Hill,MA,(617) 278-4000,42.30741266,-71.15513707,Restaurants
City Bar,425,425 Summer St,Boston,MA,(617) 443-0888,42.346126,-71.042889,Restaurants
Machu Picchu,307,307 Somerville Ave,Somerville,MA,(617) 628-7070,42.380499,-71.097333,Restaurants
Simply Serving II,9,9 2nd St,Norwood,MA,(781) 769-1900,42.1870818,-71.190292,Restaurants
Exchange Street Bistro,67,67 Exchange St,Malden,MA,(781) 322-0071,42.426552,-71.069472,Restaurants
Eastmans Dockside Dining,15,15 Dandiview Acres,Seabrook,NH,(603) 474-7063,42.892319,-70.908971,Restaurants
Sammy W Mui,11,11 Brooks Ave,Quincy,MA,(617) 376-8889,42.23836102,-71.00926288,Restaurants
Charlies House of Pizza,1740,1740 Dorchester Ave,Dorchester Center,MA,(617) 265-3111,42.291126,-71.06262,Restaurants
Marylous News,25,25 Cleveland Ave,Braintree,MA,(781) 848-9019,42.217229,-70.994458,Restaurants
College Pizza,50,50 Queensberry St,Boston,MA,(617) 266-4919,42.342611,-71.097333,Restaurants
Charlies Variety,277,277 Groveland St,Haverhill,MA,(978) 373-3501,42.767432,-71.048694,Restaurants
Neptune Oyster,63,63 Salem St Ste 1,Boston,MA,(617) 742-3474,42.363232,-71.055943,Restaurants
Flames Restaurant Inc,746,746 Huntington Ave,Boston,MA,(617) 734-1911,42.333581,-71.10556,Restaurants
Rendezvois Restaurant,596,596 Moody St,Waltham,MA,(781) 893-7171,42.366015,-71.237816,Restaurants
Brookside Cafe,1260,1260 Washington St Ste 1,Norwood,MA,(781) 762-7399,42.1737905,-71.2078789,Restaurants
Daybreak Family Restaurant,337,337 W Center St,West Bridgewater,MA,(508) 583-5341,42.016824,-71.0280329,Restaurants
Rhythm N Wraps,1096,1096 Commonwealth Ave,Boston,MA,(617) 566-4144,42.3517937,-71.1242616,Restaurants
Labahia Restaurant,15,15 Newbury St,Lawrence,MA,(978) 975-5655,42.7082776,-71.155395,Restaurants
Marias Pizza,86,86 Massachusetts Ave,Arlington,MA,(781) 648-8011,42.4025926,-71.138564,Restaurants
Style Cafe,197,197 8th St,Charlestown,MA,(617) 241-7300,42.37354,-71.052064,Restaurants
Debbies Kitchen,535,535 Plymouth St Ste 3,Whitman,MA,(781) 447-3773,42.092624,-70.922053,Restaurants
Riviera Cafe Broad,286,286 Broad St,Bridgewater,MA,(508) 697-9892,41.99765837,-70.97230839,Restaurants
Auburn Pitts,167,167 Rockingham Rd,Auburn,NH,(603) 622-6564,43.01476375,-71.38035991,Restaurants
State Street Saloon,12,12 Ocean Blvd,Seabrook,NH,(603) 431-4357,42.872696,-70.81912,Restaurants
Centre Deli,545,545 High St,Dedham,MA,(781) 326-9863,42.2482761,-71.1720863,Restaurants
Felcaro Pizzeria,280,280 Cambridge St,Boston,MA,(617) 742-0011,42.360954,-71.068088,Restaurants
Lollys Bakery,158,158 Bennington St,East Boston,MA,(617) 567-9461,42.3771533,-71.0333713,Restaurants
Peachs & Cream,73,73 Bennington St,East Boston,MA,(617) 561-4725,42.3757373,-71.0363911,Restaurants
Andy's Diner,2030,2030 Massachusetts Ave,Cambridge,MA,(617) 497-1444,42.390593,-71.122092,Restaurants
Well Dressed Hog,22,22 Glen Hill Rd,Dover,NH,(603) 743-2278,43.214359,-70.94976,Restaurants
Nashoba Tech Restaurant,100,100 Littleton Rd,Westford,MA,(978) 692-9958,42.56951,-71.409583,Restaurants
Salem Tipico,68,68 Market Sq,Lynn,MA,(781) 599-0773,42.4621925,-70.9653855,Restaurants
Buccini's Mister Sub,64,64 Billings Rd,Quincy,MA,(617) 328-9764,42.274101,-71.024572,Restaurants
MI-Doe Co,853,853 Turnpike St,North Andover,MA,(978) 471-9241,42.6578861,-71.1061181,Restaurants
Hornets Nest Sub Shop,134,134 Park St Ste 3,North Reading,MA,(978) 664-2007,42.574062,-71.075119,Restaurants
Sparkys Wings & Things,20,20 Emerson St,Haverhill,MA,(978) 521-1009,42.774557,-71.082406,Restaurants
Ish Inc,129,129 S Main St,Rochester,NH,(603) 948-1006,43.2992938,-70.9706956,Restaurants
Lupita Restaurant,22,22 Munroe St,Lynn,MA,(781) 599-3004,42.462668,-70.947303,Restaurants
Main Street Grille,1400,1400 Main St,South Weymouth,MA,(781) 337-0801,42.156484,-70.954717,Restaurants
Mr Mcgoo's Pizza,479,479 W Broadway,South Boston,MA,(617) 269-7587,42.335455,-71.046015,Restaurants
Marthas Restaurant,153,153 Lafayette Rd Unit 1,Hampton Falls,NH,(603) 929-5092,42.92289,-70.854232,Restaurants
Pauls Diner,6,6 Carlisle Rd Ste 1,Westford,MA,(978) 692-9269,42.56581,-71.422809,Restaurants
Catalinas Pizza,109,109 Ferry St,Malden,MA,(781) 321-5888,42.42477,-71.065133,Restaurants
Vikos Pizza & Ribs,855,855 River St,Hyde Park,MA,(617) 361-8456,42.262872,-71.108426,Restaurants
Two Sisters Restaurant,27,27 Washington St,Gloucester,MA,(978) 281-3378,42.6123955,-70.6669531,Restaurants
Central Wharf Co,160,160 Milk St,Boston,MA,(617) 451-9460,42.358702,-71.052759,Restaurants
Soundbites,704,704 Broadway,Somerville,MA,(617) 623-8338,42.399763,-71.112447,Restaurants
Blue Hill House of Pizza,161,161 Blue Hill Ave,Roxbury,MA,(617) 445-0044,42.319312,-71.077947,Restaurants
Michaels Deli,256,256 Harvard St,Brookline,MA,(617) 738-3354,42.3416625,-71.1214747,Restaurants
MI Tierra Restaurant,585,585 Moody St,Waltham,MA,(781) 894-5676,42.366275,-71.238191,Restaurants
Taqueria Cancun,192,192 Sumner St,East Boston,MA,(617) 567-4449,42.369262,-71.040162,Restaurants
Wilsons Diner Inc,507,507 Main St Ste 1,Waltham,MA,(781) 899-0760,42.377293,-71.231013,Restaurants
Arthurs Pastry Shop,382,382 Main St,Medford,MA,(781) 395-4812,42.40502141,-71.10768172,Restaurants
Tias Place,84,84 Spring St,Medford,MA,(781) 391-9000,42.415436,-71.093256,Restaurants
Craigs Cafe,1354,1354 Hancock St Ste 1,Quincy,MA,(617) 770-9271,42.2505848,-71.0025674,Restaurants
Weston Road Cafe,336,336 Weston Rd,Wellesley,MA,(781) 235-1116,42.3065452,-71.31418806,Restaurants
Goochie's Cafe,23,23 Messenger St,Plainville,MA,(508) 699-2844,42.008268,-71.30947,Restaurants
JP Kitchen,3510,3510 Washington St,Jamaica Plain,MA,(617) 524-6888,42.305829,-71.107854,Restaurants
Stephys Kitchen,41,41 Beckford St,Beverly,MA,(978) 921-6393,42.558046,-70.881922,Restaurants
Carmens Cafe Nicole,114,114 Water St,Plymouth,MA,(508) 747-4343,41.9601088,-70.6660466,Restaurants
Sullivan's Pub,85,85 Main St,Charlestown,MA,(617) 242-9515,42.373922,-71.062761,Restaurants
Trade,540,540 Atlantic Ave,Boston,MA,(617) 451-1234,42.353337,-71.052914,Restaurants
Montecristo Mexican Grill,748,748 Huntington Ave,Boston,MA,(617) 232-2228,42.333701,-71.10536,Restaurants
Seabrook House of Pizza,255,255 Lafayette Rd,Seabrook,NH,(603) 474-7778,42.8817828,-70.8678626,Restaurants
Sea Ketch Restaurant,127,127 Ocean Blvd,Hampton,NH,(603) 926-0324,42.908308,-70.811463,Restaurants
New Yorker Diner,39,39 Mount Auburn St,Watertown,MA,(617) 924-9772,42.365922,-71.18256,Restaurants
Central Cafe,9294,9294 Central St,Holliston,MA,(508) 429-7275,42.19592,-71.43831,Restaurants
Acton House of Pizza,494,494 Main St,Acton,MA,(978) 263-7144,42.486778,-71.433268,Restaurants
Forest Hills Deli,3696,3696 Washington St,Jamaica Plain,MA,(617) 522-8242,42.300697,-71.112641,Restaurants
Dogwood Cafe,3712,3712 Washington St,Jamaica Plain,MA,(617) 522-7997,42.300179,-71.113139,Restaurants
Captain Nemos,367,367 Centre St,Jamaica Plain,MA,(617) 971-0100,42.322505,-71.108626,Restaurants
Brendan Behan Pub,378,378 Centre St,Jamaica Plain,MA,(617) 522-5386,42.321988,-71.109261,Restaurants
Topacio,120,120 Meridian St,East Boston,MA,(617) 567-9523,42.373481,-71.039248,Restaurants
Dacoopa Sub & Pizza,474,474 Saratoga St,East Boston,MA,(617) 567-3399,42.380137,-71.027287,Restaurants
Teuscher Chocolates of Switzerland,230,230 Newbury St,Boston,MA,(617) 536-1922,42.3496979,-71.0813943,Restaurants
Boston Deli Deluxe,104,104 South St,Boston,MA,(617) 695-3775,42.350972,-71.057203,Restaurants
Bean & Leaf Cafe,20,20 Custom House St Ste 100,Boston,MA,(617) 261-4727,42.3581573,-71.0530612,Restaurants
Medway Restaurant,102,102 Main St,Medway,MA,(508) 533-7466,42.1513456,-71.4149677,Restaurants
Beach Front,297,297 Nantasket Ave,Hull,MA,(781) 925-9512,42.2746769,-70.8623707,Restaurants
Liberty Grill,8,8 North St,Hingham,MA,(781) 749-2444,42.244785,-70.884603,Restaurants
Commons Eatery & Cafe,20,20 Central St,Foxboro,MA,(508) 543-4432,42.0639307,-71.2491524,Restaurants
Dotty & Rays Lunch,112,112 North St,Salem,MA,(978) 744-9730,42.5267222,-70.9008684,Restaurants
Cafe Rustica,356,356 Beacon St,Somerville,MA,(617) 491-8300,42.3856646,-71.1157229,Restaurants
Montrose Spa,1646,1646 Massachusetts Ave,Cambridge,MA,(617) 547-5053,42.3812534,-71.120026,Restaurants
Miami Restaurant,381,381 Centre St,Jamaica Plain,MA,(617) 522-4644,42.3223709,-71.109159,Restaurants
Skate Three Snack Bar,350,350 Middlesex Rd,Tyngsboro,MA,(978) 649-4022,42.688807,-71.432975,Restaurants
Last Corner Restaurant,49,49 High St,Reading,MA,(781) 944-0340,42.522323,-71.107666,Restaurants
Captain Johns,333,333 Westford St,Lowell,MA,(978) 458-0752,42.635083,-71.327794,Restaurants
D Coal Pot,984,984 Hyde Park Ave,Hyde Park,MA,(857) 345-9512,42.266275,-71.120631,Restaurants
Lorettas,15,15 Pleasant St,Newburyport,MA,(978) 463-0001,42.8097794,-70.8709908,Restaurants
A & A,654,654 Main St,Brockton,MA,(508) 588-9081,42.0722497,-71.0184796,Restaurants
Genji Express,94,94 Derby St Ste 200,Hingham,MA,(781) 741-8050,42.17891,-70.907773,Restaurants
Pitstop BBQ,10,10 Vernon St,Wakefield,MA,(781) 621-8403,42.503273,-71.067371,Restaurants
Pat's Kitchen,402,402 W Broadway,South Boston,MA,(617) 269-7287,42.3372973,-71.0480612,Restaurants
Scoop 'n Scootery,352,352 Boston Ave,Medford,MA,(617) 394-8634,42.411383,-71.121135,Restaurants
Five Horses Tavern,535,535 Columbus Ave,Boston,MA,(617) 936-3930,42.341837,-71.080582,Restaurants
Green Bean Stratham,277,277 Portsmouth Ave,Stratham,NH,(603) 778-6866,43.04193302,-70.89110803,Restaurants
Jimmys Family Restaurant,279,279 Cambridge St Ste 15,Burlington,MA,(781) 270-6803,42.515284,-71.206092,Restaurants
Stacheys Olde Time Pizzeria,517,517 S Broadway Unit 5,Salem,NH,(603) 893-1999,42.743061,-71.198645,Restaurants
Causeway Restaurant,78,78 Essex Ave,Gloucester,MA,(978) 281-5256,42.612434,-70.683312,Restaurants
Bewitched In Salem,180,180 Essex St,Salem,MA,(978) 744-9904,42.52161,-70.893236,Restaurants
Leggos,120,120 N Franklin St Ste 1,Holbrook,MA,(781) 961-2475,42.1571196,-71.0084735,Restaurants
Jackson's Kitchen,50,50 Massachusetts Ave,Lexington,MA,(781) 652-8844,42.4253731,-71.19339091,Restaurants
Prince Palace Hall,428,428 Main St,Melrose,MA,(781) 665-0317,42.453858,-71.066383,Restaurants
Michael Petrarca,550,550 Winter St,Waltham,MA,(781) 890-6767,42.396225,-71.266131,American Restaurants
Paul Fussman,2,2 West St,Boston,MA,(617) 670-0320,42.354492,-71.062235,American Restaurants
Daddys Beach Club,280,280 Nantasket Ave,Hull,MA,(781) 925-3600,42.2741337,-70.8608579,Restaurants
Columbus Club,11,11 Fountain St,Framingham,MA,(508) 875-9018,42.274707,-71.425128,Restaurants
Ruby Room,155,155 Portland St,Boston,MA,(617) 557-9950,42.364263,-71.061356,Restaurants
