Business Name,Physical Address Number,Physical Address,Physical City,Physical State,Phone,Latitude,Longitude,Primary SIC Description,
"McDonald's","40","40 Enon St Ste 5","Beverly","MA","(978) 922-1884","42.5865229","-70.885745","Restaurants",
"Applebee's Neighborhood Grill & Bar","214","214 Broadway","Saugus","MA","(781) 231-0137","42.487781","-71.016801","Restaurants",
"Wendy's","806","806 Main St","Waltham","MA","(781) 899-2795","42.376044","-71.242621","Restaurants",
"McDonald's","346","346 Great Rd","Bedford","MA","(781) 275-8746","42.485169","-71.2600764","Restaurants",
"Applebee's Neighborhood Grill & Bar","50","50 Independence Way","Danvers","MA","(978) 777-5447","42.549517","-70.941303","Restaurants",
"McDonald's","14","14 E Clark St","Middleboro","MA","(508) 947-7057","41.884018","-70.917812","Restaurants",
"McDonald's","290","290 Worcester St","Natick","MA","(508) 653-1809","42.301747","-71.337105","Restaurants",
"Burger King","4594","4594 Washington St","Roslindale","MA","(617) 323-8739","42.2762267972074","-71.1391679548735","Restaurants",
"Burger King","150","150 Everett Ave","Chelsea","MA","(617) 884-0619","42.3955957","-71.0402883","Restaurants",
"McDonald's","912","912 Central Ave","Dover","NH","(603) 742-9813","43.2198848","-70.8856908","Restaurants",
"Burger King","100","100 Washington St","Dorchester","MA","(617) 427-1535","42.305953","-71.080321","Restaurants",
"McDonald's","I-90","Mass Pike I-90 Srvc Area 8e Milepost 117","Natick","MA","(508) 651-1687","42.29129","-71.35783","Restaurants",
"Ninety Nine Restaurant & Pub","13","13 Commonwealth Ave","Concord","MA","(978) 369-0300","42.456391","-71.392892","Restaurants",
"McDonald's","143","143 Samoset St","Plymouth","MA","(508) 746-9885","41.9529636","-70.6863796","Restaurants",
"McDonald's","110","110 Pleasant Valley St","Methuen","MA","(978) 687-9831","42.7437907","-71.1510911","Restaurants",
"McDonald's","567","567 Lynnway","Lynn","MA","(781) 598-1894","42.4555147","-70.9595436","Restaurants",
"McDonald's","45","45 Crystal Ave","Derry","NH","(603) 432-2231","42.8906446","-71.3266393","Restaurants",
"McDonald's","291","291 N Main St","Rochester","NH","(603) 332-6829","43.311005","-70.992016","Restaurants",
"McDonald's","210","210 Andover St Ste F111","Peabody","MA","(978) 977-3694","42.5413325","-70.9439351","Restaurants",
"McDonald's","422","422 Washington St","Stoughton","MA","(781) 344-0489","42.1345146","-71.1010486","Restaurants",
"McDonald's","870","870 Massachusetts Ave","Boston","MA","(617) 442-4349","42.331524","-71.07035","Restaurants",
"McDonald's","718","718 American Legion Hwy","Roslindale","MA","(617) 323-7027","42.2828546","-71.11359","Restaurants",
"McDonald's","56","56 Calef Hwy","Epping","NH","(603) 679-8544","43.0282805175897","-71.073947038972","Restaurants",
"McDonald's","31","31 Providence Hwy","Norwood","MA","(781) 352-4414","42.2124386231276","-71.1832412034959","Restaurants",
"McDonald's","55","55 Great Rd","Acton","MA","(978) 264-2062","42.47589","-71.409329","Restaurants",
"McDonald's","178","178 Border St","East Boston","MA","(617) 567-9374","42.3745047","-71.0402152","Restaurants",
"McDonald's","301","301 Warren St","Roxbury","MA","(617) 442-6698","42.320367","-71.082202","Restaurants",
"McDonald's","225","225 S Broadway","Salem","NH","(603) 898-7923","42.763551","-71.215504","Restaurants",
"McDonald's","1000","1000 Lafayette Rd","Portsmouth","NH","(603) 436-3127","43.049428","-70.771608","Restaurants",
"McDonald's","5","5 Long Pond Rd Ste A","Plymouth","MA","(508) 747-9615","41.9336745249384","-70.6577641404519","Restaurants",
"McDonald's","1223","1223 Commonwealth Ave","Allston","MA","(617) 562-1313","42.3507101","-71.1309674","Restaurants",
"McDonald's","343","343 Cochituate Rd","Framingham","MA","(508) 879-1650","42.3028491","-71.4009097","Restaurants",
"McDonald's","9","9 Taunton St","Plainville","MA","(508) 695-9826","42.010012","-71.304515","Restaurants",
"McDonald's","161","161 S Main St","Middleton","MA","(978) 539-8818","42.5831255","-71.0067514","Restaurants",
"McDonald's","15","15 Crawford St","Needham Heights","MA","(781) 400-1815","42.3070821","-71.2282537","Restaurants",
"McDonald's","710","710 Lafayette Rd","Seabrook","NH","(603) 474-8361","42.894453","-70.871038","Restaurants",
"McDonald's","10","10 Post Office Sq","Boston","MA","(617) 850-9054","42.357489","-71.055591","Restaurants",
"McDonald's","43","43 Thorndike St","Cambridge","MA","(617) 608-1410","42.3697392","-71.0791279","Restaurants",
"McDonald's","273","273 Boston Rd","Billerica","MA","(978) 667-9174","42.55344","-71.25763","Restaurants",
"McDonald's","114","114 Broadway","Malden","MA","(781) 322-4443","42.4270531","-71.0417932","Restaurants",
"McDonald's","1750","1750 Soldiers Field Rd","Brighton","MA","(617) 202-6036","42.3586722","-71.1548866","Restaurants",
"McDonald's","340","340 Longwood Ave # 350","Boston","MA","(617) 566-4888","42.3381973","-71.1064812","Restaurants",
"Ninety Nine Restaurant & Pub","428","428 Lincoln St","Hingham","MA","(781) 740-8599","42.247967","-70.925831","Restaurants",
"IHOP","115","115 Parkingway","Quincy","MA","(617) 770-9414","42.246459","-71.003211","Restaurants",
"IHOP","105","105 Squire Rd","Revere","MA","(781) 289-6012","42.4230202","-71.0079839","Restaurants",
"Ninety Nine Restaurant & Pub","20","20 Cummings St","Somerville","MA","(617) 629-0599","42.393955","-71.083764","Restaurants",
"Wendy's","191","191 Newport Ave","Quincy","MA","(617) 472-2983","42.26906","-71.023884","Restaurants",
"McDonald's","1650","1650 Vfw Pkwy","West Roxbury","MA","(617) 325-2709","42.264472","-71.1677753","Restaurants",
"Wendy's","520","520 Southern Artery","Quincy","MA","(617) 472-3981","42.25388","-70.993974","Restaurants",
"McDonald's","10","10 Freetown Rd","Raymond","NH","(603) 895-9396","43.035934","-71.163966","Restaurants",
"McDonald's","77","77 High St","Danvers","MA","(978) 762-0902","42.561202","-70.932812","Restaurants",
"Wendy's","355","355 Washington St","Stoughton","MA","(781) 344-1857","42.136453","-71.10235","Restaurants",
"IHOP","95","95 Main St","Tewksbury","MA","(978) 640-8950","42.62547","-71.268588","Restaurants",
"McDonald's","908","908 N Montello St","Brockton","MA","(508) 588-9920","42.1078677","-71.0248445","Restaurants",
"Grumpys Restaurant","190","190 Pulaski Blvd","Bellingham","MA","(508) 883-0101","42.021148","-71.494643","Restaurants",
"McDonald's","808","808 Main St","Millis","MA","(508) 376-4031","42.167733","-71.355537","Restaurants",
"Burger King","52","52 Middlesex Tpke","Burlington","MA","(781) 272-9611","42.4724068","-71.2124257","Restaurants",
"Burger King","41","41 Boston Providence Tpke","Norwood","MA","(781) 769-7698","42.2107474","-71.1845033","Restaurants",
"Burger King","250","250 N Main St","Rochester","NH","(603) 332-8341","43.308978","-70.990448","Restaurants",
"Waterfords Restaurant and Pub","2","2 Bridge St","Dedham","MA","(781) 329-6034","42.2701139","-71.1735456","Restaurants",
"McDonald's","1260","1260 Bridge St","Dracut","MA","(978) 459-3029","42.666064","-71.303746","Restaurants",
"McDonald's","572","572 Main St","Wakefield","MA","(781) 246-7689","42.4990801","-71.0687546","Restaurants",
"Ninety Nine Restaurant & Pub","672","672 Boston Rd","Billerica","MA","(978) 667-9789","42.541148","-71.247498","Restaurants",
"Wendy's","373","373 Centre Ave","Abington","MA","(781) 982-9651","42.110249","-70.931053","Restaurants",
"Old Ferry Landing","10","10 Ceres St","Portsmouth","NH","(603) 431-5510","43.0788465","-70.7570165","Restaurants",
"IHOP","114","114 Broadway Ste 3","Saugus","MA","(781) 233-4097","42.494404","-71.01578","Restaurants",
"McDonald's","148","148 Portsmouth Ave","Exeter","NH","(603) 778-8919","42.9909039","-70.9300271","Restaurants",
"Paddys Restaurant","27","27 International Dr","Portsmouth","NH","(603) 430-9450","43.086194","-70.807396","Restaurants",
"John Brewers Tavern","39","39 Main St","Waltham","MA","(781) 894-9700","42.374636","-71.209869","Restaurants",
"Boston Burger Co","1105","1105 Massachusetts Ave Ste 4","Cambridge","MA","(857) 242-3964","42.370762","-71.113425","Restaurants",
"McDonald's","1600","1600 Providence Hwy","Norwood","MA","(781) 762-1275","42.1588879592564","-71.2007310532103","Restaurants",
"McDonald's","738","738 Broadway","Saugus","MA","(781) 233-8622","42.473348","-71.023514","Restaurants",
"McDonald's","12","12 Pearl St","Braintree","MA","(781) 356-4545","42.2023971325916","-71.00479","Restaurants",
"Burger King","187","187 Broadway","Lawrence","MA","(978) 688-0835","42.7073072","-71.1695876","Restaurants",
"Public House","1648","1648 Beacon St","Brookline","MA","(617) 277-2880","42.3393521","-71.1366516","Restaurants",
"McDonald's","660","660 Chickering Rd","North Andover","MA","(978) 685-9757","42.700031","-71.118563","Restaurants",
"McDonald's","173","173 Washington St","Hudson","MA","(978) 310-7721","42.3822288","-71.5691503","Restaurants",
"McDonald's","147","147 Pelham St","Methuen","MA","(978) 683-8641","42.7282642","-71.2029501","Restaurants",
"Burger King","188","188 Turnpike St","North Andover","MA","(978) 685-4490","42.674864","-71.127483","Restaurants",
"McDonald's","473","473 Southern Artery","Quincy","MA","(617) 479-6488","42.254386","-70.996357","Restaurants",
"McDonald's","44","44 Concord Rd","Lee","NH","(603) 868-6237","43.1490586438767","-71.0074711115578","Restaurants",
"Coolidge Corner Clubhouse","307","307 Harvard St","Brookline","MA","(617) 566-4948","42.3433629","-71.122844","Restaurants",
"Five Guys","221","221 N Main St","Natick","MA","(508) 650-5100","42.3022125444592","-71.3609321094897","Restaurants",
"McDonald's","197","197 California St","Newton","MA","(617) 527-9693","42.3650734","-71.1962654","Restaurants",
"McDonald's","50","50 Maplewood Ave Ste 11","Gloucester","MA","(978) 281-6227","42.617596","-70.666352","Restaurants",
"Wendy's","707","707 W Center St","West Bridgewater","MA","(508) 583-4357","42.0124514","-71.0510942","Restaurants",
"McDonald's","230","230 Elliott St","Beverly","MA","(978) 232-9293","42.5559379","-70.887742","Restaurants",
"McDonald's","595","595 Main St","Walpole","MA","(508) 668-5919","42.1562544","-71.2437768","Restaurants",
"Burger King","185","185 Somerville Ave","Somerville","MA","(617) 625-4426","42.3779581","-71.0897397","Restaurants",
"McDonald's","1915","1915 Andover St","Tewksbury","MA","(978) 858-3458","42.642437","-71.2276257","Restaurants",
"McDonald's","1","1 Traders Way","Salem","MA","(978) 744-9631","42.5027715","-70.9233908","Restaurants",
"Wendy's","115","115 Powder Mill Rd","Maynard","MA","(978) 461-0444","42.438635","-71.435202","Restaurants",
"McDonald's","275","275 Hancock St","Quincy","MA","(617) 770-3017","42.276641","-71.029342","Restaurants",
"McDonald's","2","2 South Sta Ste 11","Boston","MA","(617) 261-1551","42.3532302517641","-71.056788855126","Restaurants",
"McDonald's","222","222 Broad St","Bridgewater","MA","(508) 697-9568","41.9962135","-70.9725756","Restaurants",
"Wendy's","660","660 Oak St","Brockton","MA","(508) 588-7288","42.101178","-71.054296","Restaurants",
"Burger King","259","259 Cochituate Rd","Framingham","MA","(508) 875-9832","42.302078","-71.402857","Restaurants",
"McDonald's","161","161 Wakefield St","Rochester","NH","(603) 332-9848","43.315046","-70.976905","Restaurants",
"Burger King","606","606 Belmont St","Brockton","MA","(508) 588-1963","42.072178","-71.043367","Restaurants",
"McDonald's","43","43 Main St","North Reading","MA","(978) 664-0008","42.5693994","-71.1085242","Restaurants",
"Wendy's","99","99 Winthrop Ave","Lawrence","MA","(978) 682-0565","42.689147","-71.148689","Restaurants",
"McDonald's","1180","1180 Main St","Haverhill","MA","(978) 373-9264","42.8094541","-71.1032371","Restaurants",
"Burger King","108","108 Boston St","Lynn","MA","(781) 584-8367","42.4750832","-70.9571111","Restaurants",
"McDonald's","111","111 Needham St","Newton Upper Falls","MA","(617) 527-3570","42.313774","-71.212299","Restaurants",
"McDonald's","128","128 Broadway","Everett","MA","(617) 387-8625","42.3985122","-71.0641197","Restaurants",
"Wendy's","45","45 Commerce Way","Plymouth","MA","(508) 747-7377","41.9514902","-70.7128457","Restaurants",
"McDonald's","127","127 Broadway","Saugus","MA","(781) 231-7042","42.495664","-71.016221","Restaurants",
"Burger King","881","881 Moody St","Waltham","MA","(781) 891-5612","42.361268","-71.239654","Restaurants",
"Wendy's","14","14 Condlin Dr","Randolph","MA","(781) 961-2838","42.1666381239535","-71.0465233924157","Restaurants",
"Five Guys","380","380 Lafayette Rd Unit 203","Seabrook","NH","(603) 814-1235","42.886481","-70.868244","Restaurants",
"Fat Bellys Bar & Grill","2","2 Bow St","Portsmouth","NH","(603) 610-4227","43.0781476","-70.7573258","Restaurants",
"McDonald's","360","360 Western Ave","Brighton","MA","(617) 787-2882","42.3627791","-71.1369705","Restaurants",
"Wendy's","1724","1724 Revere Beach Pkwy","Everett","MA","(617) 394-9768","42.4017058","-71.0442565","Restaurants",
"Wendy's","95","95 Calef Hwy","Lee","NH","(603) 868-1502","43.149966","-71.005915","Restaurants",
"McDonald's","1223","1223 Worcester Rd","Framingham","MA","(508) 875-9771","42.2987496","-71.4481683","Restaurants",
"Burger King","","Route 24 Southbound","Bridgewater","MA","(508) 697-9672","41.97739","-70.97532","Restaurants",
"Wendy's","5","5 Arlington St","Dracut","MA","(978) 452-2393","42.668869","-71.30282","Restaurants",
"Ninety Nine Restaurant & Pub","10","10 Main St","Stoneham","MA","(781) 279-0399","42.50092","-71.100827","Restaurants",
"Burger King","6","6 Taunton St","Plainville","MA","(508) 514-7905","42.009604","-71.305482","Restaurants",
"Blue Angus Cafe","34","34 Broadway Rd Ste 1","Dracut","MA","(978) 937-1699","42.6726182","-71.2958527","Restaurants",
"McDonald's","20","20 Main St","Townsend","MA","(978) 597-6521","42.649965","-71.662155","Restaurants",
"McDonald's","803","803 Rogers St","Lowell","MA","(978) 452-9258","42.6291603","-71.2764831","Restaurants",
"Dockside Restaurant","1099","1099 Main St","Wakefield","MA","(781) 245-0200","42.478712","-71.0637969","Restaurants",
"McDonald's","2121","2121 Ocean St","Marshfield","MA","(781) 837-4217","42.0927763","-70.7157992","Restaurants",
"McDonald's","55","55 Middlesex Tpke","Burlington","MA","(781) 272-4165","42.4739665","-71.2124431","Restaurants",
"McDonald's","67","67 Main St","Medway","MA","(508) 533-5088","42.1527088","-71.4045921","Restaurants",
"McDonald's","463","463 Massachusetts Ave","Cambridge","MA","(617) 497-3926","42.364054","-71.100844","Restaurants",
"Wendy's","176","176 Boston Post Rd W","Marlborough","MA","(508) 481-5366","42.338661","-71.589027","Restaurants",
"Burger King","944","944 Bennington St","East Boston","MA","(617) 569-8755","42.386146","-71.009636","Restaurants",
"Five Guys","980","980 Paradise Rd Ste 2","Swampscott","MA","(781) 595-1300","42.4832863","-70.9013733","Restaurants",
"Burger King","62","62 Granite St","Quincy","MA","(617) 770-1613","42.24775","-71.004214","Restaurants",
"Burger King","601","601 Donald Lynch Blvd Ste 5209","Marlborough","MA","(508) 303-6433","42.356322","-71.612636","Restaurants",
"McDonald's","250","250 Maple St","Marlborough","MA","(508) 485-8547","42.3388068939139","-71.541968081573","Restaurants",
"McDonald's","340","340 Chestnut St","Needham","MA","(781) 444-8592","42.2742876","-71.2375409","Restaurants",
"Wendy's","1665","1665 Andover St","Tewksbury","MA","(978) 858-0400","42.642501","-71.239356","Restaurants",
"Wendy's","3025","3025 Cranberry Hwy","East Wareham","MA","(508) 295-4090","41.757853","-70.659399","Restaurants",
"McDonald's","334","334 N Pearl St","Brockton","MA","(508) 583-3627","42.1001747","-71.0673075","Restaurants",
"McDonald's","195","195 N Main St","Andover","MA","(978) 475-9854","42.663242","-71.14462","Restaurants",
"Wendy's","90","90 Pleasant Valley St","Methuen","MA","(978) 689-9302","42.7436254","-71.1583764","Restaurants",
"Wendy's","234","234 Littleton Rd Ste 1f","Westford","MA","(978) 392-1200","42.561023","-71.434721","Restaurants",
"McDonald's","212","212 Main St","Wilmington","MA","(978) 658-4500","42.5575841","-71.1811898","Restaurants",
"Burger King","1208","1208 Dorchester Ave","Dorchester","MA","(617) 282-5293","42.309276","-71.057796","Restaurants",
"Central Cafe","254","254 Centre St Ste 1","Middleboro","MA","(508) 947-9830","41.8933544","-70.9136171","Restaurants",
"Burger King","197","197 Main St","Stoneham","MA","(781) 438-5029","42.488894","-71.100382","Restaurants",
"Burger King","765","765 Main St","Winchester","MA","(781) 729-5475","42.458378","-71.139201","Restaurants",
"Burger King","74","74 Plaistow Rd","Haverhill","MA","(978) 521-0160","42.812992832678","-71.1026914841449","Restaurants",
"Weathervane Tavern","85","85 Railroad Ave","South Hamilton","MA","(978) 468-2600","42.6113395","-70.8758634","Restaurants",
"McDonald's","1513","1513 Dorchester Ave","Dorchester","MA","(617) 288-3468","42.2992377","-71.0608862","Restaurants",
"McDonald's","1","1 Varnum Ave","Lowell","MA","(978) 454-1199","42.65001","-71.3323367","Restaurants",
"Harvard Gardens","316","316 Cambridge St","Boston","MA","(617) 523-2727","42.3609473","-71.0690112","Restaurants",
"Burger King","460","460 W Grove St","Middleboro","MA","(508) 947-5309","41.8976917","-70.9511012","Restaurants",
"Wendy's","312","312 Boston Rd","North Billerica","MA","(978) 663-4550","42.571979","-71.277155","Restaurants",
"Wendy's","188","188 Endicott St","Danvers","MA","(978) 774-8995","42.547522","-70.942632","Restaurants",
"Wendy's","486","486 Broadway","Methuen","MA","(978) 682-7827","42.739548","-71.196984","Restaurants",
"Wendy's","362","362 Bedford St","Whitman","MA","(781) 447-2878","42.070619","-70.948526","Restaurants",
"Wendy's","39","39 Squire Rd","Revere","MA","(781) 853-6690","42.4222074","-71.0060794","Restaurants",
"Burger King","61","61 Broadway","Malden","MA","(781) 322-0546","42.425009","-71.04143","Restaurants",
"McDonald's","186","186 Alewife Brook Pkwy","Cambridge","MA","(617) 876-6509","42.3902927","-71.1408395","Restaurants",
"Wendy's","303","303 W Central St","Natick","MA","(508) 872-0072","42.28174","-71.39606","Restaurants",
"Wendy's","1900","1900 Main St","Brockton","MA","(508) 586-2006","42.048087","-71.010235","Restaurants",
"McDonald's","37","37 Storey Ave","Newburyport","MA","(978) 462-7575","42.821147870292","-70.90560996081","Restaurants",
"Burger King","1965","1965 Main St","Tewksbury","MA","(978) 851-6578","42.5900303","-71.2042953","Restaurants",
"Wendy's","330","330 Middlesex Ave","Medford","MA","(617) 203-3014","42.414558","-71.079959","Restaurants",
"Burger King","392","392 Hooksett Rd","Auburn","NH","(978) 458-3095","43.024506","-71.367614","Restaurants",
"Burger King","248","248 Haverhill St","Methuen","MA","(978) 688-7846","42.706331","-71.204704","Restaurants",
"McDonald's","413","413 Main St","Reading","MA","(781) 944-9782","42.520554","-71.102896","Restaurants",
"Wendy's","198","198 Wakefield St","Rochester","NH","(603) 332-5975","43.317407","-70.9771448","Restaurants",
"McDonald's","57","57 Washington St","Norwell","MA","(781) 878-8068","42.1735837","-70.8806468","Restaurants",
"Burger King","","North Broadway Street","Londonderry","NH","(603) 434-7290","42.86547","-71.37427","Restaurants",
"Ninety Nine Restaurant & Pub","464","464 Lowell St","Andover","MA","(978) 475-8033","42.642627","-71.209841","Restaurants",
"Christophers Restaurant","580","580 Main St Ste 102","Reading","MA","(781) 944-3663","42.5232634","-71.1036714","Restaurants",
"McDonald's","1312","1312 Hyde Park Ave","Hyde Park","MA","(617) 364-2299","42.2528822","-71.1244523","Restaurants",
"Buff's Pub","317","317 Washington St","Newton","MA","(617) 332-9134","42.3572536","-71.1865145","Restaurants",
"Wendy's","581","581 Rogers St","Lowell","MA","(978) 459-2994","42.631339","-71.284183","Restaurants",
"Wendy's","69","69 Newbury St","Peabody","MA","(978) 535-7505","42.527640471016","-70.9937496104774","Restaurants",
"Deluxe Town Diner","627","627 Mount Auburn St","Watertown","MA","(617) 926-8400","42.370935","-71.158005","Restaurants",
"Five Guys","10","10 Cornerstone Sq","Westford","MA","(978) 692-6008","42.5647245","-71.4276975","Restaurants",
"Annas Harborside Grille","145","145 Water St","Plymouth","MA","(508) 591-7372","41.9617073","-70.6676368","Restaurants",
"Champions Pub","114","114 Foster St","Peabody","MA","(978) 531-7776","42.5214147","-70.9316412","Restaurants",
"Boston Burger Co","1100","1100 Boylston St","Boston","MA","(857) 233-4560","42.3468508","-71.088493","Restaurants",
"Dunn Gaherins Food & Spirit","344","344 Elliot St","Newton Upper Falls","MA","(617) 527-6271","42.312621","-71.223924","Restaurants",
"Snappy Pattys","454","454 High St","Medford","MA","(781) 219-4804","42.4209394866939","-71.1316699849777","Restaurants",
"Longboard Cafe and Bar","72","72 Wharf St","Salem","MA","(978) 745-6659","42.520307","-70.888342","Restaurants",
"Hop + Grind","17","17 Madbury Rd","Durham","NH","(603) 397-5564","43.1363397","-70.9260794","Restaurants",
"Burger King","22","22 Calef Hwy","Epping","NH","(603) 679-9811","43.023352","-71.074616","Restaurants",
"IHOP","1378","1378 Boston Providence Tpke","Norwood","MA","(781) 769-6442","42.1664267","-71.1977464","Restaurants",
"IHOP","264B","264b N Broadway Ste 206","Salem","NH","(603) 870-9081","42.7943706800128","-71.2362863496595","Restaurants",
"McDonald's","3064","3064 Washington St","Roxbury","MA","(617) 442-0475","42.315822","-71.097967","Restaurants",
"McDonald's","63","63 Ocean Rd","Greenland","NH","(603) 427-1620","43.045273","-70.819405","Restaurants",
"Wendy's","316","316 N Broadway","Salem","NH","(603) 898-1996","42.800078","-71.239846","Restaurants",
"Burger King","77","77 Drum Hill Rd","Chelmsford","MA","(978) 452-4565","42.624637","-71.363111","Restaurants",
"Burger King","47","47 Central Ave","Dover","NH","(603) 742-7214","43.1818707","-70.8755524","Restaurants",
"Burger King","128","128 Tremont St","Boston","MA","(617) 556-8299","42.356289","-71.061852","Restaurants",
"Grumpy Whites Restaurant","211","211 Sea St","Quincy","MA","(617) 770-2835","42.261285","-70.992116","Restaurants",
"IHOP","1850","1850 Soldiers Field Rd","Brighton","MA","(617) 787-0533","42.3586332","-71.1572974","Restaurants",
"Wendy's","42","42 Furlong Dr","Revere","MA","(781) 289-1676","42.39833","-70.99975","Restaurants",
"Burger King","420","420 High St","Somersworth","NH","(603) 692-7377","43.2357770002154","-70.8809463972068","Restaurants",
"Burger King","3012","3012 Cranberry Hwy","East Wareham","MA","(508) 291-0716","41.759748","-70.663072","Restaurants",
"Fuddruckers","54","54 W Dane St Ste Abc","Beverly","MA","(978) 685-9300","42.5514509","-70.8846116","Restaurants",
"Halibut Point Restaurant & Pub","289","289 Main St","Gloucester","MA","(978) 281-1900","42.6144637","-70.6589435","Restaurants",
"Wendy's","1465","1465 Woodbury Ave","Portsmouth","NH","(603) 430-7835","43.089025","-70.7882319","Restaurants",
"Burger King","133","133 Macy St","Amesbury","MA","(978) 388-3411","42.84596","-70.907479","Restaurants",
"Burger King","822","822 Lexington St","Waltham","MA","(781) 893-3002","42.403446","-71.234761","Restaurants",
"Wendy's","355","355 Worcester St","Natick","MA","(508) 651-0035","42.30251","-71.339556","Restaurants",
"McDonald's","225","225 Pond St","Ashland","MA","(508) 881-7973","42.2454254","-71.4311068","Restaurants",
"Miracle of Science Bar & Grill","321","321 Massachusetts Ave","Cambridge","MA","(617) 868-2866","42.3625797","-71.0985688","Restaurants",
"Burger King","176","176 Waverley St","Framingham","MA","(508) 620-9733","42.27856","-71.407073","Restaurants",
"Burger King","885","885 Cummins Hwy","Mattapan","MA","(617) 298-8155","42.2682288","-71.0958073","Restaurants",
"Burger King","1333","1333 Hingham St","Rockland","MA","(781) 878-6717","42.166772","-70.888966","Restaurants",
"Burger King","235","235 Church St","Pembroke","MA","(781) 826-5361","42.107021","-70.762494","Restaurants",
"Burger King","115","115 Broad St","Bridgewater","MA","(508) 279-9711","41.9932571","-70.9736263","Restaurants",
"Burger King","280","280 Lowell St","Wilmington","MA","(978) 657-5703","42.539174","-71.14197","Restaurants",
"Wendy's","436","436 Chelmsford St","Lowell","MA","(978) 459-2985","42.62796","-71.321835","Restaurants",
"Wendy's","2","2 Barnum Rd","Ayer","MA","(978) 772-5650","42.5519631","-71.5727641","Restaurants",
"Burger King","210","210 Brighton Ave","Allston","MA","(617) 783-0106","42.3530833","-71.1349886","Restaurants",
"Wendy's","377","377 Lynnway","Lynn","MA","(781) 598-9172","42.457405","-70.951364","Restaurants",
"Burger King","679","679 Concord Ave","Cambridge","MA","(617) 354-2375","42.390483","-71.150471","Restaurants",
"Wendy's","19","19 Plaistow Rd","Haverhill","MA","(978) 374-4059","42.811042","-71.102822","Restaurants",
"Wendy's","730","730 Plain St","Marshfield","MA","(781) 834-2330","42.106559","-70.746492","Restaurants",
"The Tap Brewing Company","100","100 Washington St","Haverhill","MA","(978) 374-1117","42.772768","-71.085311","Restaurants",
"Wendy's","55","55 Hampshire St","Lawrence","MA","(978) 686-3555","42.707506","-71.165141","Restaurants",
"McDonald's","700","700 Atlantic Ave Lbby 6","Boston","MA","(617) 261-3914","42.3506503106807","-71.0562377224839","Restaurants",
"Wendy's","71","71 Summer St Lbby","Boston","MA","(617) 542-5719","42.354092","-71.058994","Restaurants",
"Skip's Snack Bar","92","92 E Main St","Merrimac","MA","(978) 346-8686","42.8386026","-70.9896186","Restaurants",
"Dover Brick House","2","2 Orchard St","Dover","NH","(603) 749-3838","43.195703","-70.874859","Restaurants",
"Burger King","100","100 Cambridgeside Pl Spc W226","Cambridge","MA","(617) 494-4843","42.3684293","-71.0764537","Restaurants",
"Tasty Burger","145","145 Dartmouth St Ste 1","Boston","MA","(617) 425-4444","42.347378","-71.074841","Restaurants",
"Port City Sandwich Co","40R","40r Merrimac St","Newburyport","MA","(978) 358-8628","42.8126199","-70.8720753","Restaurants",
"R F Osullivans","151","151 Central Ave","Lynn","MA","(339) 440-4564","42.4644997","-70.9500309","Restaurants",
"Shake Shack","226","226 Legacy Pl","Dedham","MA","(781) 326-0336","42.231292","-71.17668","Restaurants",
"Vesuvius","2","2 Paradise Rd","Salem","MA","(978) 594-8886","42.486338","-70.90055","Restaurants",
"Five Guys","227","227 Andover St","Peabody","MA","(978) 717-5416","42.5465485","-70.9464334","Restaurants",
"Wendy's","1460","1460 Middlesex St","Lowell","MA","(978) 458-6320","42.637608","-71.343919","Restaurants",
"McDonald's","1928","1928 Main St","Tewksbury","MA","(978) 851-9325","42.5910282","-71.2044606","Restaurants",
"Burger King","","Route 128 Service Area","Beverly","MA","(978) 927-3714","42.55699","-70.8786","Restaurants",
"Wild Willys Burgers","46","46 Arsenal St","Watertown","MA","(617) 926-9700","42.365238","-71.181766","Restaurants",
"Wendy's","116","116 Boston St","Lynn","MA","(781) 596-1030","42.47472","-70.957579","Restaurants",
"Chick-fil-A","210","210 Andover St Unit F105","Peabody","MA","(978) 977-0740","42.5413325","-70.9439351","Restaurants",
"Burger King","157","157 Market St","Rockland","MA","(781) 871-6033","42.1219752","-70.91476","Restaurants",
"Friendly Toast","121","121 Congress St","Portsmouth","NH","(603) 430-2154","43.076282","-70.759879","Restaurants",
"Burger King","769","769 S Franklin St","Holbrook","MA","(781) 986-5728","42.130177","-71.00834","Restaurants",
"Doo Wop Diner","269","269 Main St","Malden","MA","(781) 324-9441","42.423812","-71.067187","Restaurants",
"Iron Chef","435","435 Newbury St Ste 107","Danvers","MA","(978) 777-7888","42.599932","-70.959022","Restaurants",
"Next Page Cafe","550","550 Broad St","East Weymouth","MA","(781) 340-1300","42.217757","-70.937202","Restaurants",
"Fat Cat Restaurant","24","24 Chestnut St","Quincy","MA","(617) 471-4363","42.249938","-71.001294","Restaurants",
"Fit-Zys Bar & Grill","451","451 Main St","Watertown","MA","(617) 923-3969","42.3710945","-71.1950077","Restaurants",
"McDonald's","170","170 Haverhill St","Methuen","MA","(978) 687-9301","42.7061625","-71.1999685","Restaurants",
"McDonald's","50","50 Independence Way","Danvers","MA","(978) 762-6417","42.549517","-70.941303","Restaurants",
"McDonald's","599","599 Andover St","Lawrence","MA","(978) 685-2254","42.6902394","-71.1729584","Restaurants",
"Wild Willys Burgers","724","724 Columbus Ave","Rochester","NH","(603) 332-1193","43.2872917","-70.9769625","Restaurants",
"Burger King","536","536 W Central St","Franklin","MA","(508) 553-0461","42.089822","-71.420351","Restaurants",
"Finnegans Pub","25","25 South St Ste 5","Hudson","MA","(978) 567-7961","42.3902327","-71.5687904","Restaurants",
"McDonald's","53","53 S Main St","Haverhill","MA","(978) 521-4774","42.7713479","-71.0764013","Restaurants",
"Georges Coffee Shop","178","178 Washington St","Gloucester","MA","(978) 281-1910","42.6185096","-70.6718718","Restaurants",
"Cityside Diner","275","275 Cabot St","Beverly","MA","(978) 922-9080","42.5510481","-70.8781106","Restaurants",
"Eat at Jumbos","688","688 Broadway","Somerville","MA","(617) 666-0000","42.3996179","-71.111834","Restaurants",
"Ipswich Sports Bar & Grill","24","24 Hammatt St","Ipswich","MA","(978) 356-7444","42.6793258087326","-70.8406027585481","Restaurants",
"Back Yard Burgers","61","61 Mechanic St Ste A","Bellingham","MA","(508) 966-2938","42.084591","-71.472092","Restaurants",
"Oharas Tavern","1734","1734 Lakeview Ave Ste 21","Dracut","MA","(978) 957-0271","42.678376","-71.342202","Restaurants",
"Five Guys","1207","1207 Washington St Ste 50","Hanover","MA","(781) 829-6770","42.138139","-70.84112","Restaurants",
"Boston Burger Co","13","13 Fletcher Ave","Lexington","MA","(617) 440-7361","42.447594","-71.221485","Restaurants",
"Ninety Nine Restaurant & Pub","401","401 Main St","Tewksbury","MA","(978) 863-9099","42.620031","-71.259603","Restaurants",
"IHOP","260","260 Providence Hwy","Dedham","MA","(781) 326-0719","42.2550605952397","-71.1707925391473","Restaurants",
"Five Guys","67","67 Main St","Stoneham","MA","(781) 438-8002","42.496545","-71.101225","Restaurants",
"Quincy's Place","254","254 Faneuil Hall Marketplace","Boston","MA","(617) 723-3635","42.3601075053229","-71.0549382792805","Restaurants",
"Five Guys","61","61 Crystal Ave Unit 1a","Derry","NH","(603) 818-8290","42.893391","-71.325978","Restaurants",
"Londis Famous Roast Beef & Pizza","85","85 Wilmington Rd Ste 3","Burlington","MA","(781) 273-3344","42.529643","-71.205837","Restaurants",
"Burger King","18","18 Logan Way Apt 585","South Boston","MA","(617) 569-2001","42.3272550213877","-71.053616344007","Restaurants",
"Burger King","1","1 Maverick Sq","East Boston","MA","(617) 418-5733","42.368834","-71.039319","Restaurants",
"Greek House of Pizza","343","343 Centre Ave","Rockland","MA","(781) 871-5512","42.113816","-70.9264029","Restaurants",
"Kkaties Burger Bar","38","38 Main Street Ext","Plymouth","MA","(774) 773-9444","41.9548654","-70.6624021","Restaurants",
"Five Guys","95","95 Washington St Ste 206","Canton","MA","(781) 828-4204","42.140571","-71.1477471","Restaurants",
"Red Rooster Pub LLC","510","510 Washington St","Wrentham","MA","(508) 384-6669","42.0552963","-71.2990099","Restaurants",
"Hen House Sports Bar","85","85 S Main St Unit 4","Newton","NH","(603) 382-1705","42.8557298625678","-71.044070763792","Restaurants",
"Brickyard","371","371 Main St Ste 1","Woburn","MA","(781) 935-6699","42.4797478","-71.1514699","Restaurants",
"Brant Rock Hop","269","269 Ocean St","Marshfield","MA","(781) 536-8483","42.0909966607776","-70.6445979245381","Restaurants",
"McDonald's","124B","124b Indian Rock Rd","Windham","NH","(603) 893-8205","42.8068868657225","-71.264009807118","Restaurants",
"Tasty Burger Corporation","1301","1301 Boylston St","Boston","MA","(617) 425-4444","42.344664","-71.098663","Restaurants",
"Five Guys","170","170 Providence Hwy","Dedham","MA","(781) 326-1158","42.2611888612776","-71.1688670621106","Restaurants",
"Five Guys","7","7 Warren St Ste 12","Randolph","MA","(781) 963-0600","42.1659568","-71.0438062","Restaurants",
"Corner Pub","162","162 Lincoln St","Boston","MA","(617) 542-7080","42.350765","-71.058329","Restaurants",
"50's Diner","47","47 Legacy Blvd","Dedham","MA","(781) 326-1955","42.2338444","-71.1784575","Restaurants",
"McDonald's","146","146 Tremont St","Boston","MA","(617) 778-5226","42.355181","-71.062957","Restaurants",
"Wendy's","530","530 American Legion Hwy","Roslindale","MA","(617) 983-2983","42.2872116","-71.1065797","Restaurants",
"McDonald's","14","14 Mcgrath Hwy Ste 1","Somerville","MA","(617) 666-4036","42.374425","-71.085745","Restaurants",
"Chunkys Cinema Pub","371","371 Lowell Ave","Haverhill","MA","(978) 374-2255","42.7752756","-71.1161164","Restaurants",
"View Restaurant & Tavern","357","357 W Squantum St","Quincy","MA","(617) 770-2500","42.2712989","-71.0401935","Restaurants",
"Wendy's","303","303 Montvale Ave","Woburn","MA","(781) 937-0821","42.479251","-71.120862","Restaurants",
"McDonald's","117","117 Market St","Rockland","MA","(781) 982-0760","42.1218285","-70.9149756","Restaurants",
"McDonald's","715","715 Bridge St","North Weymouth","MA","(781) 331-5718","42.243315","-70.935244","Restaurants",
"McDonald's","151","151 Littleton Rd","Westford","MA","(978) 692-7105","42.5695211","-71.4209825","Restaurants",
"McDonald's","155","155 Boston Post Rd W","Marlborough","MA","(508) 485-2402","42.3396356","-71.5884491","Restaurants",
"McDonald's","272","272 Hartford Ave","Bellingham","MA","(508) 966-0522","42.1151925","-71.46177","Restaurants",
"Burger King","66","66 Main St","Salisbury","MA","(304) 274-1461","42.869579","-70.884297","Restaurants",
"McDonald's","323","323 Bedford St","Whitman","MA","(781) 447-0680","42.0694765","-70.94764","Restaurants",
"Halligan Tavern","32","32 W Broadway","Derry","NH","(603) 965-3490","42.879732","-71.327893","Restaurants",
"Viva Mi Arepa","5197","5197 Washington St","West Roxbury","MA","(617) 323-7844","42.2614525","-71.1572876","Restaurants",
"Billys Famous Roast Beef","1291","1291 Main St","Wakefield","MA","(781) 665-2070","42.473593","-71.06191","Restaurants",
"McDonald's","472","472 Broadway","Chelsea","MA","(617) 889-2572","42.392798","-71.034454","Restaurants",
"Five Guys","341","341 Cochituate Rd Ste 7","Framingham","MA","(508) 879-7500","42.301991","-71.40159","Restaurants",
"Ideas In Taste","3","3 Hampton Rd","Norfolk","MA","(508) 520-3790","42.097661","-71.3490238","Restaurants",
"IHOP","200","200 Lynnway","Revere","MA","(781) 289-2425","42.4411522868484","-70.9670556947397","Restaurants",
"IHOP","540","540 Westgate Dr","Brockton","MA","(508) 521-6050","42.0914071325916","-71.05152","Restaurants",
"Five Guys","58","58 Summer St","Boston","MA","(617) 482-2245","42.354435","-71.058671","Restaurants",
"Five Guys","37","37 Forbes Rd","Braintree","MA","(781) 848-4897","42.2208500437405","-71.0292195060698","Restaurants",
"Five Guys","15","15 Webb Pl","Dover","NH","(603) 842-4955","43.221415","-70.888677","Restaurants",
"Wendy's","69","69 Long Pond Rd","Plymouth","MA","(508) 927-4073","41.9300157","-70.6591789","Restaurants",
"Lodge Bar & Grill","1064","1064 N Main St","Randolph","MA","(781) 961-1600","42.191807","-71.060143","Restaurants",
"McDonald's","4","4 Main St","Maynard","MA","(978) 897-8995","42.4325215","-71.4500497","Restaurants",
"Pomodori Roast Beef & Pizzeria","146","146 High St Ste A","Ipswich","MA","(978) 356-8800","42.689745","-70.85364","Restaurants",
"Gilley's Diner","175","175 Fleet St","Portsmouth","NH","(603) 431-6343","43.077199","-70.759372","Restaurants",
"Billy's Frozen Yogurt","61","61 Crystal Ave","Derry","NH","(603) 216-1416","42.893391","-71.325978","Restaurants",
"Shake Shack","49","49 Boylston St Ste 4","Chestnut Hill","MA","(617) 651-3406","42.3225967","-71.1699838","Restaurants",
"Five Guys","43","43 Middlesex Tpke Ste 14","Burlington","MA","(781) 750-3152","42.471412","-71.209482","Restaurants",
"Butch's Uptown","63","63 Locke St","Haverhill","MA","(978) 891-5178","42.776451","-71.084925","Restaurants",
"Martingale Wharf Club","99","99 Bow St Ste 400e","Portsmouth","NH","(603) 431-0901","43.0789484","-70.7561604","Restaurants",
"Mo JO's BBQ Grill & Sports Bar","95","95 Brewery Ln","Portsmouth","NH","(603) 436-6656","43.069409","-70.769814","Restaurants",
"Littleton Sub Shoppe","486","486 King St","Littleton","MA","(978) 486-3553","42.5465307","-71.4734481","Restaurants",
"Park Lunch","181","181 Merrimac St","Newburyport","MA","(978) 465-9817","42.814991","-70.878495","Restaurants",
"Submarine Galley","74","74 Brockton Ave","Abington","MA","(781) 878-9855","42.1056377","-70.9490849","Restaurants",
"Home Cafe","677","677 N Main St","Brockton","MA","(508) 583-9768","42.1007340668469","-71.020961550907","Restaurants",
"Wahlburgers","19","19 Shipyard Dr","Hingham","MA","(781) 749-2110","42.2501279","-70.922656","Restaurants",
"Lasting Room","122","122 Washington St","Haverhill","MA","(978) 373-9088","42.7725856","-71.0855639","Restaurants",
"Wendy's","115","115 Calef Hwy","Epping","NH","(603) 679-2326","43.033228","-71.07183","Restaurants",
"Leos Place Diner LLC","655","655 Main St","Waltham","MA","(781) 790-1307","42.3765032","-71.2365258","Restaurants",
"Wahlburgers","132","132 Brookline Ave Ste 1","Boston","MA","(617) 927-6810","42.3450289","-71.10053","Restaurants",
"Ashland Ale House","23","23 Pond St","Ashland","MA","(508) 861-7780","42.258668","-71.427666","Restaurants",
"Tuckaway Tavern & Butchery","58","58 Route 27","Raymond","NH","(603) 244-2431","43.038832","-71.164213","Restaurants",
"Wendy's","157A","157a Massachusetts Ave","Boston","MA","(617) 236-1550","42.3464373","-71.0875811","Restaurants",
"Lexie's Joint","88","88 Shirking Rd","Epping","NH","(603) 319-4055","43.021778","-71.09953","Restaurants",
"Ninety Nine Restaurant & Pub","250","250 Granite St Ste B","Braintree","MA","(781) 849-9902","42.2220443","-71.0227762","Restaurants",
"Ninety Nine Restaurant & Pub","362","362 Turnpike St","Canton","MA","(781) 821-8999","42.1730086","-71.110677","Restaurants",
"Jake & Joe's","475","475 Boston Providence Tpke","Norwood","MA","(781) 349-4880","42.1950395","-71.1847189","Restaurants",
"Buddy's Pizza Pub","547","547 W Grove St","Middleboro","MA","(508) 923-9196","41.901649","-70.956056","Restaurants",
"A&W All-American Food","50","50 Ferncroft Rd","Danvers","MA","(978) 777-2500","42.597042","-70.970305","Restaurants",
"Five Guys","158","158 Everett Ave Unit 1","Chelsea","MA","(617) 466-2290","42.3959907722685","-71.0399433130192","Restaurants",
"Zarape Restaurant","33","33 Maple St","Marlborough","MA","(508) 485-5502","42.345985","-71.543451","Restaurants",
"Roxy's Grilled Cheese Allston LLC","485","485 Cambridge St","Allston","MA","(617) 202-5864","42.3538386","-71.1372204","Restaurants",
"Cork N Keg","4","4 Essex Dr","Raymond","NH","(603) 244-1573","43.035382","-71.161324","Restaurants",
"Five Guys","27","27 Westgate Dr","Brockton","MA","(774) 381-7921","42.0897247","-71.0474571","Restaurants",
"Smashburger","203","203 University Ave","Westwood","MA","(781) 613-3412","42.2051614","-71.1536709","Restaurants",
"McDonald's","664","664 Crescent St # 27","Brockton","MA","(508) 584-2527","42.081289","-70.9919042","Restaurants",
"A&B Burgers","206","206 Cabot St","Beverly","MA","(978) 993-7394","42.5482593","-70.8791756","Restaurants",
"McDonald's","715","715 Belmont St","Brockton","MA","(508) 583-6413","42.0699675","-71.04701","Restaurants",
"McDonald's","605","605 Washington St","Dorchester Center","MA","(617) 282-0409","42.2904649727632","-71.0718014088185","Restaurants",
"McDonald's","40","40 Jackson St","Methuen","MA","(978) 208-1609","42.722921","-71.160485","Restaurants",
"McDonald's","540","540 Commonwealth Ave","Boston","MA","(617) 778-5228","42.348445","-71.096683","Restaurants",
"Lexies","56","56 Lincoln St","Exeter","NH","(603) 580-4332","42.981247","-70.958015","Restaurants",
"Shake Shack","92","92 Winthrop St","Cambridge","MA","(617) 758-8495","42.3721353","-71.1208923","Restaurants",
"Mainely Burgers","704","704 Massachusetts Ave","Cambridge","MA","(617) 945-7010","42.365904","-71.105017","Restaurants",
"Uburger","89","89 Main St","Andover","MA","(978) 809-3338","42.653899","-71.138997","Restaurants",
"Tailgaters Grille","166","166 Great Rd","Acton","MA","(978) 429-8146","42.485311","-71.417117","Restaurants",
"McDonald's","1392","1392 Washington St","Hanover","MA","(781) 826-2081","42.143947","-70.844952","Restaurants",
"IHOP","160","160 Washington St","Rochester","NH","(603) 948-1238","43.291301","-70.996251","Restaurants",
"Victory Grill","233","233 Elm St","Dedham","MA","(781) 686-1746","42.2279734","-71.1783163","Restaurants",
"Wahlburgers","930","930 Market St","Lynnfield","MA","(781) 334-2560","42.5146862","-71.0344211","Restaurants",
"Five Guys","263","263 Huntington Ave","Boston","MA","(617) 936-3657","42.342251","-71.086142","Restaurants",
"Lexies Landing","61","61 Beane Ln","Portsmouth","NH","(603) 828-2092","43.11546","-70.835835","Restaurants",
"Wuburger","880","880 Main St","Woburn","MA","(781) 281-0277","42.506561","-71.160747","Restaurants",
"Wendy's","1316","1316 Washington St","Hanover","MA","(781) 826-6754","42.1412557","-70.8439859","Restaurants",
"McDonald's","329","329 Washington St","Boston","MA","(617) 557-0089","42.3569473","-71.0590612","Restaurants",
"Epicurean Kitchen","644","644 Washington St Ste 102","Hanover","MA","(781) 826-2101","42.1241623","-70.8262203","Restaurants",
"Five Guys","1030","1030 Main St Ste 19","Waltham","MA","(781) 647-0555","42.375605","-71.252463","Restaurants",
"McDonald's","6","6 Circumferential Hwy","New Town","MA","(617) 332-1458","42.36062","-71.18615","Restaurants",
"Five Guys","215","215 Needham St","Newton Upper Falls","MA","(617) 332-5555","42.3105625","-71.2148757","Restaurants",
"Wendy's","1699","1699 Worcester Rd","Framingham","MA","(508) 620-7360","42.297548","-71.483941","Restaurants",
"Wendy's","39","39 S Main St","Haverhill","MA","(978) 372-6291","42.771913","-71.076097","Restaurants",
"Wheelhouse","63","63 Broad St","Boston","MA","(617) 422-0082","42.3577511239338","-71.053899853854","Restaurants",
"IHOP","570","570 Lafayette Rd Unit 301","Seabrook","NH","(603) 474-0512","42.891533","-70.871415","Restaurants",
"Burger and Beer","901","901 Main St","Woburn","MA","(785) 203-5020","42.508534","-71.160404","Restaurants",
"Lexie's on State","88","88 State St","Newburyport","MA","(978) 465-6662","42.8091937","-70.8708676","Restaurants",
"Lyonville Tavern","315","315 Plymouth St","Halifax","MA","(781) 754-0001","41.9947","-70.84667","Restaurants",
"McDonald's","339","339 Squire Rd","Revere","MA","(781) 289-8172","42.4282641","-71.0119186","Restaurants",
"Five Guys","90","90 Drum Hill Rd Ste 2","Chelmsford","MA","(978) 454-4555","42.622548","-71.36235","Restaurants",
"Wendy's","551","551 Boylston St Lbby","Boston","MA","(617) 262-0727","42.35073","-71.075877","Restaurants",
"Smashburger","495","495 Riverside Ave","Medford","MA","(781) 219-5110","42.4101273448813","-71.0861330618412","Restaurants",
"Wendy's","909","909 Central Ave","Dover","NH","(603) 742-9967","43.2204125","-70.8849778","Restaurants",
"Five Guys","1250","1250 Hancock St","Quincy","MA","(617) 481-8635","42.2521773","-71.0037941","Restaurants",
"DQ Grill & Chill","579","579 Washington St","Hanover","MA","(781) 924-1139","42.1222119","-70.8243322","Restaurants",
"Lee's Burgers Place","216","216 Sumner St","Newton Center","MA","(617) 795-2022","42.3309101","-71.1921224","Restaurants",
"Chick-fil-A","73","73 Pleasant Valley St","Methuen","MA","(978) 872-1421","42.7417831766151","-71.1602663119436","Restaurants",
"Chick-fil-A","359","359 Cochituate Rd","Framingham","MA","(508) 875-0405","42.3039999046007","-71.3984113655153","Restaurants",
"Chick-fil-A","36","36 Apex Dr","Marlborough","MA","(508) 251-0402","42.3397","-71.58601","Restaurants",
"Chick-fil-A","140","140 Providence Hwy","Dedham","MA","(781) 320-8127","42.2597838","-71.1683169","Restaurants",
"Burger King","549","549 Lafayette Rd","Seabrook","NH","(866) 394-2493","42.890968","-70.872524","Restaurants",
"Five Guys","86","86 Plaistow Rd","Haverhill","MA","(978) 361-2696","42.8132523557659","-71.1027343404336","Restaurants",
"Five Guys","65","65 Station Lndg","Medford","MA","(781) 874-1250","42.403028","-71.080816","Restaurants",
"Five Guys","1390","1390 Lafayette Rd","Portsmouth","NH","(603) 427-8931","43.0460902","-70.7726361","Restaurants",
"IHOP","10","10 Shops At 5 Way","Plymouth","MA","(774) 773-7193","41.9305629","-70.6577261","Restaurants",
"Smashburger","1298","1298 Worcester St","Natick","MA","(508) 720-0744","42.298482","-71.385426","Restaurants",
"Burger King","393","393 Washington St","Weymouth","MA","(781) 335-4606","42.210334","-70.959572","Restaurants",
"Throwback Burgers","9","9 N Main St","West Bridgewater","MA","(508) 857-0001","42.0193277","-71.0079154","Restaurants",
"Reelhouse","6","6 New St","East Boston","MA","(617) 895-4075","42.371207","-71.043925","Restaurants",
"Wendy's","25","25 Storey Ave Ste 1","Newburyport","MA","(978) 462-1317","42.820964","-70.901702","Restaurants",
"Mass Burgers Enterprises","211","211 N Main St","Natick","MA","(508) 650-5102","42.300759","-71.359158","Restaurants",
"Wahlburgers","9","9 District Ave","Dorchester","MA","(617) 282-5300","42.3258957","-71.0625768","Restaurants",
"Shake Shack","77","77 Seaport Blvd","Boston","MA","(617) 337-4699","42.3520353","-71.0466459","Restaurants",
"Applebee's Neighborhood Grill & Bar","381","381 Chestnut Hill Ave","Brighton","MA","(617) 731-0159","42.334838","-71.15123","Restaurants",
"The Barley House Seacoast","43","43 Lafayette Rd","North Hampton","NH","(603) 379-9161","42.9671125444592","-70.8353451449659","Restaurants",
"Ninety Nine Restaurant & Pub","233","233 Broad St","Bridgewater","MA","(508) 279-2799","41.994113","-70.972845","Restaurants",
"99 Restaurants LLC","14A","14a Gill St","Woburn","MA","(781) 933-8999","42.5093066269214","-71.1469071586039","Restaurants",
"Wahlburgers","300","300 Terminal St","Charlestown","MA","(617) 755-6144","42.3808017698069","-71.051474354847","Restaurants",
"McDonald's","1245","1245 Worcester St Ste 2008","Natick","MA","(508) 545-0762","42.3004711","-71.3857931","Restaurants",
"A&B Burgers Boston","115","115 Beverly St","Boston","MA","(857) 449-2251","42.3656850048172","-71.0596192546282","Restaurants",
"Wendy's","1412","1412 Boston Providence Tpke","Norwood","MA","(908) 557-8412","42.1631875","-71.1985965","Restaurants",
"McDonald's","155","155 Newburyport Tpke","Rowley","MA","(978) 948-3324","42.7040424860717","-70.9092900854585","Restaurants",
"McDonald's","180","180 Endicott St","Danvers","MA","(978) 774-6017","42.547156","-70.940219","Restaurants",
"McDonald's","I-90","Mass Pike I-90 Srvc Area 7w Milepost 115","Framingham","MA","(508) 877-2023","42.31678","-71.42904","Restaurants",
"Five Guys","60","60 Bridle Path Cir","Randolph","MA","(781) 885-1054","42.163284","-71.050486","Restaurants",
"Beantown Pub","100","100 Tremont St","Boston","MA","(617) 426-0111","42.3572499","-71.0609805","Restaurants",
"Chick-fil-A","75","75 Middlesex Tpke Ste 2110","Burlington","MA","(781) 272-2110","42.482397","-71.2137453","Restaurants",
"Wendy's","112","112 Mall Rd Ste 1","Burlington","MA","(781) 272-0866","42.48518","-71.2180448","Restaurants",
"Harp & Bard Restaurant","1099","1099 Dorchester Ave","Dorchester","MA","(617) 265-2893","42.313056","-71.05743","Restaurants",
"Burger King","95","95 Pleasant Valley St","Methuen","MA","(978) 688-0714","42.74188","-71.155182","Restaurants",
"Dairy Queen","7","7 E Grove St","Middleboro","MA","(508) 947-0192","41.885328","-70.916454","Restaurants",
"Dairy Queen","21","21 N Main St","Bellingham","MA","(508) 966-0461","42.08942","-71.475639","Restaurants",
"Wendy's","91","91 Lafayette St","Salem","MA","(978) 745-5788","42.518656","-70.89306","Restaurants",
"Burger King","165","165 Pearl St","Braintree","MA","(781) 794-9995","42.202599","-70.999866","Restaurants",
"McDonald's","32","32 Broadway","Norwood","MA","(781) 702-6044","42.1927009","-71.1987228","Restaurants",
"Burger King","259","259 Highland Ave","Salem","MA","(978) 744-9467","42.503804","-70.9218383","Restaurants",
"Burger King","1200","1200 Bridge St","Lowell","MA","(978) 454-7757","42.664669","-71.303809","Restaurants",
"Burger King","484","484 Boston Post Rd E","Marlborough","MA","(508) 480-8508","42.347786","-71.510886","Restaurants",
"Burger King","227","227 Washington St","Hudson","MA","(978) 562-3954","42.379457","-71.566618","Restaurants",
"McDonald's","663","663 Lafayette Rd","Hampton","NH","(603) 929-3674","42.945966","-70.83256","Restaurants",
"Neponset Cafe","497","497 Washington St","Canton","MA","(781) 828-9834","42.1516682","-71.1484536","Restaurants",
"McDonald's","515","515 Gallivan Blvd","Dorchester Center","MA","(617) 282-0070","42.2823409","-71.0551521","Restaurants",
"Five Guys","268","268 Franklin Village Dr","Franklin","MA","(508) 520-3911","42.08878","-71.4245798","Restaurants",
"Ruby Tuesday","1","1 Premium Outlet Blvd Ste 800","Wrentham","MA","(508) 384-5213","42.0386072","-71.3521664","Restaurants",
"Newtowne Grill of Billerica","838","838 Boston Rd","Billerica","MA","(978) 667-0021","42.530338","-71.228091","Restaurants",
"Wendy's","52","52 Main St Ste 217","North Reading","MA","(978) 664-3018","42.569873","-71.11016","Restaurants",
"Bartleys Burger Cottage","1246","1246 Massachusetts Ave","Cambridge","MA","(617) 354-6559","42.372454","-71.116301","Restaurants",
"Nate's at Front Beach","18","18 Beach St","Rockport","MA","(978) 546-0055","42.6592069","-70.6221437","Restaurants",
"Kkaties Burger Bar Marshfield","1899","1899 Ocean St","Marshfield","MA","(781) 837-0012","42.091775","-70.70517","Restaurants",
"Bred Gourmet","2255","2255 Dorchester Ave","Dorchester Center","MA","(617) 698-0103","42.273428","-71.067947","Restaurants",
"Ninety Nine Restaurant & Pub","847","847 W Central St","Franklin","MA","(508) 520-9909","42.090783","-71.431641","Restaurants",
"Ninety Nine Restaurant & Pub","166","166 Church St","Pembroke","MA","(781) 829-9912","42.1084033","-70.7685508","Restaurants",
"Grassy Roots","152","152 Main St","Wenham","MA","(978) 468-5200","42.604862","-70.885743","Restaurants",
"Angelinas Pizzaria","419","419 Elm St","Braintree","MA","(781) 843-7827","42.226297","-70.992458","Restaurants",
"Weeksies Pizza","66","66 3rd St","Dover","NH","(603) 742-5055","43.1985823","-70.8780496","Restaurants",
"Burger King","1610","1610 Vfw Pkwy","West Roxbury","MA","(617) 323-2479","42.265919","-71.167899","Restaurants",
"Burger King","357","357 Main St","Reading","MA","(781) 944-1014","42.519122","-71.102934","Restaurants",
"Five Guys","104","104 Providence Hwy","East Walpole","MA","(508) 660-9850","42.1564725","-71.2018662","Restaurants",
"All American Tavern","34","34 Bridge Rd","Salisbury","MA","(978) 499-7100","42.836884","-70.861624","Restaurants",
"Cupboard of Gloucester","41","41 Hough Ave","Gloucester","MA","(978) 281-1908","42.603646","-70.680892","Restaurants",
"Wellys Restaurant","153","153 Main St Ste A","Marlborough","MA","(508) 281-2091","42.346956","-71.548369","Restaurants",
"Wendy's","505","505 W Central St","Franklin","MA","(508) 520-3196","42.090128","-71.4182","Restaurants",
"Menotomy Grill & Tavern","25","25 Massachusetts Ave","Arlington","MA","(781) 648-1775","42.4016379","-71.13681","Restaurants",
"Cobblestone Cafe","227","227 Hanover St","Boston","MA","(857) 263-8057","42.3629898","-71.0550907","Restaurants",
"Hamilton House of Pizza","40","40 Railroad Ave","South Hamilton","MA","(978) 468-3955","42.6105881","-70.8754292","Restaurants",
"Wendy's","349","349 Washington St","Boston","MA","(617) 451-2328","42.356831","-71.059248","Restaurants",
"Wendy's","56","56 Crystal Ave","Derry","NH","(603) 421-0284","42.889482","-71.327346","Restaurants",
"Wendy's","36","36 Nashua Rd","Londonderry","NH","(603) 432-3920","42.867661","-71.346757","Restaurants",
"MOOYAH","48","48 S Highland Cmn","Hudson","MA","(978) 261-3042","42.3941674339075","-71.5948522879434","Restaurants",
"Wendy's","34","34 Mallard Dr","Sharon","MA","(781) 867-7922","42.117518","-71.144102","Restaurants",
"Dairy Queen","11","11 Maple Ave","East Bridgewater","MA","(508) 378-8167","42.031984","-70.9579212","Restaurants",
"Smashburger","545","545 Boylston Boston","Boston","MA","(617) 655-0351","42.3508","-71.07462","Restaurants",
"Ninety Nine Restaurant & Pub","100","100 Macy St","Amesbury","MA","(978) 378-5699","42.847264","-70.911472","Restaurants",
"MOOYAH","526","526 Boston Post Rd","Sudbury","MA","(978) 579-4096","42.3602793696896","-71.4301590618366","Restaurants",
"Wendy's","75","75 Winthrop Ave","Lawrence","MA","(978) 689-2024","42.6899335885668","-71.1496786112438","Restaurants",
"MOOYAH","140","140 Tremont St","Boston","MA","(857) 277-0017","42.355656","-71.062556","Restaurants",
"MOOYAH","199","199 Boston Rd","North Billerica","MA","(978) 362-3757","42.5806929","-71.2891867","Restaurants",
"Five Guys","291","291 S Broadway","Salem","NH","(603) 824-6945","42.758793","-71.211351","Restaurants",
"Burger King","498","498 Rantoul St","Beverly","MA","(978) 921-5260","42.5573011","-70.8805804","Restaurants",
"Riverbend Bar & Grill","2345","2345 Commonwealth Ave","Auburndale","MA","(617) 969-1000","42.3463801","-71.2582198","Restaurants",
"Dairy Queen","323","323 N Main St","Natick","MA","(508) 655-3839","42.313717","-71.36","Restaurants",
"Dairy Queen","158","158 High St","Ipswich","MA","(978) 356-5599","42.691364","-70.854934","Restaurants",
"Dairy Queen","226","226 Main St","Weymouth","MA","(781) 335-9546","42.1999270755049","-70.9556510140056","Restaurants",
"Dairy Queen","37","37 Ferry Rd","Salisbury","MA","(978) 465-2456","42.833599","-70.854036","Restaurants",
"Black Raspberry Pub","36","36 Cordage Park Cir Ste 111","Plymouth","MA","(508) 830-0022","41.9793881","-70.6881959","Restaurants",
"Halfway Cafe","394","394 Main St","Watertown","MA","(617) 926-3595","42.3699622","-71.193583","Restaurants",
"Clam Box","789","789 Quincy Shore Dr","Quincy","MA","(617) 773-6677","42.276266","-71.009298","Restaurants",
"Rollys Tavern On The Square","338","338 Broadway","Lynn","MA","(781) 599-2160","42.4850384","-70.9597526","Restaurants",
"Stop & Taste","667","667 North St","Randolph","MA","(781) 963-4580","42.182863","-71.0270309","Restaurants",
"Charlies Kitchen","10","10 Eliot St","Cambridge","MA","(617) 492-9646","42.372377","-71.121454","Restaurants",
"IHOP","16","16 Eliot St Ste 18","Cambridge","MA","(617) 354-0999","42.372072","-71.121484","Restaurants",
"Dairy Queen","344","344 Belmont St","Brockton","MA","(508) 583-9813","42.077567","-71.033977","Restaurants",
"Eagles Deli","1918","1918 Beacon St","Brighton","MA","(617) 731-3232","42.33656","-71.149167","Restaurants",
"Little Sammis","1145","1145 W Chestnut St","Brockton","MA","(508) 436-4766","42.054018","-71.063176","Restaurants",
"Neapoli Cafe & Pizzeria","43","43 Lebanon St","Malden","MA","(781) 321-0300","42.434356","-71.0455659","Restaurants",
"Casa-Bella Pizza","454","454 Main St","Medfield","MA","(508) 359-4040","42.186782","-71.304432","Restaurants",
"Essex Pizza","235","235 Western Ave","Essex","MA","(978) 768-3227","42.622397","-70.816224","Restaurants",
"Primo Pizza and Roast Beef","783","783 Main St","Cambridge","MA","(617) 945-0878","42.363386","-71.096885","Restaurants",
"Flat Top Johnnys","1","1 Kendall Sq Ste B2104","Cambridge","MA","(617) 494-9565","42.3670663","-71.0905674","Restaurants",
"Cape Cod Cafe Bridgewater","220","220 Winter St Ste 3","Bridgewater","MA","(508) 697-3077","41.968227","-70.974138","Restaurants",
"Dairy Queen","122","122 Main St","Foxboro","MA","(508) 543-6488","42.0733827","-71.2597466","Restaurants",
"Dairy Queen","99","99 Rockingham Park Blvd Ste 42","Salem","NH","(603) 475-3118","42.7672968","-71.2319237","Restaurants",
"Burger King","699","699 Bedford St","Whitman","MA","(781) 447-4936","42.079768","-70.946657","Restaurants",
"Dairy Queen","479","479 Cabot St","Beverly","MA","(978) 927-1249","42.5645599","-70.884831","Restaurants",
"Witches Brew Cafe","156","156 Derby St Ste 1","Salem","MA","(978) 745-8717","42.5219263","-70.8861633","Restaurants",
"Mcganns Pub","197","197 Portland St","Boston","MA","(617) 227-4059","42.364513","-71.061709","Restaurants",
"Dairy Queen","49","49 E Main St","Marlborough","MA","(508) 485-0850","42.348555","-71.541973","Restaurants",
"Petes Place","614","614 Washington St","Canton","MA","(781) 828-6960","42.154148","-71.146101","Restaurants",
"Corner Cafe","87","87 Prince St","Boston","MA","(617) 523-8997","42.3656275","-71.0559713","Restaurants",
"Lee Circle Grocery","87","87 Calef Hwy","Lee","NH","(603) 868-3040","43.1509602074025","-71.0058502592388","Restaurants",
"Burger King","1333","1333 Park St","Stoughton","MA","(781) 341-8466","42.101956","-71.067946","Restaurants",
"Speed Well Tavern","47","47 Main St","Plymouth","MA","(508) 927-4724","41.9567252","-70.6643372","Restaurants",
"Burger King","109","109 Main St","Medway","MA","(508) 533-5209","42.149641","-71.417076","Restaurants",
"Tavern In The Square Restaurant","1","1 New England Executive Park","Burlington","MA","(781) 272-9000","42.4856986724406","-71.2119363242162","Restaurants",
"Ninety Nine Restaurant & Pub","659","659 Worcester Rd","Framingham","MA","(508) 626-3639","42.299191","-71.42439","Restaurants",
"Wendy's","570","570 Lafayette Rd","Seabrook","NH","(603) 474-0402","42.891533","-70.871415","Restaurants",
"Mickey Cassidy's","116","116 Main St Ste 5","Medway","MA","(508) 533-1343","42.1507497","-71.4173589","Restaurants",
"Cafe Nostimo","72","72 Mirona Rd Ste 21","Portsmouth","NH","(603) 436-3100","43.048111","-70.7747264","Restaurants",
"R F Osullivans","282","282 Beacon St","Somerville","MA","(617) 491-9638","42.383034","-71.112467","Restaurants",
"Cherry Tree","1349","1349 Washington St","West Newton","MA","(617) 965-9796","42.349007","-71.228637","Restaurants",
"Ts Pub","973","973 Commonwealth Ave","Boston","MA","(617) 254-0807","42.3520073","-71.1196912","Restaurants",
"Ninety Nine Restaurant & Pub","59","59 Newport Ave","Quincy","MA","(617) 472-5000","42.2728958","-71.0285736","Restaurants",
"Uburger","636","636 Beacon St Ste 3","Boston","MA","(617) 536-0448","42.349562","-71.095286","Restaurants",
"Bill & Bobs Roast Beef","57","57 Main St","Woburn","MA","(781) 935-9842","42.467955","-71.146811","Restaurants",
"Dairy Queen","250","250 S Main St","Middleton","MA","(978) 777-3663","42.576786","-70.996521","Restaurants",
"Dairy Queen","1138","1138 N Main St","Brockton","MA","(508) 583-2487","42.113165","-71.034181","Restaurants",
"North Beach Bar & Grille","931","931 Ocean Blvd","Hampton","NH","(603) 967-4884","42.94158","-70.794456","Restaurants",
"Halfway Cafe","174","174 Washington St","Dedham","MA","(781) 326-3336","42.2531","-71.166947","Restaurants",
"J & R Indian Head Pub","278","278 Main St","Hanson","MA","(781) 294-8592","42.0428371","-70.8523749","Restaurants",
"Black Horse Tavern","32","32 Waterfield Rd","Winchester","MA","(781) 369-1620","42.4514413492008","-71.1374065951352","Restaurants",
"Cronins Public House","23","23 Desmoines Rd","Quincy","MA","(617) 786-9804","42.242018","-70.979971","Restaurants",
"Hardee's","303","303 Main St","Somersworth","NH","(603) 692-4481","43.253451","-70.859173","Restaurants",
"NY Pie","934","934 Moody St","Waltham","MA","(781) 373-1548","42.360278","-71.239111","Restaurants",
"Dairy Queen","652","652 Washington St","Quincy","MA","(617) 770-3920","42.24635","-70.974544","Restaurants",
"Jon Ryan's Pubs","1795","1795 Main St","Tewksbury","MA","(978) 455-5197","42.592085","-71.208913","Restaurants",
"Five Guys","20","20 Rosebrook Pl Unit 3","Wareham","MA","(508) 273-7156","41.773887176602","-70.7354107366493","Restaurants",
"IHOP","17","17 Edgell Rd","Framingham","MA","(508) 270-2694","42.3005205","-71.4336433","Restaurants",
"Burger King","2255","2255 Lafayette Rd","Portsmouth","NH","(603) 436-7267","43.03439","-70.779754","Restaurants",
"Burger King","28","28 Portsmouth Ave Ste 13","Stratham","NH","(603) 778-6304","42.9981177","-70.9210295","Restaurants",
"Dairy Queen","335","335 Centre Ave","Abington","MA","(781) 878-9753","42.109784","-70.932081","Restaurants",
"Capri Pizza","355","355 Main St","Reading","MA","(781) 944-9898","42.5184237","-71.1028914","Restaurants",
"Bison Burger","22","22 South St Ste 102","Hopkinton","MA","(508) 435-5100","42.210561","-71.549947","Restaurants",
"Charlies Deli Inc","366","366 S Main St","Sharon","MA","(781) 784-5842","42.1076674","-71.1983779","Restaurants",
"Franz's Food","46","46 Main St","Durham","NH","(603) 868-3800","43.1343013","-70.9258603","Restaurants",
"Singhs Roti Shop","692","692 Columbia Rd Ste 1","Dorchester","MA","(617) 282-7977","42.320212","-71.062456","Restaurants",
"Salem Food & Liquor Mart","331","331 Washington St","Dedham","MA","(781) 326-9820","42.249412","-71.172372","Restaurants",
"Marino's Cafe","100","100 Cummings Ctr Ste 107p","Beverly","MA","(978) 921-1507","42.559427","-70.885899","Restaurants",
"Hancock Tavern","668","668 Hancock St","Quincy","MA","(617) 472-5554","42.2678315","-71.015969","Restaurants",
"Pub at Widows Walk","250","250 Driftway","Scituate","MA","(781) 544-0032","42.1771","-70.736624","Restaurants",
"Metropolitan Bar & Grill","1245","1245 Worcester St Ste 3009","Natick","MA","(508) 651-0003","42.3004711","-71.3857931","Restaurants",
"Dairy Queen","190","190 S Union St","Lawrence","MA","(978) 687-0682","42.696788","-71.153221","Restaurants",
"Burger King","280","280 W Broadway","South Boston","MA","(617) 268-0163","42.339166","-71.05101","Restaurants",
"Boyles Market","64","64 Broadway","Arlington","MA","(781) 646-1188","42.408714","-71.137742","Restaurants",
"Pickled Onion Inc","355","355 Rantoul St","Beverly","MA","(978) 232-3973","42.552307","-70.882399","Restaurants",
"Tremonte Pizzaria and Pub","44","44 Palmer St","Lowell","MA","(978) 453-1110","42.645015","-71.310558","Restaurants",
"Dairy Queen","286","286 Main St","North Reading","MA","(978) 664-2277","42.59363","-71.119029","Restaurants",
"Five Guys","197","197 Boston Post Rd W Ste K1","Marlborough","MA","(508) 281-4855","42.3391594","-71.5905116","Restaurants",
"New London Style Pizza of Concord","71","71 Thoreau St","Concord","MA","(978) 369-7053","42.457211","-71.357677","Restaurants",
"North Street Grille","229","229 North St","Boston","MA","(617) 720-2010","42.363395","-71.052521","Restaurants",
"KCS Pub & Grill","1284","1284 Washington St","East Weymouth","MA","(781) 340-6666","42.195156","-70.924043","Restaurants",
"McDonald's","","Rt 1 & North St","Foxboro","MA","(508) 698-0163","42.07838","-71.31336","Restaurants",
"Beachmont Roast Beef","629","629 Winthrop Ave","Revere","MA","(781) 289-7968","42.3975271378005","-70.9923090088894","Restaurants",
"Brothers Pizza II","101","101 Broadway Rd Ste 1","Dracut","MA","(978) 453-0083","42.6732904","-71.2940738","Restaurants",
"Toms Pizza & Sandwich Shop","423","423 Lexington St","Auburndale","MA","(617) 969-4979","42.347294","-71.247259","Restaurants",
"Uncommon Grounds","575","575 Mount Auburn St","Watertown","MA","(617) 924-9625","42.370192","-71.159404","Restaurants",
"Broken Yolk Restaurant","251","251 Broadway Ste 5","Malden","MA","(781) 397-0628","42.431848","-71.039299","Restaurants",
"Beach Deck BBQ","207","207 Ocean Blvd Unit B","Seabrook","NH","(603) 760-2735","42.8806","-70.8180728581059","Restaurants",
"JJ Foleys Cafe","117","117 E Berkeley St","Boston","MA","(617) 728-0315","42.343614","-71.06529","Restaurants",
"Sky Box","553","553 Main St Ste 9","Tewksbury","MA","(978) 851-4818","42.6185391","-71.2547825","Restaurants",
"Four Winds Bar & Grille","266","266 Commercial St","Boston","MA","(617) 742-3922","42.3643044","-71.0512862","Restaurants",
"Red Rose Cafe","800","800 Broad St","East Weymouth","MA","(781) 337-3322","42.2161892","-70.9263328","Restaurants",
"Rock Bottom Gally","2298","2298 State Rd","Plymouth","MA","(508) 833-0442","41.8182981239535","-70.5520476085041","Restaurants",
"Groton House of Pizza","129","129 Main St","Groton","MA","(978) 448-2411","42.6063582","-71.5693197","Restaurants",
"Tavern In The Square","189","189 Washington St","Salem","MA","(978) 740-2337","42.5196048562386","-70.8952150809736","Restaurants",
"Jimmys Famous Beef & Seafood","71","71 High St","Danvers","MA","(978) 774-9748","42.5618074","-70.9329269","Restaurants",
"Stubbys Place","26","26 Old Manchester Rd","Candia","NH","(603) 483-5581","43.04094","-71.311743","Restaurants",
"Wareham House of Pizza","131","131 Marion Rd","Wareham","MA","(508) 295-6111","41.759273","-70.729425","Restaurants",
"Liberty Diner","1003","1003 Massachusetts Ave","Boston","MA","(617) 442-9262","42.328064","-71.068309","Restaurants",
"Turnpike Cafe","958","958 Turnpike St","Canton","MA","(781) 828-8231","42.1534646","-71.1054315","Restaurants",
"Giorgio's","641","641 Washington St","Norwood","MA","(781) 762-7760","42.1936674","-71.2014149","Restaurants",
"Charlies House of Pizza","1740","1740 Dorchester Ave","Dorchester Center","MA","(617) 265-3111","42.291126","-71.06262","Restaurants",
"JP Ryans Tavern","246","246 Brockton Ave","Abington","MA","(781) 878-2720","42.104227","-70.9542101","Restaurants",
"Daybreak Family Restaurant","337","337 W Center St","West Bridgewater","MA","(508) 583-5341","42.016824","-71.0280329","Restaurants",
"Marias Pizza","86","86 Massachusetts Ave","Arlington","MA","(781) 648-8011","42.4025926","-71.138564","Restaurants",
"Auburn Pitts","167","167 Rockingham Rd","Auburn","NH","(603) 622-6564","43.0147637524208","-71.3803599076479","Restaurants",
"Pats Pizza","2254","2254 Dorchester Ave","Dorchester Center","MA","(617) 298-9625","42.273506","-71.067536","Restaurants",
"Hornets Nest Sub Shop","134","134 Park St Ste 3","North Reading","MA","(978) 664-2007","42.574062","-71.075119","Restaurants",
"Sparkys Wings & Things","20","20 Emerson St","Haverhill","MA","(978) 521-1009","42.774557","-71.082406","Restaurants",
"Mamas Place","764","764 Huntington Ave","Boston","MA","(617) 566-1300","42.333328","-71.105974","Restaurants",
"Burger King","720","720 Broadway","Saugus","MA","(781) 233-4190","42.474108","-71.023471","Restaurants",
"Two Sisters Restaurant","27","27 Washington St","Gloucester","MA","(978) 281-3378","42.6123955","-70.6669531","Restaurants",
"Weston Road Cafe","336","336 Weston Rd","Wellesley","MA","(781) 235-1116","42.3065451967667","-71.3141880643707","Restaurants",
"Dacoopa Sub & Pizza","474","474 Saratoga St","East Boston","MA","(617) 567-3399","42.380137","-71.027287","Restaurants",
"Commons Eatery & Cafe","20","20 Central St","Foxboro","MA","(508) 543-4432","42.0639307","-71.2491524","Restaurants",
"Slices","323","323 Turnpike St Ste 2","Canton","MA","(781) 828-8821","42.1751172","-71.112743","Restaurants",
"Last Corner Restaurant","49","49 High St","Reading","MA","(781) 944-0340","42.522323","-71.107666","Restaurants",
"Dairy Queen","914","914 Webster St","Marshfield","MA","(781) 837-4150","42.090831","-70.703714","Restaurants",
"Keons at the Black Swan","258","258 Andover St","Georgetown","MA","(978) 352-2900","42.718709","-71.011236","Restaurants",
"Daddys Beach Club","280","280 Nantasket Ave","Hull","MA","(781) 925-3600","42.2741337","-70.8608579","Restaurants",
