Business Name,Physical Address Number,Physical Address,Physical City,Physical State,Phone,Latitude,Longitude,Primary SIC Description,
"China Blossom","946","946 Osgood St","North Andover","MA","(978) 682-2242","42.711429","-71.118913","Restaurants",
"Bamboo Fine Asian Cuisine","1","1 Lan Dr","Westford","MA","(978) 589-9666","42.559848","-71.430739","Restaurants",
"Golden Temple","1651","1651 Beacon St","Brookline","MA","(617) 277-9722","42.3387401","-71.1362747","Restaurants",
"Red House","98","98 Winthrop St","Cambridge","MA","(617) 576-0605","42.372303","-71.121248","Restaurants",
"Howl at the Moon","184","184 High St Lbby 2","Boston","MA","(617) 292-4695","42.356676","-71.052569","Restaurants",
"Committee","50","50 Northern Ave","Boston","MA","(617) 737-5051","42.3535851","-71.046119","Restaurants",
"Tamboo Bistro","252","252 Main St","Brockton","MA","(508) 584-8585","42.080385","-71.019948","Restaurants",
"Black Rose","160","160 State St Lbby","Boston","MA","(617) 742-2286","42.359438","-71.053797","Restaurants",
"Oriental Garden","400","400 Lowell Ave Ste 13","Haverhill","MA","(978) 373-5626","42.774424","-71.113501","Restaurants",
"Panificio","144","144 Charles St","Boston","MA","(617) 227-4340","42.360176","-71.07105","Restaurants",
"Jade Palace","28","28 Portsmouth Ave Ste 8","Stratham","NH","(603) 772-0572","42.9981177","-70.9210295","Restaurants",
"Karma Restaurant","174","174 Littleton Rd Ste 7","Westford","MA","(978) 692-6920","42.566563","-71.421995","Restaurants",
"Merengue Restaurant","156","156 Blue Hill Ave","Roxbury","MA","(617) 445-5403","42.31919","-71.077545","Restaurants",
"Fitzy's Pub","1","1 Man Mar Dr Unit 1","Plainville","MA","(508) 699-2532","42.008396","-71.30506","Restaurants",
"Wagamama","800","800 Boylston St Spc 117","Boston","MA","(617) 778-2344","42.3482963792101","-71.0834282775152","Restaurants",
"Brannellys Cafe","4432","4432 Washington St","Roslindale","MA","(617) 323-6700","42.280049","-71.134608","Restaurants",
"Plum Island Grille","2","2 Plum Island Blvd","Newbury","MA","(978) 463-2290","42.798602","-70.812855","Restaurants",
"Wu ER By Wow Barbecue","320","320 Washington St","Brookline","MA","(617) 566-8858","42.3332186","-71.1201747","Restaurants",
"Cuisine En Locale","156","156 Highland Ave Ste 1","Somerville","MA","(617) 285-0167","42.388278","-71.103849","Restaurants",
"Chriscillas Restaurant","447","447 Broadway","Everett","MA","(617) 389-1066","42.407159","-71.055205","Restaurants",
"Sofra Bakery & Cafe","1","1 Belmont St","Cambridge","MA","(617) 661-3161","42.3749","-71.1503564","Restaurants",
"Hurricanes at the Gardens","150","150 Canal St","Boston","MA","(617) 722-0161","42.3647556","-71.0608848","Restaurants",
"Bamboo","55","55 Ariadne Rd","Dedham","MA","(781) 251-2566","42.2316733","-71.1820091","Restaurants",
"Bellinos Trattoria","146","146 Lowell St","Wakefield","MA","(781) 246-7666","42.523662","-71.078807","Restaurants",
"Billy Tse Restaurant","240","240 Commercial St Lbby 1","Boston","MA","(617) 227-9990","42.36385","-71.051455","Restaurants",
"Cha Yen Thai Cookery","613","613 Mount Auburn St","Watertown","MA","(617) 393-0031","42.3706896","-71.1584113","Restaurants",
"New Style Asian Food","25","25 Boston St","Lynn","MA","(781) 596-1688","42.479452","-70.956152","Restaurants",
"Lil Tokoyo and Siagon","2800","2800 Lafayette Rd","Portsmouth","NH","(603) 427-8676","43.029161","-70.790611","Restaurants",
"Tasty Momo","503","503 Medford St","Somerville","MA","(617) 764-0199","42.396341","-71.1033527","Restaurants",
"Chungs Kitchen","142","142 Littleton Rd Ste 11","Westford","MA","(978) 399-0016","42.569297","-71.418565","Restaurants",
"Asian House","99","99 Cambridge St","Charlestown","MA","(617) 242-4165","42.38254","-71.079198","Restaurants",
"Scutra","92","92 Summer St","Arlington","MA","(781) 316-1813","42.41889","-71.157999","Restaurants",
"Wagamama","100","100 Northern Ave Ste 600","Boston","MA","(617) 933-9304","42.3523709","-71.0435409","Restaurants",
"Nixs Mate","89","89 Broad St","Boston","MA","(617) 556-0006","42.357322","-71.053231","Restaurants",
"Alex's Kitchen","107","107 Nichols Ave","Watertown","MA","(617) 393-9898","42.3686242","-71.1606176","Restaurants",
"Tiger Mama","1363","1363 Boylston St","Boston","MA","(617) 425-6262","42.3445864","-71.100657","Restaurants",
"Sea Breeze Mexican Grill","1782","1782 Dorchester Ave","Dorchester Center","MA","(617) 297-5205","42.289546","-71.063124","Restaurants",
"Pruller Restaurant","514","514 Lincoln St","Marlborough","MA","(508) 480-8825","42.344237","-71.562385","Restaurants",
"Asian Ginger","70","70 Central St","Foxboro","MA","(508) 698-3333","42.062602","-71.24807","Restaurants",
"Kasbah","59","59 Putnam St","Winthrop","MA","(617) 539-4484","42.374485","-70.985813","Restaurants",
"Asados Dona Flor","197","197 High St","Lowell","MA","(978) 452-0175","42.64262","-71.3012156","Restaurants",
"Athans Bakery","407","407 Washington St","Brighton","MA","(617) 783-0313","42.3494203","-71.1553102","Restaurants",
"Super Wok","25","25 Orchard View Dr","Londonderry","NH","(603) 425-5108","42.862569","-71.354974","Restaurants",
"Olive Cafe","43","43 Gore St","Cambridge","MA","(617) 876-4189","42.3718133","-71.0794664","Restaurants",
"Asian Too Express","1","1 Harborside Dr","East Boston","MA","(617) 561-7180","42.3634308","-71.0257061","Restaurants",
"Pollos A La Brasa Betos","69","69 Bennington St","East Boston","MA","(617) 561-6005","42.375696","-71.036431","Restaurants",
"Amarin of Thai","287","287 Centre St","Newton","MA","(617) 527-5255","42.3581457","-71.1851466","Restaurants",
"Habesha Restaurant","535","535 Main St","Malden","MA","(781) 399-0868","42.428585","-71.066935","Restaurants",
"Orinoco Restaurant","477","477 Shawmut Ave","Boston","MA","(617) 369-7075","42.338934","-71.075986","Restaurants",
"Wild Ginger Thai Cuisine","124","124 Washington St","Norwell","MA","(781) 347-4687","42.17017","-70.877101","Restaurants",
"Anatolia","305","305 Washington St","Brookline","MA","(617) 277-4466","42.3334339","-71.1195709","Restaurants",
"Peruvian Place","55","55 City Hall Plz","Brockton","MA","(508) 580-0147","42.0819864","-71.0184547","Restaurants",
"La Hacienda Restaurant","150","150 Meridian St","East Boston","MA","(617) 561-3737","42.373978","-71.039232","Restaurants",
"Ponzu Fine Dining","286","286 Moody St","Waltham","MA","(781) 736-9188","42.37126","-71.236805","Restaurants",
"Keons 105 Bistro","105","105 Washington St","Haverhill","MA","(978) 521-0112","42.77295","-71.085518","Restaurants",
"Wagamama","1","1 Faneuil Hall Sq","Boston","MA","(617) 742-9242","42.360039","-71.056238","Restaurants",
"La Lechonera Cafe","342","342 Cummins Hwy","Roslindale","MA","(617) 323-0311","42.2788009","-71.1160304","Restaurants",
"Blue Fugi Restaurant","200","200 Great Rd Ste 1a","Bedford","MA","(781) 280-0707","42.489533","-71.271686","Restaurants",
"Joa Take Out","326","326 Concord St","Framingham","MA","(508) 872-3312","42.284094","-71.412657","Restaurants",
"Wrapro Falafel & Grille","1670","1670 Massachusetts Ave","Cambridge","MA","(617) 876-0311","42.382094","-71.120093","Restaurants",
"Cafe St Petersburg","57","57 Union St","Newton Center","MA","(617) 467-3555","42.3299091","-71.1923177","Restaurants",
"Golden House","4403","4403 Washington St","Roslindale","MA","(617) 323-8239","42.281613","-71.133592","Restaurants",
"Asia Bistro","195","195 W Central St","Natick","MA","(508) 653-8898","42.282612","-71.383003","Restaurants",
"Lala Caribbean Restaurant","792","792 Washington St","Boston","MA","(617) 265-8171","42.3499415393477","-71.0633060177678","Restaurants",
"Jamaica Flavor","121","121 Pleasant St","Lynn","MA","(781) 477-9517","42.4607266137788","-70.9498734175481","Restaurants",
"Galettos Grill","1201","1201 Broadway Spc F217","Saugus","MA","(781) 233-0550","42.4612977","-71.0278527","Restaurants",
"La Chiva Restaurant","259","259 Bennington St","East Boston","MA","(617) 569-6200","42.378253","-71.029544","Restaurants",
"Restaurante Monte Cristo","36","36 Central Sq","East Boston","MA","(617) 561-6046","42.375461","-71.038863","Restaurants",
"9 Tastes Thai Cuisine","50","50 Jfk St Ste 1","Cambridge","MA","(617) 547-6666","42.371961","-71.120355","Restaurants",
"Pho Da Lat Restaurant","1575","1575 Middlesex St","Lowell","MA","(978) 275-0022","42.6367059","-71.348347","Restaurants",
"Sabor De Minas Restaurant","240","240 Howard St","Framingham","MA","(508) 875-0202","42.278316","-71.413213","Restaurants",
"Mango Grill","341","341 Forest St","Arlington","MA","(978) 772-6988","42.435589","-71.174118","Restaurants",
"Trackside Bar & Grill","30","30 Warren St","Peabody","MA","(978) 531-1047","42.529986","-70.9305812","Restaurants",
"Pan Asian Restaurant","720","720 E Broadway","South Boston","MA","(617) 268-2821","42.3358042","-71.0363709","Restaurants",
"Fusion House","301","301 Merrimack St Ste 2","Methuen","MA","(978) 686-8878","42.742485","-71.130578","Restaurants",
"Balis","59","59 Essex St","Lawrence","MA","(978) 725-0101","42.707953","-71.154892","Restaurants",
"Cafe Paprika","734","734 Washington St","Norwood","MA","(781) 440-0060","42.1914463","-71.2020444","Restaurants",
"Boston Shawarma","315","315 Huntington Ave","Boston","MA","(617) 670-0460","42.341187","-71.087639","Restaurants",
"Flames Restaurant","469","469 Blue Hill Ave","Dorchester","MA","(617) 989-0000","42.3089985","-71.0832417","Restaurants",
"Rincon Limeno","409","409 Chelsea St","East Boston","MA","(617) 569-4942","42.379856","-71.026889","Restaurants",
"Nisas Thai","622","622 Washington St","Canton","MA","(781) 821-6986","42.154195","-71.146055","Restaurants",
"Moby Dick of Boston","269","269 Huntington Ave","Boston","MA","(617) 236-5511","42.3419979","-71.086362","Restaurants",
"Blue Asia Co","113","113 Brighton Ave","Allston","MA","(617) 202-3867","42.353049","-71.130808","Restaurants",
"Coppa","253","253 Shawmut Ave","Boston","MA","(617) 391-0902","42.343474","-71.068749","Restaurants",
"Ginger Exchange Cambridge","1287","1287 Cambridge St","Cambridge","MA","(617) 250-8618","42.3736488","-71.0987966","Restaurants",
"Ali's Roti Restaurant","1188","1188 Blue Hill Ave","Mattapan","MA","(617) 298-9850","42.283771","-71.09129","Restaurants",
"Mr Sushi Japanese Restaurant","693","693 Massachusetts Ave","Arlington","MA","(781) 643-4175","42.4163272","-71.1552284","Restaurants",
"Montecristo","116","116 Central Ave","Lynn","MA","(781) 593-1548","42.464245","-70.950176","Restaurants",
"Latino Restaurant & Grill","910","910 Broadway","Chelsea","MA","(617) 884-4600","42.400003","-71.0222859","Restaurants",
"Max Brenner","745","745 Boylston St Lbby 2","Boston","MA","(617) 274-1741","42.349461","-71.080468","Restaurants",
"Tenichi","1400","1400 Worcester St Ste 5","Natick","MA","(508) 875-1888","42.298094","-71.392348","Restaurants",
"Wok & Talk","23","23 S Huntington Ave","Jamaica Plain","MA","(617) 487-8262","42.331341","-71.112063","Restaurants",
"Habierano Mexican Grill","166","166 Brighton Ave","Allston","MA","(617) 254-0299","42.3529191","-71.1328417","Restaurants",
"CK Shanghai","15","15 Washington St","Wellesley Hills","MA","(781) 237-7500","42.3253628","-71.2600521","Restaurants",
"Mick Morgans Pub & Restaurant","973","973 Providence Hwy","Sharon","MA","(781) 806-0066","42.1239610952318","-71.2308490967942","Restaurants",
"Burlington Jade","271","271 Cambridge St Ste 2","Burlington","MA","(781) 272-9913","42.514852","-71.20547","Restaurants",
"Red Ginger","117","117 Great Rd Ste 3a","Stow","MA","(978) 897-9998","42.434679","-71.485855","Restaurants",
"Cotali Mar Restaurante","32","32 Sumner St","Norwood","MA","(508) 990-0066","42.169059","-71.2029861","Restaurants",
"Little Q Hot Pub & Szechuan House","196","196 Massachusetts Ave","Arlington","MA","(781) 488-3755","42.4054937","-71.1424023","Restaurants",
"Mangoes Marlboro","331","331 Boston Post Rd E","Marlborough","MA","(508) 251-0682","42.3489873448813","-71.5173929810038","Restaurants",
"Mai Pearl Chinese Restaurant","121","121 Main St","Foxboro","MA","(508) 698-2600","42.0742609","-71.258742","Restaurants",
"Saus LLC","33","33 Union St","Boston","MA","(617) 248-8835","42.360633","-71.056633","Restaurants",
"Tostado Sandwich Bar","300","300 Centre St","Jamaica Plain","MA","(617) 477-8691","42.322758","-71.103057","Restaurants",
"Formosa Taipei Restaurant","315","315 Marrett Rd","Lexington","MA","(781) 862-6198","42.435871","-71.235658","Restaurants",
"Oliveiras Restaurant","749","749 Broadway","Everett","MA","(617) 389-1723","42.415744","-71.047426","Restaurants",
"Tico Boston","222","222 Berkeley St","Boston","MA","(617) 351-0400","42.350664","-71.073352","Restaurants",
"British Beer Co-Franklin","280","280 Franklin Village Dr","Franklin","MA","(508) 440-5190","42.08878","-71.4245798","Restaurants",
"Asiana Fusion","1","1 Waverley Ave","Watertown","MA","(617) 923-3874","42.370147","-71.191118","Restaurants",
"La Carreta Derry","35","35 Manchester Rd Ste 5a","Derry","NH","(603) 421-0091","42.900371","-71.33503","Restaurants",
"Yummy Cafe","669","669 Hancock St","Quincy","MA","(617) 773-0088","42.2676266","-71.016318","Restaurants",
"Citizen Public House & Oyster Bar","1330","1330 Boylston St","Boston","MA","(617) 450-9000","42.34409","-71.09866","Restaurants",
"Pollo Royal Restaurant","529","529 Broadway","Revere","MA","(781) 284-6039","42.412265","-71.010462","Restaurants",
"Istanbul Lu","237","237 Holland St","Somerville","MA","(617) 440-7387","42.402808","-71.126744","Restaurants",
"Maguro House","29","29 E Central St","Franklin","MA","(508) 520-8899","42.082495","-71.395929","Restaurants",
"Garlic N Lemons","133","133 Harvard Ave","Allston","MA","(617) 783-8100","42.352163","-71.132036","Restaurants",
"Tinkers Son","707","707 Main St","Norwell","MA","(781) 561-7361","42.161671","-70.7911625","Restaurants",
"South End Pita","473","473 Albany St","Boston","MA","(617) 556-2600","42.3397706","-71.0649991","Restaurants",
"Teranga Restaurant","1746","1746 Washington St","Boston","MA","(617) 266-0003","42.336418","-71.076574","Restaurants",
"Shiraz Cuisine","72","72 Bigelow Ave","Watertown","MA","(617) 923-2222","42.368411","-71.157181","Restaurants",
"Falafel Corner Halal Middle Eastern Mediterranean","8","8 Eliot St","Cambridge","MA","(617) 441-8888","42.3724804","-71.1214163","Restaurants",
"Las Palmas Mexican Restaurant","445","445 Essex St","Lawrence","MA","(978) 557-0045","42.706562","-71.164644","Restaurants",
"Cafe Mangal","555","555 Washington St Ste 1","Wellesley","MA","(781) 235-5322","42.296833","-71.292675","Restaurants",
"Grasshopper Restaurant","1","1 N Beacon St","Allston","MA","(617) 254-8883","42.3537844","-71.1374612","Restaurants",
"Lucky Garden","522","522 Shirley St","Winthrop","MA","(617) 846-8560","42.3717015","-70.9701522","Restaurants",
"Los Paisanos Restaurant","62","62 Broadway","Somerville","MA","(617) 629-3502","42.386555","-71.080745","Restaurants",
"Gauchao Brazilian Cuisine","102","102 Broadway","Somerville","MA","(617) 625-6100","42.3874319","-71.083538","Restaurants",
"Viva Mi Arepa","5197","5197 Washington St","West Roxbury","MA","(617) 323-7844","42.2614525","-71.1572876","Restaurants",
"Sugar & Spice Restaurant","1933","1933 Massachusetts Ave","Cambridge","MA","(617) 868-4200","42.3896609","-71.119914","Restaurants",
"Only One Jamaican Restaurant","160","160 Norfolk St","Dorchester Center","MA","(617) 822-0444","42.287056","-71.078608","Restaurants",
"Guanachapis Restaurant","273","273 Moody St","Waltham","MA","(781) 788-8590","42.3715905","-71.2372063","Restaurants",
"Pacific St Cafe","70","70 Pacific St","Cambridge","MA","(617) 494-1414","42.3598721","-71.1026478","Restaurants",
"Fordees Falafel & Deli","555","555 Mount Auburn St","Watertown","MA","(617) 923-3673","42.370119","-71.160235","Restaurants",
"Curly's Restaurant","150","150 Broadway","Chelsea","MA","(617) 889-5710","42.3894833","-71.040181","Restaurants",
"Jake S Falafel & More Inc","740","740 Beacon St","Newton Center","MA","(617) 641-2995","42.330157","-71.190801","Restaurants",
"Sunshine Brazilian Resturant","2","2 Canton St","Stoughton","MA","(781) 344-5354","42.124232","-71.104642","Restaurants",
"Kareem Restaurant","99","99 Common St","Watertown","MA","(617) 393-1880","42.371499","-71.178618","Restaurants",
"Little Haiti International Cuisine","1184","1184 Hyde Park Ave","Hyde Park","MA","(617) 364-1313","42.258315","-71.123296","Restaurants",
"Pita Thyme","102","102 Water St","Boston","MA","(617) 742-7482","42.357926","-71.05486","Restaurants",
"Hong Kong Cafe","12","12 Maple St","Danvers","MA","(978) 739-9188","42.5657264","-70.9361609","Restaurants",
"Korbani's Bakery","77","77 Swan St","Methuen","MA","(978) 686-2268","42.722708","-71.157709","Restaurants",
"Tucasa Restaurant","403","403 Broadway","Chelsea","MA","(617) 887-0888","42.391942","-71.034987","Restaurants",
"Little Lamb Restaurant","326","326 Cambridge St","Boston","MA","(857) 233-2200","42.3609348","-71.0692189","Restaurants",
"Padaria Brasil Inc","125","125 Harvard Ave","Allston","MA","(617) 202-6783","42.3517526","-71.1321977","Restaurants",
"Red Lantern","39","39 Stanhope St","Boston","MA","(617) 262-3900","42.348485","-71.073339","Restaurants",
"Terry O'reilly's Irish Pub","45","45 Union St","Newton Center","MA","(617) 964-9275","42.3301094","-71.1920125","Restaurants",
"Mana Escondido Cafe","68","68 Aguadilla St","Boston","MA","(617) 266-0900","42.3413573","-71.0757911","Restaurants",
"Tony Tipico","268","268 Essex St","Lynn","MA","(781) 592-1912","42.47027","-70.937556","Restaurants",
"Lotus Xpress Inc","167","167 Broadway","Somerville","MA","(617) 629-5909","42.388986","-71.085966","Restaurants",
"Ginger Exchange","1625","1625 Tremont St","Roxbury Crossing","MA","(617) 739-8888","42.3339238","-71.1035333","Restaurants",
"Mekong Restaurant","378","378 Broadway St","Lowell","MA","(978) 441-6353","42.64373","-71.321475","Restaurants",
"Coconut Cafe","759","759 Beacon St","Newton Center","MA","(617) 244-7050","42.3307223","-71.1916944","Restaurants",
"El Oriental De Cuba","416","416 Centre St","Jamaica Plain","MA","(617) 524-6464","42.32078","-71.110458","Restaurants",
"Pollos A La Brasa El Chalan","405","405 Chelsea St","East Boston","MA","(617) 567-9452","42.379796","-71.0270423","Restaurants",
"Little Asia","991","991 Bennington St","East Boston","MA","(617) 569-8888","42.386397","-71.00703","Restaurants",
"Montien Thai Restaurant","63","63 Stuart St","Boston","MA","(617) 338-5600","42.3512805","-71.0643404","Restaurants",
"Green Papaya","475","475 Winter St Ste 1","Waltham","MA","(781) 487-9988","42.398211","-71.263994","Restaurants",
"Dabin Restaurant","10","10 Muzzey St Ste 1","Lexington","MA","(781) 860-0171","42.447387","-71.228705","Restaurants",
"Submarine Galley","74","74 Brockton Ave","Abington","MA","(781) 878-9855","42.1056377","-70.9490849","Restaurants",
"House of Tibet Kitchen","235","235 Holland St","Somerville","MA","(617) 629-7567","42.4026781","-71.1266778","Restaurants",
"Portugalia","723","723 Cambridge St","Cambridge","MA","(617) 491-5373","42.3723238","-71.0887184","Restaurants",
"Casa Portugal Restaurant","1200","1200 Cambridge St","Cambridge","MA","(617) 491-8880","42.373115","-71.097405","Restaurants",
"Latino Restaurant","302","302 Centre St","Jamaica Plain","MA","(617) 522-1155","42.322729","-71.103255","Restaurants",
"Yely's Coffee Shop","284","284 Centre St Ste 1","Jamaica Plain","MA","(617) 524-2204","42.322769","-71.102044","Restaurants",
"Rice Barn","1037","1037 Great Plain Ave","Needham","MA","(781) 449-8300","42.28038","-71.237654","Restaurants",
"Pao Brazil Bakery","596","596 Waverley St","Framingham","MA","(508) 875-4027","42.274575","-71.423397","Restaurants",
"Stowe Cafe","118","118 Great Rd","Stow","MA","(978) 897-9330","42.432846","-71.486315","Restaurants",
"Sabor De MI Tierra","162","162 Park St","Chelsea","MA","(617) 884-0005","42.390457","-71.0356539","Restaurants",
"La Tambora Restaurant","205","205 Broadway Ste 5","Lawrence","MA","(978) 689-8553","42.707667","-71.170045","Restaurants",
"Asia Gourmet","264","264 Washington St","Malden","MA","(781) 388-3663","42.436041","-71.071881","Restaurants",
"La Qchara","506","506 Franklin St","Melrose","MA","(781) 662-5555","42.4686073","-71.0689161","Restaurants",
"Jade Restaurant","19","19 Russell Ter","Newburyport","MA","(978) 465-7246","42.816213","-70.910894","Restaurants",
"Pink Bamboo Hotpot Cafe","128","128 Penhallow St","Portsmouth","NH","(603) 319-8809","43.0780918","-70.7571522","Restaurants",
"Yamato Japanese Restaurant","117","117 Chiswick Rd","Brighton","MA","(617) 787-8881","42.340702","-71.151797","Restaurants",
"Young Kong Restaurant","300","300 Centre St","Jamaica Plain","MA","(617) 522-8922","42.322758","-71.103057","Restaurants",
"Good Taste Asian Cuisine","42","42 Central St","Ipswich","MA","(978) 356-8881","42.680763","-70.839208","Restaurants",
"Kumo Sushi","25","25 Indian Rock Rd Ste 15","Windham","NH","(603) 965-4390","42.806385","-71.296024","Restaurants",
"Beantown Pho and Grill","272","272 Newbury St","Boston","MA","(857) 239-9436","42.349122","-71.083425","Restaurants",
"Kevin Li","300","300 Wong Way","Quincy","MA","(617) 257-3595","42.24931","-70.99998","Restaurants",
"Gustazo Cuban Cafe","663","663 Main St","Waltham","MA","(781) 209-0607","42.3764761","-71.2367442","Restaurants",
"Zinneken's","1154","1154 Massachusetts Ave","Cambridge","MA","(617) 876-0836","42.3712559","-71.1146321","Restaurants",
"El Gran Jaguar","228","228 Union St","Lynn","MA","(781) 842-4635","42.465826","-70.9424087","Restaurants",
"Safari African Restaurant","1336","1336 Blue Hill Ave","Mattapan","MA","(617) 296-0011","42.2779623","-71.0931478","Restaurants",
"Noor Mediterranean Grill","136","136 College Ave","Somerville","MA","(617) 625-6667","42.4005268623596","-71.1175529490044","Restaurants",
"Old Town Cafe","222","222 North Ave","Abington","MA","(781) 878-8046","42.128097","-70.941671","Restaurants",
"Mandarin Malden","74","74 Pleasant St","Malden","MA","(781) 324-1148","42.4266715","-71.0693551","Restaurants",
"Happy Kitchen","56","56 Revere St","Winthrop","MA","(617) 207-1906","42.3825526551187","-70.9804530253515","Restaurants",
"Latin Spoon LLC","205","205 Winthrop St","Winthrop","MA","(617) 207-9909","42.376267","-70.983628","Restaurants",
"404 Bar Tapas Lounge","404","404 Harvard St","Brookline","MA","(617) 383-6268","42.345036","-71.126841","Restaurants",
"La Brasa","124","124 Broadway","Somerville","MA","(617) 764-1412","42.3877062","-71.0846367","Restaurants",
"Genki Ya","202","202 Legacy Pl","Dedham","MA","(617) 758-8224","42.2313037","-71.1764163","Restaurants",
"To Beirut","15","15 Cottage St E","Norwood","MA","(781) 769-3663","42.193461","-71.20059","Restaurants",
"Orinoco A Latin Kitchen","56","56 Jfk St Ste 5","Cambridge","MA","(617) 354-6900","42.371721","-71.120486","Restaurants",
"Pikliz International Kitchen","288","288 Broadway","Somerville","MA","(617) 625-6255","42.391584","-71.092069","Restaurants",
"Moroccan Hospitality","585","585 Somerville Ave","Somerville","MA","(617) 623-0020","42.3839061","-71.1087189","Restaurants",
"Earls Restaurant","698","698 Assembly Row","Somerville","MA","(617) 666-1790","42.395546","-71.0800486","Restaurants",
"Gl Gourmet Group Inc","211","211 Massachusetts Ave","Lexington","MA","(781) 541-6999","42.426495","-71.196558","Restaurants",
"Sweet Ginger","184","184 Cambridge St","Burlington","MA","(781) 272-5885","42.511686","-71.200783","Restaurants",
"Pasha Turkish & Mediterranean Cuisine","669","669 Massachusetts Ave Ste A","Arlington","MA","(781) 648-5888","42.416116","-71.1543472","Restaurants",
"Fairouz","5268","5268 Washington St","West Roxbury","MA","(617) 469-0000","42.2593522","-71.1588677","Restaurants",
"Hometown Pizza","23","23 Essex St","Saugus","MA","(781) 233-4600","42.448895","-71.0104404","Restaurants",
"El Potro Mexican Grill","156","156 Highland Ave","Malden","MA","(781) 605-3098","42.4194096","-71.0801256","Restaurants",
"Roman's Deli","243","243 Faneuil St","Brighton","MA","(617) 987-0191","42.352866","-71.1601818","Restaurants",
"Sabzi","352","352 Massachusetts Ave","Arlington","MA","(781) 753-0150","42.411152","-71.1484462","Restaurants",
"Falafel King III Inc","62","62 Summer St","Boston","MA","(617) 482-2223","42.354416","-71.058478","Restaurants",
"Ginger Exchange","250","250 Huntington Ave","Boston","MA","(617) 867-9999","42.3422156","-71.0851217","Restaurants",
"La Esquina Del Sabor","1","1 Unity Ave","Revere","MA","(781) 286-0033","42.3975055304306","-70.9920164176996","Restaurants",
"Tipico Restaurant","386","386 Chelsea St","East Boston","MA","(617) 418-7114","42.37948","-71.02793","Restaurants",
"Taipei Gourmet","211","211 Massachusetts Ave","Lexington","MA","(781) 541-6999","42.426495","-71.196558","Restaurants",
"Canela Market LLC","111","111 White St","Haverhill","MA","(978) 372-0108","42.779797","-71.079356","Restaurants",
"The Halal Guys","137","137 Stuart St","Boston","MA","(857) 250-2279","42.351305","-71.065881","Restaurants",
"J and J","157","157 Washington St","Somerville","MA","(617) 625-3978","42.380337","-71.090113","Restaurants",
"J&R Restaurant and Baker","188","188 Salem St","Malden","MA","(781) 397-7557","42.429769","-71.060762","Restaurants",
"L & C","128","128 Harvard St","Dorchester Center","MA","(617) 514-6620","42.2963973","-71.0798612","Restaurants",
"Restaurant Guatemalteco Sarita Take-Out LLC","647","647 Broadway","Lawrence","MA","(978) 689-7726","42.7175867","-71.1783313","Restaurants",
"Rincon Del Sabor","330","330 N Main St","Brockton","MA","(617) 301-0289","42.0921845","-71.0198031","Restaurants",
"Saveur et Couleur Catering","580","580 S Main St","Randolph","MA","(857) 249-0196","42.142999","-71.04049","Restaurants",
"Picalonga Restaurant","744","744 Dudley St","Dorchester","MA","(857) 309-7940","42.317967","-71.066616","Restaurants",
"Ricolombia Restaurant","1231","1231 River St","Hyde Park","MA","(857) 342-7976","42.25614","-71.122909","Restaurants",
"Signature Kitchen","1289","1289 Main St","Brockton","MA","(508) 232-3298","42.059768","-71.014597","Restaurants",
"Cheers Cut","154","154 Harvard Ave","Allston","MA","(617) 208-8561","42.3517347","-71.1314612","Restaurants",
"Ethiopian Cafe","377","377 Centre St","Jamaica Plain","MA","(617) 319-6982","42.32239","-71.109073","Restaurants",
"Bohemio's Restaurant","30","30 Bennington St","East Boston","MA","(617) 561-7777","42.375361","-71.037984","Restaurants",
"Rincn Hondureo","194","194 Broadway","Chelsea","MA","(617) 889-9499","42.3901771","-71.0392781","Restaurants",
"Boston Fried Chicken and Burritos","95","95 Montello St","Brockton","MA","(774) 776-2734","42.0838049244951","-71.0174546470466","Restaurants",
"Zam Zam Restaurant","42","42 Riverside Ave","Medford","MA","(781) 391-1200","42.4179277133266","-71.1081262543847","Restaurants",
"Union supermarket #1 restaurant","239","239 S Union St","Lawrence","MA","(978) 738-0449","42.696042413053","-71.1535915515413","Restaurants",
"Caf Du Pays","233","233 Cardinal Medeiros Ave","Cambridge","MA","(617) 314-7297","42.367662","-71.091181","Restaurants",
"Taipei Cuisine","68","68 Billings Rd","Quincy","MA","(617) 328-4188","42.2742355","-71.0244407","Restaurants",
"The Squealing Pig","1885","1885 Centre St","West Roxbury","MA","(617) 469-2624","42.285947","-71.15579","Restaurants",
"Rosario's","12","12 Hampshire St","Methuen","MA","(978) 208-0667","42.727721","-71.1886792","Restaurants",
"Ethiopian Restaurant","1","1 Highland Ave","Malden","MA","(781) 851-4517","42.415456","-71.078333","Restaurants",
"Sally Obriens LLC","335","335 Somerville Ave","Somerville","MA","(617) 666-3589","42.380725","-71.09791","Restaurant Management",
"Cornwalls","654","654 Beacon St Ste 1","Boston","MA","(617) 262-3749","42.34933","-71.095866","Restaurants",
"Romys Bakery","39","39 Mechanic St","Marlborough","MA","(508) 485-7950","42.346917","-71.554228","Restaurants",
"Lala Rokh On Beacon Hill","97","97 Mount Vernon St Unit 1","Boston","MA","(617) 720-5511","42.358054","-71.069719","Restaurants",
"King & I","145","145 Charles St Ste 1","Boston","MA","(617) 227-3320","42.360362","-71.070564","Restaurants",
"Jocelyn's Mediterranean Restaurant","355","355 S Broadway","Salem","NH","(603) 870-0045","42.7532631639472","-71.2070615054152","Restaurants",
"China Roma","258","258 Broadway","Revere","MA","(781) 289-2670","42.407596","-71.014174","Restaurants",
"Salem Kabob & Pizzeria","401","401 Main St Ste 108","Salem","NH","(603) 870-0018","42.793513","-71.18451","Restaurants",
"Helmand Restaurant","143","143 1st St","Cambridge","MA","(617) 492-4646","42.366451","-71.078084","Restaurants",
"Koullshi","83","83 Main St","Charlestown","MA","(617) 242-6010","42.373922","-71.062762","Restaurants",
"Quisquella Bakery","462","462 Centre St","Jamaica Plain","MA","(617) 522-9117","42.3193164","-71.1115719","Restaurants",
"Mei Ling's","434","434 Salem St Ste A","Medford","MA","(781) 391-5411","42.422904","-71.091831","Restaurants",
"Dublin House","9","9 Stoughton St","Dorchester","MA","(617) 282-2235","42.3167066","-71.0648223","Restaurants",
"Moody's Falafal Palace","25","25 Central Sq","Cambridge","MA","(617) 864-0827","42.365414","-71.104669","Restaurants",
"Pho Lemongrass","239","239 Harvard St","Brookline","MA","(617) 731-8600","42.341174","-71.120825","Restaurants",
"Sushi House","794","794 Elm St","Concord","MA","(978) 369-8856","42.465571","-71.389277","Restaurants",
"Spice Thai Cuisine","24","24 Holyoke St","Cambridge","MA","(617) 868-9560","42.372059","-71.118294","Restaurants",
"Royal East Restaurant","792","792 Main St","Cambridge","MA","(617) 661-1660","42.363076","-71.096908","Restaurants",
"Los Bendecidos","264","264 Hyde Park Ave","Jamaica Plain","MA","(617) 522-2455","42.292548","-71.11752","Restaurants",
"Pho So 1 Randolph","51","51 Memorial Pkwy","Randolph","MA","(781) 961-6500","42.1632917840966","-71.0431831811035","Restaurants",
"Los Pinos Mexican Restaurant","227","227 Revere St","Revere","MA","(781) 629-2262","42.417214","-71.000528","Restaurants",
"Tu Metapan Restaurant","295","295 Bennington St","East Boston","MA","(617) 418-7383","42.378741","-71.028116","Restaurants",
"Rancho Las Pupusas","36","36 2nd St","Chelsea","MA","(617) 884-1893","42.390386","-71.039957","Restaurants",
"Old Havana Restaurant","349","349 Centre St","Jamaica Plain","MA","(617) 477-4248","42.3226401","-71.1067956","Restaurants",
"Taste of Siam","499","499 Main St","Stoneham","MA","(781) 438-4001","42.474322","-71.1010066","Restaurants",
"My Thai Cafe","3","3 Beach St Fl 2","Boston","MA","(617) 451-2395","42.3514555","-71.0625451","Restaurants",
"Green Dragon Tavern","11","11 Marshall St","Boston","MA","(617) 367-0055","42.361489","-71.056834","Restaurants",
"Terra Brasilis","264","264 Waverley St","Framingham","MA","(508) 665-6740","42.278014","-71.410217","Restaurants",
"Central Bakery Inc","732","732 Cambridge St","Cambridge","MA","(617) 547-2237","42.371841","-71.089105","Restaurants",
"Thistle & Shamrock","62","62 Walden St","Cambridge","MA","(617) 492-2522","42.3889874","-71.1247581","Restaurants",
"Commodore Grill","259","259 E Main St","East Hampstead","NH","(603) 378-2155","42.891332","-71.138952","Restaurants",
"Thailand Cafe","161","161 Massachusetts Ave","Arlington","MA","(781) 643-0296","42.4051403","-71.1411117","Restaurants",
"JNJ Turo Turo","219","219 Quincy Ave Unit 33","Quincy","MA","(617) 471-8876","42.2403215","-70.9919302","Restaurants",
"Sun Dynasty","21","21 Memorial Dr","Plymouth","MA","(508) 746-7600","41.960721","-70.668383","Restaurants",
"Wok","180","180 Worcester St","Wellesley Hills","MA","(781) 235-0238","42.31535","-71.244762","Restaurants",
"Xiang Uyu China Bistro","1223","1223 Beacon St","Brookline","MA","(617) 739-0000","42.343106","-71.116775","Restaurants",
"Pao De Acucar Market","57","57 Union Sq","Somerville","MA","(617) 625-0022","42.3798751","-71.0957756","Restaurants",
"Jades Restaurant LLC","4","4 Bourbon St","Peabody","MA","(978) 535-3000","42.5474876","-70.9788639","Restaurant Management",
"Aroma Pizza Ngrill","108","108 Mechanic St Ste 16","Bellingham","MA","(508) 966-3100","42.082571","-71.467147","Restaurants",
"Tudo Na Brasa","414","414 Main St","Woburn","MA","(781) 938-0101","42.4804978","-71.1515983","Restaurants",
"Teriyaki House","32","32 W Broadway","South Boston","MA","(617) 269-2000","42.342717","-71.056374","Restaurants",
"Home Run Cafe","1269","1269 Massachusetts Ave","Dorchester","MA","(617) 288-9262","42.321464","-71.062643","Restaurants",
"InBoston","175","175 Massachusetts Ave","Boston","MA","(617) 982-7118","42.345828","-71.087367","Restaurants",
"J Garden","59","59 Franklin St","Quincy","MA","(617) 770-9898","42.2420516","-71.0038083","Restaurants",
"Bon Me","1","1 Kendall Sq Ste B3105","Cambridge","MA","(617) 945-2615","42.3670663","-71.0905674","Restaurants",
"Snowdaes","1075","1075 Westford St Ste 10","Lowell","MA","(978) 455-0805","42.6300964","-71.3538248","Restaurants",
"Beijing Chinese Dining","1709","1709 Massachusetts Ave","Lexington","MA","(781) 862-2100","42.44733","-71.226486","Restaurants",
"Terra Brasilis Restaurant","94","94 Union Ave","Framingham","MA","(508) 620-9354","42.280208","-71.41815","Restaurants",
"Heng Lay Restaurant Inc","153","153 Liberty St","Lowell","MA","(978) 458-4619","42.6333036","-71.3248244","Restaurants",
"Korean Garden Restaurant","122","122 Harvard Ave","Allston","MA","(617) 562-8989","42.352379","-71.131728","Restaurants",
"Brazil On The Grill","696","696 Crescent St","Brockton","MA","(508) 588-6665","42.081892","-70.991268","Restaurants",
"Thai Sweet Basil","209","209 N Main St Ste 8","Andover","MA","(978) 470-8098","42.665481","-71.144194","Restaurants",
"Sabbs Market Inc","1001","1001 Boston Providence Tpke Ste 2","Norwood","MA","(781) 440-0063","42.1775636","-71.1927323","Restaurants",
"Minas Cafe","1237","1237 Washington St","Norwood","MA","(781) 440-9494","42.1753","-71.2081534","Restaurants",
"Les Restaurant","137","137 Brighton Ave","Allston","MA","(617) 783-2340","42.353126","-71.131271","Restaurants",
"El Jardin Restaurant","15","15 Central Sq","East Boston","MA","(617) 569-6508","42.374334","-71.038652","Restaurants",
"Hennessys","25","25 Union St","Boston","MA","(617) 742-2121","42.365213","-71.049789","Restaurants",
"Sunrise Cuisine","76","76 Middlesex Ave","Somerville","MA","(617) 623-2992","42.3936935","-71.083141","Restaurants",
"Sakura Japan","100","100 Cambridgeside Pl","Cambridge","MA","(617) 252-0882","42.3684293","-71.0764537","Restaurants",
"Nu Flav","1100","1100 Blue Hill Ave","Dorchester Center","MA","(617) 506-7092","42.286947","-71.09023","Restaurants",
"Mary Chung Restaurant","26","26 Landsdowne St Ste 175","Cambridge","MA","(617) 864-1991","42.3608102","-71.0987805","Restaurants",
"New Golden Gate Inc","66","66 Beach St","Boston","MA","(617) 338-7721","42.351403","-71.060047","Restaurants",
"Bubor Cha Cha","45","45 Beach St","Boston","MA","(857) 233-2478","42.351299","-71.060816","Restaurants",
"Simply Khmer Food","26","26 Lincoln St Ste 4","Lowell","MA","(978) 454-6700","42.6315151","-71.3190259","Restaurants",
"Bond","250","250 Franklin St","Boston","MA","(617) 451-1900","42.356359","-71.054759","Restaurants",
"Fury's Public House","1","1 Washington St","Dover","NH","(603) 617-3633","43.1948345","-70.8709493","Restaurants",
"Metapan Restaurant","339","339 Broadway","Chelsea","MA","(617) 887-0484","42.39136","-71.03615","Restaurants",
"La Reina Cafeteria","80","80 Bennington St","East Boston","MA","(617) 567-0034","42.3760992","-71.0361207","Restaurants",
"Greenhills Irish Bakery","780","780 Adams St","Dorchester Center","MA","(617) 825-8187","42.283273","-71.055573","Restaurants",
"Continental Bakery","10","10 Floyd St # 2","Everett","MA","(617) 387-4045","42.413171","-71.063956","Restaurants",
"Keyks","333","333 Acton Rd","Chelmsford","MA","(978) 323-9144","42.570605","-71.378033","Restaurants",
"Coriander Bistro Restaurant","5","5 Post Office Sq","Sharon","MA","(781) 784-2300","42.1237109","-71.1784203","Restaurants",
"Oasis Grill & Restaurant","912","912 Gorham St","Lowell","MA","(978) 452-0833","42.6295646","-71.3079571","Restaurants",
"Mandarin Cuisine","238","238 Highland Ave Ste 4","Needham Heights","MA","(781) 455-8801","42.30382","-71.220882","Restaurants",
"Village Sushi & Grill","14","14 Corinth St","Roslindale","MA","(617) 363-7874","42.286493","-71.1301019","Restaurants",
"Asia Treasures","399","399 High Plain St","Walpole","MA","(508) 668-8989","42.1405853","-71.2210307","Restaurants",
"Lloyds Diner","184","184 Fountain St","Framingham","MA","(508) 879-8750","42.27529","-71.431731","Restaurants",
"Old School House Pub & Restaurant","17","17 School St","Hudson","MA","(978) 568-1300","42.3893068","-71.5699192","Restaurants",
"Aceituna Cafe","605","605 W Kendall St","Cambridge","MA","(617) 252-0702","42.3646404","-71.0818612","Restaurants",
"Cafe Sushi","1105","1105 Massachusetts Ave Ste 3","Cambridge","MA","(617) 492-0434","42.370762","-71.113425","Restaurants",
"New Garden Restaurant","40","40 Chestnut Pl","Needham","MA","(781) 449-1450","42.27569","-71.23866","Restaurants",
"Sushi Express","1038","1038 Beacon St Ste 3","Brookline","MA","(617) 738-5658","42.346102","-71.108626","Restaurants",
"Hong Kong Dragon","68","68 Woodside Ave","Winthrop","MA","(617) 539-0012","42.3741946","-70.986098","Restaurants",
"Eastern Lamejun Bakers Inc","145","145 Belmont St","Belmont","MA","(617) 484-5239","42.3756389","-71.1560931","Restaurants",
"Mandarin Danvers","139","139 Endicott St Ste B1","Danvers","MA","(978) 774-8588","42.551133","-70.933435","Restaurants",
"Restaurante Cesaria","266","266 Bowdoin St","Dorchester","MA","(617) 282-1998","42.3069101","-71.0666588","Restaurants",
"Sichuan Gourmet","271","271 Worcester Rd Ste 2","Framingham","MA","(508) 626-0248","42.298876","-71.405626","Restaurants",
"Taste of Eden Ja-American Restaurant","38","38 Norfolk St","Dorchester Center","MA","(617) 282-0077","42.289166","-71.072765","Restaurants",
"Pho 1","908","908 Main St","Woburn","MA","(781) 932-4780","42.508876","-71.161132","Restaurants",
"Sakura Japan","417","417 Washington St Ste 15","Boston","MA","(617) 695-2338","42.355816","-71.060373","Restaurants",
"Sahara Club & Restaurant","34","34 Bates St","Methuen","MA","(978) 683-9200","42.729467","-71.144534","Restaurants",
"Claddagh Restaurant & Pub","399","399 Canal St","Lawrence","MA","(978) 688-8337","42.7066848","-71.1622215","Restaurants",
"Oasis Cafe & Bakery","377","377 Main St","Medford","MA","(781) 306-9611","42.4050657188957","-71.1080905483367","Restaurants",
"Samba West","1583","1583 Worcester Rd","Framingham","MA","(508) 628-9228","42.297163","-71.47258","Restaurants",
"Pho 1 Waltham","374","374 Moody St","Waltham","MA","(781) 891-6977","42.369788","-71.237015","Restaurants",
"Faiasei King","1504","1504 Hancock St","Quincy","MA","(617) 773-0100","42.2481382","-71.0012228","Restaurants",
"Blue Taleh","15","15 Kearney Sq","Lowell","MA","(978) 453-1112","42.6451769","-71.3072","Restaurants",
"Daikanyama","43","43 Waltham St","Lexington","MA","(781) 860-9388","42.4467567","-71.2280354","Restaurants",
"Guira y Tambora","4014","4014 Washington St","Roslindale","MA","(617) 327-7555","42.291827","-71.122157","Restaurants",
"Singhs Roti Shop","692","692 Columbia Rd Ste 1","Dorchester","MA","(617) 282-7977","42.320212","-71.062456","Restaurants",
"Chacarero","101","101 Arch St Ste 130","Boston","MA","(617) 542-0392","42.354954","-71.059085","Restaurants",
"Zaz Restaurant","1238","1238 River St","Hyde Park","MA","(617) 276-3729","42.2558068","-71.1229909","Restaurants",
"La Frontera Restaurant","290","290 Bennington St Ste 1","East Boston","MA","(617) 569-8600","42.3789957","-71.0285918","Restaurants",
"Dragon Chef","511","511 Broadway","Everett","MA","(617) 387-7900","42.4089255","-71.0533465","Restaurants",
"Irish Village","224","224 Market St","Brighton","MA","(617) 787-5427","42.354847","-71.149702","Restaurants",
"Border Cafe","819","819 Broadway","Saugus","MA","(781) 233-5308","42.4751774","-71.0243795","Restaurants",
"Avocados Mexican Taquerias","372","372 South Ave","Whitman","MA","(781) 447-3232","42.083211","-70.9245408","Restaurants",
"Lucky Dog","129","129 Cabot St","Beverly","MA","(978) 922-4899","42.546094","-70.8796846","Restaurants",
"Molana Restaurants","5","5 Spring St","Watertown","MA","(617) 923-2554","42.365722","-71.1844","Restaurants",
"Eggroll Cafe","110","110 University Ave","Lowell","MA","(978) 970-3411","42.6540622","-71.3276803","Restaurants",
"Cavaleiros Restaurant","573","573 Lawrence St","Lowell","MA","(978) 458-2800","42.633805","-71.302702","Restaurants",
"Chief Wok Restaurant","224","224 N Broadway Ste C7","Salem","NH","(603) 898-6200","42.789606","-71.233706","Restaurants",
"Oasis Restaurant","373","373 Main St","Medford","MA","(781) 396-8337","42.405291","-71.108266","Restaurants",
"Au Beurre Chaud Bakery","721","721 River St","Hyde Park","MA","(617) 364-3066","42.2637766","-71.1024939","Restaurants",
"Cafe Asiana","25","25 Pearl St","Braintree","MA","(781) 843-0883","42.202181","-71.004282","Restaurants",
"Blue Orchid","927","927 High St","Westwood","MA","(781) 320-9688","42.2178187","-71.2253113","Restaurants",
"La Sultana Bakery","40","40 Maverick Sq","East Boston","MA","(617) 568-9999","42.370088","-71.039205","Restaurants",
"West End Strollers","1","1 Faneuil Hall Market Pl","Boston","MA","(617) 720-6020","42.359767226036","-71.053461385707","Restaurants",
"Koto Japanese Grill and Sushi Bar","90","90 Washington St","Salem","MA","(978) 594-8681","42.5219116","-70.896265","Restaurants",
"Lucky Dragon","339","339 S Broadway","Salem","NH","(603) 898-8888","42.754448","-71.20776","Restaurants",
"Green Peapod","557","557 Mount Auburn St","Watertown","MA","(617) 926-8881","42.370158","-71.160255","Restaurants",
"Chengs Wok","184","184 Cambridge St","Burlington","MA","(781) 272-5885","42.511686","-71.200783","Restaurants",
"Oriental Pearl","220","220 Washington St","Brookline","MA","(617) 739-0008","42.3323139","-71.118694","Restaurants",
"El Santaneco","24","24 5th St","Chelsea","MA","(617) 884-5005","42.393257","-71.03493","Restaurants",
"Blue Nile","389","389 Centre St","Jamaica Plain","MA","(617) 522-6453","42.322299","-71.109625","Restaurants",
"Asian Wok Express","324","324 Lafayette Rd","Hampton","NH","(603) 929-6688","42.936936","-70.8386699","Restaurants",
"El Embajador Restaurant","3371","3371 Washington St","Jamaica Plain","MA","(617) 524-6812","42.309096","-71.105137","Restaurants",
"Beverly Jade Inc","277","277 Rantoul St","Beverly","MA","(978) 927-1109","42.5505054","-70.8829979","Restaurants",
"Panela De Barro Restaurant","229","229 Newton St","Waltham","MA","(781) 209-1888","42.369341","-71.230492","Restaurants",
"Shogun","1385","1385 Washington St","West Newton","MA","(617) 965-6699","42.348528","-71.229672","Restaurants",
"Dado Tea","955","955 Massachusetts Ave Ste 4","Cambridge","MA","(617) 497-9061","42.3691547","-71.109828","Restaurants",
"Asia Taste Restaurant","637","637 Lowell St Ste 6","Peabody","MA","(978) 536-2860","42.550477","-71.001841","Restaurants",
"Paddy Kellys","154","154 Washington St Ste A","Peabody","MA","(978) 532-2370","42.5203397","-70.9323837","Restaurants",
"Lelyonnais Restaurant & Catering","416","416 Great Rd","Acton","MA","(978) 263-9068","42.509729","-71.421825","Restaurants",
"Izzys Restaurant & Sub Shop","169","169 Harvard St","Cambridge","MA","(617) 661-3910","42.366292","-71.095583","Restaurants",
"Go Fresh-M","10","10 North St","Medfield","MA","(508) 359-9944","42.1868423","-71.3060483","Restaurants",
"Mandarin Buffett","1100","1100 Revere Beach Pkwy","Chelsea","MA","(617) 889-0056","42.402842","-71.025481","Restaurants",
"Shing Yee Restaurant","1255","1255 Washington St","West Newton","MA","(617) 332-0888","42.3495","-71.225117","Restaurants",
"Asian Taste","207","207 Middlesex Ave","Medford","MA","(781) 393-9398","42.409799","-71.079542","Restaurants",
"Chilli Garden","41","41 Riverside Ave","Medford","MA","(781) 396-8488","42.417685","-71.108431","Restaurants",
"Asmara Restaurant","739","739 Massachusetts Ave","Cambridge","MA","(617) 864-7447","42.366444","-71.105051","Restaurants",
"Sayde's Bar & Grill","136","136 Cluff Crossing Rd","Salem","NH","(603) 890-1032","42.761798","-71.224848","Restaurants",
"Massis Bakery","569","569 Mount Auburn St","Watertown","MA","(617) 924-0537","42.3701556","-71.1599866","Restaurants",
"Sunrise Restaurant","1157","1157 Dorchester Ave","Dorchester","MA","(617) 288-7314","42.311226","-71.058112","Restaurants",
"White Dove Market","59","59 Loring Ave","Salem","MA","(978) 744-3143","42.5022344","-70.8937409","Restaurants",
"Rangzen Tibet Restaurant","24","24 Pearl St","Cambridge","MA","(617) 354-8881","42.364123","-71.102984","Restaurants",
"Delicia's Restaurant","149","149 Stoughton St","Dorchester","MA","(617) 533-8298","42.3146432","-71.0602274","Restaurants",
"Chung-Shin Yuan Inc","183","183 California St","Newton","MA","(617) 964-0111","42.3648529","-71.195755","Restaurants",
"Bao Nation","575","575 Massachusetts Ave","Cambridge","MA","(617) 547-0295","42.365029","-71.102372","Restaurants",
"Island Style","183","183 Washington St","Dorchester","MA","(617) 288-8300","42.3033672","-71.0787618","Restaurants",
"Tropical Island","148","148 Bowdoin St","Dorchester","MA","(617) 265-0310","42.3038573","-71.0711312","Restaurants",
"Webster's Eatery","13","13 Scammell St","Quincy","MA","(617) 479-5459","42.242932","-70.99502","Restaurants",
"Taqueria El Carrizal","254","254 Brighton Ave","Allston","MA","(617) 779-0022","42.3532749","-71.136566","Restaurants",
"Jerusalem Pita","10","10 Pleasant St","Brookline","MA","(617) 739-2400","42.343072","-71.12015","Restaurants",
"Ned Devines","1","1 Faneuil Hall Market Pl","Boston","MA","(617) 248-8800","42.359767226036","-71.053461385707","Restaurants",
"Dah Mee","25","25 Washington St","Natick","MA","(508) 655-3951","42.2852416","-71.3460097","Restaurants",
"La Diferencia Restaurant","192","192 Middlesex St","Lowell","MA","(978) 454-6919","42.6407209","-71.3119283","Restaurants",
"Red Rose Cafe","800","800 Broad St","East Weymouth","MA","(781) 337-3322","42.2161892","-70.9263328","Restaurants",
"Wrapture","280","280 Cabot St","Beverly","MA","(978) 524-7710","42.551082","-70.878644","Restaurants",
"Sato II Restaurant","147","147 Main St","Stoneham","MA","(781) 438-8786","42.493139","-71.100977","Restaurants",
"Bani Restaurant","681","681 Merrimack St","Lowell","MA","(978) 458-6384","42.6485086","-71.3189714","Restaurants",
"Number 1 Noodle House","51","51 Langley Rd","Newton Center","MA","(617) 527-8810","42.330113","-71.192022","Restaurants",
"Ramis","324","324 Harvard St","Brookline","MA","(617) 738-3577","42.343244","-71.123462","Restaurants",
"Pho 2000 Restaurant","198","198 Adams St","Dorchester","MA","(617) 436-1908","42.302245","-71.060002","Restaurants",
"Cavan Cafe","1406","1406 Hyde Park Ave","Hyde Park","MA","(617) 361-3390","42.250608","-71.125756","Restaurants",
"Tangierino Restaurant","83","83 Main St","Charlestown","MA","(617) 242-6009","42.373922","-71.062762","Restaurants",
"Tai Pei Tokyo Cafe","411","411 Main St Apt 302","Stoneham","MA","(617) 625-6666","42.4788493","-71.1007526","Restaurants",
"Lucky Garden","10","10 Haverhill St","Methuen","MA","(978) 681-9312","42.7042918902848","-71.1909256214731","Restaurants",
"La Bonne Maison","367","367 California St # 2","Newton","MA","(617) 923-1131","42.365344","-71.203942","Restaurants",
"Casa Antigua","129","129 Oxford St","Lynn","MA","(781) 584-8240","42.463856","-70.946939","Restaurants",
"Sabor Special Restaurant","83","83 Williams St","Chelsea","MA","(617) 884-8900","42.389881","-71.041515","Restaurants",
"Azama Grill Inc","54","54 Harvard Ave","Allston","MA","(617) 779-0003","42.354357","-71.132245","Restaurants",
"Talk & Wok Cafe","1277","1277 River St","Hyde Park","MA","(617) 361-6888","42.2559694","-71.1242906","Restaurants",
"Mr Dooleys Boston Tavern","77","77 Broad St","Boston","MA","(617) 338-5656","42.3576607","-71.0536408","Restaurants",
"Tango Restaurant","464","464 Massachusetts Ave","Arlington","MA","(781) 443-9000","42.41479","-71.152094","Restaurants",
"Tabrizi Bakery","56","56 Mount Auburn St Ste A","Watertown","MA","(617) 926-0880","42.366336","-71.182411","Restaurants",
"Bamboo House","21","21 Broadway St","Wakefield","MA","(781) 224-0098","42.498036","-71.071382","Restaurants",
"Cafe Asia","860","860 S Franklin St","Holbrook","MA","(781) 961-0008","42.1273497","-71.0100444","Restaurants",
"Hana Sushi","2372","2372 Massachusetts Ave","Cambridge","MA","(617) 868-2121","42.3966399","-71.1298327","Restaurants",
"Punto Rojo","16","16 Bennington St","East Boston","MA","(617) 569-7770","42.375382","-71.038247","Restaurants",
"Divine Merci Restaurant","1296","1296 Blue Hill Ave","Mattapan","MA","(617) 296-1300","42.279338","-71.092764","Restaurants",
"MI Rancho Restaurant","45","45 Meridian St","East Boston","MA","(617) 561-0205","42.3715213","-71.0388269","Restaurants",
"Charlie Chans Restaurant","1270","1270 Main St","Brockton","MA","(508) 559-1776","42.060383","-71.014037","Restaurants",
"West Garden","1890","1890 Centre St","West Roxbury","MA","(617) 469-2288","42.285486","-71.155741","Restaurants",
"Pho Hoa Restaurant","1370","1370 Dorchester Ave","Dorchester","MA","(617) 287-9746","42.3040605","-71.0590719","Restaurants",
"Lowell Portuguese Bakery F","930","930 Gorham St","Lowell","MA","(978) 458-3111","42.6293105","-71.3079597","Restaurants",
"Golden Krust","1614","1614 Blue Hill Ave","Mattapan","MA","(617) 696-6200","42.268842","-71.093464","Restaurants",
"John Good Time Asian Cuisine","379","379 Belmont St","Brockton","MA","(508) 588-8833","42.077267","-71.0356259","Restaurants",
"La Chilindrina LLC","10","10 Central Ave Ste A","Chelsea","MA","(617) 884-0808","42.390405","-71.034848","Restaurants",
"Muqueca Restaurant","1008","1008 Cambridge St","Cambridge","MA","(617) 354-3296","42.3726862456603","-71.0939002507966","Restaurants",
"Highland Creole Cuisine","2","2 Highland Ave","Somerville","MA","(617) 625-8333","42.384384","-71.092609","Restaurants",
"Machu Picchu","307","307 Somerville Ave","Somerville","MA","(617) 628-7070","42.380499","-71.097333","Restaurants",
"Pita Kabob","2","2 Avenue De Lafayette","Boston","MA","(617) 542-7482","42.354002","-71.061034","Restaurants",
"Bani Restaurant","4541","4541 Washington St","Roslindale","MA","(617) 469-0294","42.278344","-71.137197","Restaurants",
"Next Door Cafe","110","110 Brighton Ave","Allston","MA","(617) 254-1122","42.352582","-71.1304093","Restaurants",
"Phnom Penh Restaurant","309","309 Westford St","Lowell","MA","(978) 275-0999","42.635105","-71.327496","Restaurants",
"Senmonorom Restaurant","1671","1671 Middlesex St","Lowell","MA","(978) 275-0024","42.636339","-71.352063","Restaurants",
"Labahia Restaurant","15","15 Newbury St","Lawrence","MA","(978) 975-5655","42.7082776","-71.155395","Restaurants",
"O'Leary's Irish Pub and Restaurant","1010","1010 Beacon St","Brookline","MA","(617) 734-0049","42.346362","-71.107478","Restaurants",
"Lollys Bakery","158","158 Bennington St","East Boston","MA","(617) 567-9461","42.3771533","-71.0333713","Restaurants",
"Dalat Restaurant","475","475 Chelmsford St","Lowell","MA","(978) 453-3303","42.6270991","-71.3229439","Restaurants",
"Yummy Express","21","21 Branch St Unit 5","Lowell","MA","(978) 458-6825","42.6379581","-71.3220862","Restaurants",
"Oriental House Restaurant","560","560 Washington St","Dorchester Center","MA","(617) 282-9329","42.292062","-71.071504","Restaurants",
"Ye Old Cottage Restaurant","403","403 Boston Post Rd","Weston","MA","(781) 893-9810","42.367511","-71.300774","Restaurants",
"Mainha Restaurant Inc","1","1 Memorial Dr Ste 1","Avon","MA","(508) 583-5900","42.116032","-71.029453","Restaurants",
"Imperial Dragon Inc","2","2 Man Mar Dr Unit 1","Plainville","MA","(508) 699-6088","42.009029","-71.305707","Restaurants",
"Maki Sushi","43","43 Main St","Peabody","MA","(978) 854-5426","42.524565","-70.9253841","Restaurants",
"Sahtaine Restaurant","319","319 Merrimack St Ste 1","Methuen","MA","(978) 258-2186","42.743034","-71.130473","Restaurants",
"Lis Asian Gourmet","4","4 Cobbetts Pond Rd Unit 5","Windham","NH","(603) 893-8858","42.792701","-71.305105","Restaurants",
"Nos Casa","475","475 Dudley St Ste A","Roxbury","MA","(617) 606-7060","42.323227","-71.073707","Restaurants",
"Alexs Chimis","358","358 Centre St","Jamaica Plain","MA","(617) 522-5201","42.322297","-71.107548","Restaurants",
"Baraka Cafe","1728","1728 Massachusetts Ave","Cambridge","MA","(617) 868-3951","42.384097","-71.119803","Restaurants",
"Soundbites","704","704 Broadway","Somerville","MA","(617) 623-8338","42.399763","-71.112447","Restaurants",
"Super Buritto Mexican Grill","453","453 Ferry St","Everett","MA","(617) 387-0405","42.418245","-71.050671","Restaurants",
"Cafe Polonia","611","611 Dorchester Ave","South Boston","MA","(617) 269-0110","42.3288216","-71.0571177","Restaurants",
"MI Tierra Restaurant","585","585 Moody St","Waltham","MA","(781) 894-5676","42.366275","-71.238191","Restaurants",
"Cafe Mami","1815","1815 Massachusetts Ave Ste M4","Cambridge","MA","(617) 547-9130","42.387132","-71.118795","Restaurants",
"Golden Garden","63","63 Concord Ave","Belmont","MA","(617) 489-4428","42.3915702","-71.1602317","Restaurants",
"Topacio","120","120 Meridian St","East Boston","MA","(617) 567-9523","42.373481","-71.039248","Restaurants",
"MI Pueblito Restaurant","333","333 Border St","East Boston","MA","(617) 569-3787","42.379032","-71.039895","Restaurants",
"Los Arrieros","13","13 Meridian St","East Boston","MA","(617) 569-1666","42.370601","-71.038787","Restaurants",
"P & R Ice Cream","1284","1284 Blue Hill Ave","Mattapan","MA","(617) 296-0922","42.279781","-71.092647","Restaurants",
"Cafe Jaffa","48","48 Gloucester St Ste 1","Boston","MA","(617) 536-0230","42.348667","-71.084132","Restaurants",
"Family Fare Restaurant","474","474 Lowell St Ste 11","Peabody","MA","(978) 536-9049","42.5407793","-70.9734787","Restaurants",
"Shawarma King Restaurant II","1383","1383 Beacon St","Brookline","MA","(617) 731-6035","42.341146","-71.12411","Restaurants",
"Oriental Express","8","8 W Water St","Rockland","MA","(781) 871-3600","42.1267656","-70.9152425","Restaurants",
"Mirage Inc","220","220 Lynnway","Revere","MA","(781) 286-3310","42.4412033268736","-70.9670242856223","Restaurants",
"Miami Restaurant","381","381 Centre St","Jamaica Plain","MA","(617) 522-4644","42.3223709","-71.109159","Restaurants",
"Roksana","133","133 Mount Auburn St","Watertown","MA","(617) 393-2229","42.367828","-71.178729","Restaurants",
"Genki Enterprises Inc","202","202 Legacy Pl","Dedham","MA","(781) 461-8889","42.2313037","-71.1764163","Restaurants",
"Red Rose Restaurant","716","716 Middlesex St Ste 1","Lowell","MA","(978) 452-5400","42.637815","-71.3208049","Restaurants",
"Delicias Paisas Bakery","24","24 Pleasant St","Lowell","MA","(978) 970-5555","42.6412327449923","-71.3006760597701","Restaurants",
"Polonus European Deli & Icecream","176","176 Essex St","Salem","MA","(978) 740-3203","42.5218533","-70.8935194","Restaurants",
"Brazilian Stop Market","299","299 Salem St","Medford","MA","(781) 391-8111","42.4209727","-71.0981091","Restaurants",
"P & P Soul Food & BBQ","880","880 Main St","Brockton","MA","(508) 427-9339","42.068195","-71.016937","Restaurants",
"Chieftain Pub & Restaurant","23","23 Washington St","Plainville","MA","(508) 643-9031","42.002625","-71.324965","Restaurants",
"Yoma Burmese Restaurant","5","5 N Beacon St","Allston","MA","(617) 783-1372","42.353744","-71.137596","Restaurants",
"Neighborhood Restaurant & Bakery","25","25 Bow St","Somerville","MA","(617) 628-2151","42.381588","-71.09734","Restaurants",
"Zabb Elee","586","586 Westford St","Lowell","MA","(978) 441-0014","42.6336084","-71.337194","Restaurants",
