Business Name,Physical Address Number,Physical Address,Physical City,Physical State,Phone,Latitude,Longitude,Primary SIC Description,
"Craigie On Main Restaurant & Bar","853","853 Main St","Cambridge","MA","(617) 497-5511","42.36353","-71.098626","Restaurants",
"Menton","354","354 Congress St Ste 101","Boston","MA","(617) 737-0099","42.350526","-71.048256","Restaurants",
"Deuxave","371","371 Commonwealth Ave","Boston","MA","(617) 517-5915","42.34942","-71.089058","Restaurants",
"Bistro & Wine Bar at Mirbeau","35","35 Landmark Dr","Plymouth","MA","(508) 209-2393","41.8812152","-70.5981587","Restaurants",
"5 Corners Kitchen","2","2 School St","Marblehead","MA","(781) 631-5550","42.501352","-70.85578","Restaurants",
"Aquitaine","569","569 Tremont St","Boston","MA","(617) 424-8577","42.3438192","-71.0723521","Restaurants",
"Gaslight","560","560 Harrison Ave Ste G4","Boston","MA","(617) 422-0224","42.340807","-71.067441","Restaurants",
"Les Zygomates Wine Bar & Bistro","129","129 South St Ste 101","Boston","MA","(617) 542-5108","42.351228","-71.057523","Restaurants",
"La Voile Brookline","1627","1627 Beacon St","Brookline","MA","(617) 277-1260","42.339045","-71.135372","Restaurants",
"Bastille Kitchen","49","49 Melcher St Ste 1","Boston","MA","(617) 556-8000","42.3494995","-71.0503974","Restaurants",
"Scutra","92","92 Summer St","Arlington","MA","(781) 316-1813","42.41889","-71.157999","Restaurants",
"Gaslight Lynnfield","1100","1100 Market St","Lynnfield","MA","(781) 334-3433","42.5146862","-71.0344211","Restaurants",
"Restaurant Lavoile","261","261 Newbury St","Boston","MA","(617) 587-4250","42.349586","-71.083145","Restaurants",
"Hagans Grill","6","6 High St","Hampton","NH","(603) 926-5668","42.9418641","-70.8375982","Restaurants",
"Marliave","10","10 Bosworth St","Boston","MA","(617) 422-0004","42.3569559","-71.0603469","Restaurants",
"Troquet","107","107 South St","Boston","MA","(617) 695-9463","42.351472","-71.057508","Restaurants",
"French Memories","459","459 Washington St","Duxbury","MA","(781) 934-9020","42.0387062","-70.6712688","Restaurants",
"Bergamot","118","118 Beacon St","Somerville","MA","(617) 576-7700","42.377989","-71.106366","Restaurants",
"Bondir Restaurant","279A","279a Broadway","Cambridge","MA","(617) 661-0009","42.3682873","-71.097767","Restaurants",
"Aquitaine at Legacy Place","500","500 Legacy Pl","Dedham","MA","(781) 471-5212","42.2303902","-71.1779435","Restaurants",
"Opus Salem","87","87 Washington St","Salem","MA","(978) 744-9600","42.5221089","-70.8955213","Restaurants",
"G Bar & Kitchen","256","256 Humphrey St","Swampscott","MA","(781) 596-2228","42.4673191","-70.9140078","Restaurants",
"Cafe De Paris","93","93 Willard St","Quincy","MA","(617) 472-9311","42.2519127546364","-71.0370670852364","Restaurants",
"Sycamore","755","755 Beacon St","Newton Center","MA","(617) 244-4445","42.3307223","-71.1916944","Restaurants",
"Fromage","401","401 W Broadway","South Boston","MA","(617) 464-4300","42.337003","-71.048431","Restaurants",
"Cafe Madeleine","517","517 Columbus Ave","Boston","MA","(857) 239-8052","42.342211","-71.080107","Restaurants",
"Reasons To Be Cheerful","110","110 Commonwealth Ave","Concord","MA","(978) 610-6248","42.4575008","-71.3957336","Restaurants",
"Petit Robert Bistro","480","480 Columbus Ave","Boston","MA","(617) 867-0600","42.342845","-71.078607","Restaurants",
"Chiara Bistro","569","569 High St","Westwood","MA","(781) 461-8118","42.229095","-71.221635","Restaurants",
"French Memories Bakery & Cafe","60","60 S Main St","Cohasset","MA","(781) 383-2216","42.24008","-70.801209","Restaurants",
"80 Thoreau","84","84 Thoreau St","Concord","MA","(978) 318-0008","42.456868","-71.358053","Restaurants",
"Josephine","468","468 Commonwealth Ave","Boston","MA","(484) 995-2797","42.348643","-71.0934467","Restaurants",
"Loui Loui","160","160 Brighton Ave","Allston","MA","(857) 261-1013","42.352861","-71.1326069","Restaurants",
"La Rotisserie","17","17 Boylston St","Chestnut Hill","MA","(617) 731-5335","42.3235386","-71.1667949","Restaurants",
"Paris Creperie","278","278 Harvard St","Brookline","MA","(617) 232-1770","42.342436","-71.121943","Restaurants",
"Corrados","7","7 Middlesex Ave","Natick","MA","(508) 655-3707","42.2853123","-71.3490593","Restaurants",
"Navy Yard Bistro & Wine Bar","1","1 1st Ave","Charlestown","MA","(617) 242-0036","42.3752877","-71.0544756","Restaurants",
"Ma Maison","272","272 Cambridge St","Boston","MA","(617) 725-8855","42.3609806","-71.0679643","Restaurants",
"Monte Cristo Restaurant","235","235 Broadway","Chelsea","MA","(617) 466-1338","42.3903919670662","-71.0380227748087","Restaurants",
"Asta","47","47 Massachusetts Ave","Boston","MA","(617) 585-9575","42.3498047","-71.0891846","Restaurants",
"Duckworths Bistro","197","197 E Main St","Gloucester","MA","(978) 282-4426","42.6091731","-70.6511076","Restaurants",
"Hungry I","71","71 Charles St","Boston","MA","(617) 227-3524","42.3581655","-71.0703431","Restaurants",
"La Dalat Restaurant","181","181 Nantasket Ave","Hull","MA","(781) 925-4587","42.2693158","-70.8550318","Restaurants",
"Whisk pop up at Wink","3","3 Appleton St","Boston","MA","(617) 756-7571","42.346723","-71.069668","Restaurants",
"Lelyonnais Restaurant & Catering","416","416 Great Rd","Acton","MA","(978) 263-9068","42.509729","-71.421825","Restaurants",
"Tangierino Restaurant","83","83 Main St","Charlestown","MA","(617) 242-6009","42.373922","-71.062762","Restaurants",
"Bon Appetit Restaurant","1138","1138 Blue Hill Ave","Dorchester Center","MA","(617) 825-5544","42.2857951","-71.0912518","Restaurants",
"Au Petit Pain","11","11 College Ave","Somerville","MA","(617) 628-0608","42.3968112326636","-71.1218906197649","Restaurants",
"Dinos Cafe","141","141 Salem St","Boston","MA","(617) 227-1991","42.3650423","-71.0553871","Restaurants",
"Baraka Cafe","1728","1728 Massachusetts Ave","Cambridge","MA","(617) 868-3951","42.384097","-71.119803","Restaurants",
